[
  {
    "index": "A",
    "items": [
      {
        "regionName": "Ascension Island",
        "callingCode": "+247",
        "regionCode": "AC",
        "regionFlag": "ğŸ‡¦ğŸ‡¨",
        "index": "A",
        "syllables": "Ascension Island"
      }
    ]
  },
  {
    "index": "K",
    "items": [
      {
        "regionFlag": "ğŸ‡½ğŸ‡°",
        "regionCode": "XK",
        "regionName": "Kosovo",
        "callingCode": "+383",
        "index": "K",
        "syllables": "Kosovo"
      }
    ]
  },
  {
    "index": "T",
    "items": [
      {
        "regionFlag": "ğŸ‡¹ğŸ‡¦",
        "regionName": "Tristan da Cunha",
        "regionCode": "TA",
        "callingCode": "+290",
        "index": "T",
        "syllables": "Tristan da Cunha"
      }
    ]
  },
  {
    "index": "ã",
    "items": [
      {
        "regionCode": "IS",
        "regionFlag": "ğŸ‡®ğŸ‡¸",
        "regionName": "ã‚¢ã‚¤ã‚¹ãƒ©ãƒ³ãƒ‰",
        "callingCode": "+354",
        "index": "ã",
        "syllables": "ã‚ã„ã™ã‚‰ã‚“ã©"
      },
      {
        "callingCode": "+353",
        "regionName": "ã‚¢ã‚¤ãƒ«ãƒ©ãƒ³ãƒ‰",
        "regionCode": "IE",
        "regionFlag": "ğŸ‡®ğŸ‡ª",
        "index": "ã",
        "syllables": "ã‚ã„ã‚‹ã‚‰ã‚“ã©"
      },
      {
        "callingCode": "+994",
        "regionFlag": "ğŸ‡¦ğŸ‡¿",
        "regionName": "ã‚¢ã‚¼ãƒ«ãƒã‚¤ã‚¸ãƒ£ãƒ³",
        "regionCode": "AZ",
        "index": "ã",
        "syllables": "ã‚ãœã‚‹ã°ã„ã˜ã‚ƒã‚“"
      },
      {
        "regionFlag": "ğŸ‡¦ğŸ‡«",
        "regionCode": "AF",
        "callingCode": "+93",
        "regionName": "ã‚¢ãƒ•ã‚¬ãƒ‹ã‚¹ã‚¿ãƒ³",
        "index": "ã",
        "syllables": "ã‚ãµãŒã«ã™ãŸã‚“"
      },
      {
        "callingCode": "+1",
        "regionName": "ã‚¢ãƒ¡ãƒªã‚«åˆè¡†å›½",
        "regionFlag": "ğŸ‡ºğŸ‡¸",
        "regionCode": "US",
        "index": "ã",
        "syllables": "ã‚ã‚ã‚Šã‹ãŒã£ã—ã‚…ã†ã“ã"
      },
      {
        "regionCode": "AE",
        "callingCode": "+971",
        "regionFlag": "ğŸ‡¦ğŸ‡ª",
        "regionName": "ã‚¢ãƒ©ãƒ–é¦–é•·å›½é€£é‚¦",
        "index": "ã",
        "syllables": "ã‚ã‚‰ã¶ã—ã‚…ã¡ã‚‡ã†ã“ãã‚Œã‚“ã½ã†"
      },
      {
        "regionCode": "DZ",
        "regionFlag": "ğŸ‡©ğŸ‡¿",
        "callingCode": "+213",
        "regionName": "ã‚¢ãƒ«ã‚¸ã‚§ãƒªã‚¢",
        "index": "ã",
        "syllables": "ã‚ã‚‹ã˜ã‡ã‚Šã‚"
      },
      {
        "regionCode": "AR",
        "regionName": "ã‚¢ãƒ«ã‚¼ãƒ³ãƒãƒ³",
        "regionFlag": "ğŸ‡¦ğŸ‡·",
        "callingCode": "+54",
        "index": "ã",
        "syllables": "ã‚ã‚‹ãœã‚“ã¡ã‚“"
      },
      {
        "callingCode": "+297",
        "regionName": "ã‚¢ãƒ«ãƒ",
        "regionCode": "AW",
        "regionFlag": "ğŸ‡¦ğŸ‡¼",
        "index": "ã",
        "syllables": "ã‚ã‚‹ã°"
      },
      {
        "regionName": "ã‚¢ãƒ«ãƒãƒ‹ã‚¢",
        "regionCode": "AL",
        "callingCode": "+355",
        "regionFlag": "ğŸ‡¦ğŸ‡±",
        "index": "ã",
        "syllables": "ã‚ã‚‹ã°ã«ã‚"
      },
      {
        "regionCode": "AM",
        "regionFlag": "ğŸ‡¦ğŸ‡²",
        "regionName": "ã‚¢ãƒ«ãƒ¡ãƒ‹ã‚¢",
        "callingCode": "+374",
        "index": "ã",
        "syllables": "ã‚ã‚‹ã‚ã«ã‚"
      },
      {
        "callingCode": "+1-264",
        "regionCode": "AI",
        "regionFlag": "ğŸ‡¦ğŸ‡®",
        "regionName": "ã‚¢ãƒ³ã‚®ãƒ©",
        "index": "ã",
        "syllables": "ã‚ã‚“ãã‚‰"
      },
      {
        "regionName": "ã‚¢ãƒ³ã‚´ãƒ©",
        "regionCode": "AO",
        "callingCode": "+244",
        "regionFlag": "ğŸ‡¦ğŸ‡´",
        "index": "ã",
        "syllables": "ã‚ã‚“ã”ã‚‰"
      },
      {
        "regionCode": "AG",
        "regionName": "ã‚¢ãƒ³ãƒ†ã‚£ã‚°ã‚¢ãƒ»ãƒãƒ¼ãƒ–ãƒ¼ãƒ€",
        "callingCode": "+1-268",
        "regionFlag": "ğŸ‡¦ğŸ‡¬",
        "index": "ã",
        "syllables": "ã‚ã‚“ã¦ãƒãã‚ãƒ»ã°ãƒ¼ã¶ãƒ¼ã "
      },
      {
        "regionCode": "AD",
        "regionFlag": "ğŸ‡¦ğŸ‡©",
        "regionName": "ã‚¢ãƒ³ãƒ‰ãƒ©",
        "callingCode": "+376",
        "index": "ã",
        "syllables": "ã‚ã‚“ã©ã‚‰"
      },
      {
        "regionName": "ã‚¤ã‚¨ãƒ¡ãƒ³",
        "regionCode": "YE",
        "callingCode": "+967",
        "regionFlag": "ğŸ‡¾ğŸ‡ª",
        "index": "ã",
        "syllables": "ã„ãˆã‚ã‚“"
      },
      {
        "callingCode": "+44",
        "regionFlag": "ğŸ‡¬ğŸ‡§",
        "regionCode": "GB",
        "regionName": "ã‚¤ã‚®ãƒªã‚¹",
        "index": "ã",
        "syllables": "ã„ãã‚Šã™"
      },
      {
        "regionName": "ã‚¤ã‚¹ãƒ©ã‚¨ãƒ«",
        "regionFlag": "ğŸ‡®ğŸ‡±",
        "callingCode": "+972",
        "regionCode": "IL",
        "index": "ã",
        "syllables": "ã„ã™ã‚‰ãˆã‚‹"
      },
      {
        "regionName": "ã‚¤ã‚¿ãƒªã‚¢",
        "callingCode": "+39",
        "regionCode": "IT",
        "regionFlag": "ğŸ‡®ğŸ‡¹",
        "index": "ã",
        "syllables": "ã„ãŸã‚Šã‚"
      },
      {
        "callingCode": "+964",
        "regionCode": "IQ",
        "regionFlag": "ğŸ‡®ğŸ‡¶",
        "regionName": "ã‚¤ãƒ©ã‚¯",
        "index": "ã",
        "syllables": "ã„ã‚‰ã"
      },
      {
        "regionFlag": "ğŸ‡®ğŸ‡·",
        "callingCode": "+98",
        "regionCode": "IR",
        "regionName": "ã‚¤ãƒ©ãƒ³",
        "index": "ã",
        "syllables": "ã„ã‚‰ã‚“"
      },
      {
        "regionCode": "IN",
        "regionFlag": "ğŸ‡®ğŸ‡³",
        "regionName": "ã‚¤ãƒ³ãƒ‰",
        "callingCode": "+91",
        "index": "ã",
        "syllables": "ã„ã‚“ã©"
      },
      {
        "regionCode": "ID",
        "regionFlag": "ğŸ‡®ğŸ‡©",
        "callingCode": "+62",
        "regionName": "ã‚¤ãƒ³ãƒ‰ãƒã‚·ã‚¢",
        "index": "ã",
        "syllables": "ã„ã‚“ã©ã­ã—ã‚"
      },
      {
        "callingCode": "+681",
        "regionFlag": "ğŸ‡¼ğŸ‡«",
        "regionCode": "WF",
        "regionName": "ã‚¦ã‚©ãƒªã‚¹ãƒ»ãƒ•ãƒ„ãƒŠ",
        "index": "ã",
        "syllables": "ã†ã‰ã‚Šã™ãƒ»ãµã¤ãª"
      },
      {
        "regionFlag": "ğŸ‡ºğŸ‡¬",
        "regionCode": "UG",
        "callingCode": "+256",
        "regionName": "ã‚¦ã‚¬ãƒ³ãƒ€",
        "index": "ã",
        "syllables": "ã†ãŒã‚“ã "
      },
      {
        "regionName": "ã‚¦ã‚¯ãƒ©ã‚¤ãƒŠ",
        "callingCode": "+380",
        "regionCode": "UA",
        "regionFlag": "ğŸ‡ºğŸ‡¦",
        "index": "ã",
        "syllables": "ã†ãã‚‰ã„ãª"
      },
      {
        "regionName": "ã‚¦ã‚ºãƒ™ã‚­ã‚¹ã‚¿ãƒ³",
        "callingCode": "+998",
        "regionFlag": "ğŸ‡ºğŸ‡¿",
        "regionCode": "UZ",
        "index": "ã",
        "syllables": "ã†ãšã¹ãã™ãŸã‚“"
      },
      {
        "regionFlag": "ğŸ‡ºğŸ‡¾",
        "regionCode": "UY",
        "regionName": "ã‚¦ãƒ«ã‚°ã‚¢ã‚¤",
        "callingCode": "+598",
        "index": "ã",
        "syllables": "ã†ã‚‹ãã‚ã„"
      },
      {
        "regionFlag": "ğŸ‡®ğŸ‡´",
        "regionCode": "IO",
        "callingCode": "+246",
        "regionName": "è‹±é ˜ã‚¤ãƒ³ãƒ‰æ´‹åœ°åŸŸ",
        "index": "ã",
        "syllables": "ãˆã„ã‚Šã‚‡ã†ã„ã‚“ã©ã‚ˆã†ã¡ã„ã"
      },
      {
        "callingCode": "+1-284",
        "regionName": "è‹±é ˜ãƒ´ã‚¡ãƒ¼ã‚¸ãƒ³è«¸å³¶",
        "regionCode": "VG",
        "regionFlag": "ğŸ‡»ğŸ‡¬",
        "index": "ã",
        "syllables": "ãˆã„ã‚Šã‚‡ã†ã‚”ããƒ¼ã˜ã‚“ã—ã‚‡ã¨ã†"
      },
      {
        "regionCode": "EC",
        "regionName": "ã‚¨ã‚¯ã‚¢ãƒ‰ãƒ«",
        "callingCode": "+593",
        "regionFlag": "ğŸ‡ªğŸ‡¨",
        "index": "ã",
        "syllables": "ãˆãã‚ã©ã‚‹"
      },
      {
        "regionFlag": "ğŸ‡ªğŸ‡¬",
        "regionCode": "EG",
        "regionName": "ã‚¨ã‚¸ãƒ—ãƒˆ",
        "callingCode": "+20",
        "index": "ã",
        "syllables": "ãˆã˜ã·ã¨"
      },
      {
        "callingCode": "+372",
        "regionName": "ã‚¨ã‚¹ãƒˆãƒ‹ã‚¢",
        "regionCode": "EE",
        "regionFlag": "ğŸ‡ªğŸ‡ª",
        "index": "ã",
        "syllables": "ãˆã™ã¨ã«ã‚"
      },
      {
        "regionCode": "SZ",
        "regionName": "ã‚¨ã‚¹ãƒ¯ãƒ†ã‚£ãƒ‹",
        "regionFlag": "ğŸ‡¸ğŸ‡¿",
        "callingCode": "+268",
        "index": "ã",
        "syllables": "ãˆã™ã‚ã¦ãƒã«"
      },
      {
        "callingCode": "+251",
        "regionFlag": "ğŸ‡ªğŸ‡¹",
        "regionCode": "ET",
        "regionName": "ã‚¨ãƒã‚ªãƒ”ã‚¢",
        "index": "ã",
        "syllables": "ãˆã¡ãŠã´ã‚"
      },
      {
        "regionCode": "ER",
        "regionFlag": "ğŸ‡ªğŸ‡·",
        "callingCode": "+291",
        "regionName": "ã‚¨ãƒªãƒˆãƒªã‚¢",
        "index": "ã",
        "syllables": "ãˆã‚Šã¨ã‚Šã‚"
      },
      {
        "callingCode": "+503",
        "regionFlag": "ğŸ‡¸ğŸ‡»",
        "regionCode": "SV",
        "regionName": "ã‚¨ãƒ«ã‚µãƒ«ãƒãƒ‰ãƒ«",
        "index": "ã",
        "syllables": "ãˆã‚‹ã•ã‚‹ã°ã©ã‚‹"
      },
      {
        "callingCode": "+968",
        "regionFlag": "ğŸ‡´ğŸ‡²",
        "regionName": "ã‚ªãƒãƒ¼ãƒ³",
        "regionCode": "OM",
        "index": "ã",
        "syllables": "ãŠã¾ãƒ¼ã‚“"
      },
      {
        "regionFlag": "ğŸ‡³ğŸ‡±",
        "regionCode": "NL",
        "regionName": "ã‚ªãƒ©ãƒ³ãƒ€",
        "callingCode": "+31",
        "index": "ã",
        "syllables": "ãŠã‚‰ã‚“ã "
      },
      {
        "regionName": "ã‚ªãƒ©ãƒ³ãƒ€é ˜ã‚«ãƒªãƒ–",
        "callingCode": "+599",
        "regionFlag": "ğŸ‡§ğŸ‡¶",
        "regionCode": "BQ",
        "index": "ã",
        "syllables": "ãŠã‚‰ã‚“ã ã‚Šã‚‡ã†ã‹ã‚Šã¶"
      },
      {
        "regionCode": "AU",
        "regionName": "ã‚ªãƒ¼ã‚¹ãƒˆãƒ©ãƒªã‚¢",
        "callingCode": "+61",
        "regionFlag": "ğŸ‡¦ğŸ‡º",
        "index": "ã",
        "syllables": "ãŠãƒ¼ã™ã¨ã‚‰ã‚Šã‚"
      },
      {
        "regionCode": "AT",
        "regionFlag": "ğŸ‡¦ğŸ‡¹",
        "callingCode": "+43",
        "regionName": "ã‚ªãƒ¼ã‚¹ãƒˆãƒªã‚¢",
        "index": "ã",
        "syllables": "ãŠãƒ¼ã™ã¨ã‚Šã‚"
      },
      {
        "regionName": "ã‚ªãƒ¼ãƒ©ãƒ³ãƒ‰è«¸å³¶",
        "regionFlag": "ğŸ‡¦ğŸ‡½",
        "regionCode": "AX",
        "callingCode": "+358",
        "index": "ã",
        "syllables": "ãŠãƒ¼ã‚‰ã‚“ã©ã—ã‚‡ã¨ã†"
      }
    ]
  },
  {
    "index": "ã‹",
    "items": [
      {
        "regionFlag": "ğŸ‡°ğŸ‡¿",
        "callingCode": "+7",
        "regionName": "ã‚«ã‚¶ãƒ•ã‚¹ã‚¿ãƒ³",
        "regionCode": "KZ",
        "index": "ã‹",
        "syllables": "ã‹ã–ãµã™ãŸã‚“"
      },
      {
        "regionCode": "QA",
        "regionName": "ã‚«ã‚¿ãƒ¼ãƒ«",
        "regionFlag": "ğŸ‡¶ğŸ‡¦",
        "callingCode": "+974",
        "index": "ã‹",
        "syllables": "ã‹ãŸãƒ¼ã‚‹"
      },
      {
        "callingCode": "+1",
        "regionCode": "CA",
        "regionName": "ã‚«ãƒŠãƒ€",
        "regionFlag": "ğŸ‡¨ğŸ‡¦",
        "index": "ã‹",
        "syllables": "ã‹ãªã "
      },
      {
        "callingCode": "+237",
        "regionFlag": "ğŸ‡¨ğŸ‡²",
        "regionCode": "CM",
        "regionName": "ã‚«ãƒ¡ãƒ«ãƒ¼ãƒ³",
        "index": "ã‹",
        "syllables": "ã‹ã‚ã‚‹ãƒ¼ã‚“"
      },
      {
        "regionFlag": "ğŸ‡°ğŸ‡·",
        "callingCode": "+82",
        "regionName": "éŸ“å›½",
        "regionCode": "KR",
        "index": "ã‹",
        "syllables": "ã‹ã‚“ã“ã"
      },
      {
        "regionFlag": "ğŸ‡°ğŸ‡­",
        "regionCode": "KH",
        "callingCode": "+855",
        "regionName": "ã‚«ãƒ³ãƒœã‚¸ã‚¢",
        "index": "ã‹",
        "syllables": "ã‹ã‚“ã¼ã˜ã‚"
      },
      {
        "regionFlag": "ğŸ‡¨ğŸ‡»",
        "regionName": "ã‚«ãƒ¼ãƒœãƒ™ãƒ«ãƒ‡",
        "callingCode": "+238",
        "regionCode": "CV",
        "index": "ã‹",
        "syllables": "ã‹ãƒ¼ã¼ã¹ã‚‹ã§"
      },
      {
        "callingCode": "+595",
        "regionName": "ã‚¬ã‚¤ã‚¢ãƒŠ",
        "regionCode": "GY",
        "regionFlag": "ğŸ‡¬ğŸ‡¾",
        "index": "ã‹",
        "syllables": "ãŒã„ã‚ãª"
      },
      {
        "callingCode": "+1",
        "regionFlag": "ğŸ‡ºğŸ‡¸",
        "regionCode": "UM",
        "regionName": "åˆè¡†å›½é ˜æœ‰å°é›¢å³¶",
        "index": "ã‹",
        "syllables": "ãŒã£ã—ã‚…ã†ã“ãã‚Šã‚‡ã†ã‚†ã†ã—ã‚‡ã†ã‚Šã¨ã†"
      },
      {
        "regionFlag": "ğŸ‡¬ğŸ‡¦",
        "callingCode": "+241",
        "regionName": "ã‚¬ãƒœãƒ³",
        "regionCode": "GA",
        "index": "ã‹",
        "syllables": "ãŒã¼ã‚“"
      },
      {
        "regionCode": "GM",
        "callingCode": "+220",
        "regionFlag": "ğŸ‡¬ğŸ‡²",
        "regionName": "ã‚¬ãƒ³ãƒ“ã‚¢",
        "index": "ã‹",
        "syllables": "ãŒã‚“ã³ã‚"
      },
      {
        "callingCode": "+233",
        "regionFlag": "ğŸ‡¬ğŸ‡­",
        "regionCode": "GH",
        "regionName": "ã‚¬ãƒ¼ãƒŠ",
        "index": "ã‹",
        "syllables": "ãŒãƒ¼ãª"
      },
      {
        "callingCode": "+44",
        "regionName": "ã‚¬ãƒ¼ãƒ³ã‚¸ãƒ¼",
        "regionCode": "GG",
        "regionFlag": "ğŸ‡¬ğŸ‡¬",
        "index": "ã‹",
        "syllables": "ãŒãƒ¼ã‚“ã˜ãƒ¼"
      },
      {
        "regionCode": "KP",
        "regionFlag": "ğŸ‡°ğŸ‡µ",
        "callingCode": "+850",
        "regionName": "åŒ—æœé®®",
        "index": "ã‹",
        "syllables": "ããŸã¡ã‚‡ã†ã›ã‚“"
      },
      {
        "regionCode": "MK",
        "callingCode": "+389",
        "regionName": "åŒ—ãƒã‚±ãƒ‰ãƒ‹ã‚¢",
        "regionFlag": "ğŸ‡²ğŸ‡°",
        "index": "ã‹",
        "syllables": "ããŸã¾ã‘ã©ã«ã‚"
      },
      {
        "regionName": "åŒ—ãƒãƒªã‚¢ãƒŠè«¸å³¶",
        "regionCode": "MP",
        "regionFlag": "ğŸ‡²ğŸ‡µ",
        "callingCode": "+1-670",
        "index": "ã‹",
        "syllables": "ããŸã¾ã‚Šã‚ãªã—ã‚‡ã¨ã†"
      },
      {
        "regionName": "ã‚­ãƒ—ãƒ­ã‚¹",
        "regionCode": "CY",
        "callingCode": "+357",
        "regionFlag": "ğŸ‡¨ğŸ‡¾",
        "index": "ã‹",
        "syllables": "ãã·ã‚ã™"
      },
      {
        "regionFlag": "ğŸ‡¨ğŸ‡¼",
        "regionCode": "CW",
        "regionName": "ã‚­ãƒ¥ãƒ©ã‚½ãƒ¼",
        "callingCode": "+599 9",
        "index": "ã‹",
        "syllables": "ãã‚…ã‚‰ããƒ¼"
      },
      {
        "regionName": "ã‚­ãƒ¥ãƒ¼ãƒ",
        "regionFlag": "ğŸ‡¨ğŸ‡º",
        "regionCode": "CU",
        "callingCode": "+53",
        "index": "ã‹",
        "syllables": "ãã‚…ãƒ¼ã°"
      },
      {
        "regionCode": "KI",
        "regionName": "ã‚­ãƒªãƒã‚¹",
        "callingCode": "+686",
        "regionFlag": "ğŸ‡°ğŸ‡®",
        "index": "ã‹",
        "syllables": "ãã‚Šã°ã™"
      },
      {
        "callingCode": "+996",
        "regionFlag": "ğŸ‡°ğŸ‡¬",
        "regionName": "ã‚­ãƒ«ã‚®ã‚¹",
        "regionCode": "KG",
        "index": "ã‹",
        "syllables": "ãã‚‹ãã™"
      },
      {
        "regionName": "ã‚®ãƒ‹ã‚¢",
        "regionFlag": "ğŸ‡¬ğŸ‡³",
        "regionCode": "GN",
        "callingCode": "+224",
        "index": "ã‹",
        "syllables": "ãã«ã‚"
      },
      {
        "regionCode": "GW",
        "regionName": "ã‚®ãƒ‹ã‚¢ãƒ“ã‚µã‚¦",
        "callingCode": "+245",
        "regionFlag": "ğŸ‡¬ğŸ‡¼",
        "index": "ã‹",
        "syllables": "ãã«ã‚ã³ã•ã†"
      },
      {
        "callingCode": "+30",
        "regionCode": "GR",
        "regionFlag": "ğŸ‡¬ğŸ‡·",
        "regionName": "ã‚®ãƒªã‚·ãƒ£",
        "index": "ã‹",
        "syllables": "ãã‚Šã—ã‚ƒ"
      },
      {
        "callingCode": "+965",
        "regionCode": "KW",
        "regionFlag": "ğŸ‡°ğŸ‡¼",
        "regionName": "ã‚¯ã‚¦ã‚§ãƒ¼ãƒˆ",
        "index": "ã‹",
        "syllables": "ãã†ã‡ãƒ¼ã¨"
      },
      {
        "regionFlag": "ğŸ‡¨ğŸ‡°",
        "regionCode": "CK",
        "regionName": "ã‚¯ãƒƒã‚¯è«¸å³¶",
        "callingCode": "+682",
        "index": "ã‹",
        "syllables": "ãã£ãã—ã‚‡ã¨ã†"
      },
      {
        "regionCode": "CX",
        "regionName": "ã‚¯ãƒªã‚¹ãƒã‚¹å³¶",
        "callingCode": "+61",
        "regionFlag": "ğŸ‡¨ğŸ‡½",
        "index": "ã‹",
        "syllables": "ãã‚Šã™ã¾ã™ã¨ã†"
      },
      {
        "regionCode": "HR",
        "regionFlag": "ğŸ‡­ğŸ‡·",
        "regionName": "ã‚¯ãƒ­ã‚¢ãƒã‚¢",
        "callingCode": "+385",
        "index": "ã‹",
        "syllables": "ãã‚ã‚ã¡ã‚"
      },
      {
        "regionCode": "GT",
        "regionFlag": "ğŸ‡¬ğŸ‡¹",
        "callingCode": "+502",
        "regionName": "ã‚°ã‚¢ãƒ†ãƒãƒ©",
        "index": "ã‹",
        "syllables": "ãã‚ã¦ã¾ã‚‰"
      },
      {
        "callingCode": "+590",
        "regionCode": "GP",
        "regionFlag": "ğŸ‡¬ğŸ‡µ",
        "regionName": "ã‚°ã‚¢ãƒ‰ãƒ«ãƒ¼ãƒ—",
        "index": "ã‹",
        "syllables": "ãã‚ã©ã‚‹ãƒ¼ã·"
      },
      {
        "regionCode": "GU",
        "callingCode": "+1-671",
        "regionName": "ã‚°ã‚¢ãƒ ",
        "regionFlag": "ğŸ‡¬ğŸ‡º",
        "index": "ã‹",
        "syllables": "ãã‚ã‚€"
      },
      {
        "regionFlag": "ğŸ‡¬ğŸ‡±",
        "regionCode": "GL",
        "regionName": "ã‚°ãƒªãƒ¼ãƒ³ãƒ©ãƒ³ãƒ‰",
        "callingCode": "+299",
        "index": "ã‹",
        "syllables": "ãã‚Šãƒ¼ã‚“ã‚‰ã‚“ã©"
      },
      {
        "regionCode": "GD",
        "regionName": "ã‚°ãƒ¬ãƒŠãƒ€",
        "callingCode": "+1-473",
        "regionFlag": "ğŸ‡¬ğŸ‡©",
        "index": "ã‹",
        "syllables": "ãã‚Œãªã "
      },
      {
        "callingCode": "+345",
        "regionFlag": "ğŸ‡°ğŸ‡¾",
        "regionCode": "KY",
        "regionName": "ã‚±ã‚¤ãƒãƒ³è«¸å³¶",
        "index": "ã‹",
        "syllables": "ã‘ã„ã¾ã‚“ã—ã‚‡ã¨ã†"
      },
      {
        "callingCode": "+254",
        "regionFlag": "ğŸ‡°ğŸ‡ª",
        "regionName": "ã‚±ãƒ‹ã‚¢",
        "regionCode": "KE",
        "index": "ã‹",
        "syllables": "ã‘ã«ã‚"
      },
      {
        "regionCode": "CC",
        "regionFlag": "ğŸ‡¨ğŸ‡¨",
        "regionName": "ã‚³ã‚³ã‚¹(ã‚­ãƒ¼ãƒªãƒ³ã‚°)è«¸å³¶",
        "callingCode": "+61",
        "index": "ã‹",
        "syllables": "ã“ã“ã™(ããƒ¼ã‚Šã‚“ã)ã—ã‚‡ã¨ã†"
      },
      {
        "regionFlag": "ğŸ‡¨ğŸ‡·",
        "callingCode": "+506",
        "regionName": "ã‚³ã‚¹ã‚¿ãƒªã‚«",
        "regionCode": "CR",
        "index": "ã‹",
        "syllables": "ã“ã™ãŸã‚Šã‹"
      },
      {
        "regionName": "ã‚³ãƒ¢ãƒ­",
        "callingCode": "+269",
        "regionFlag": "ğŸ‡°ğŸ‡²",
        "regionCode": "KM",
        "index": "ã‹",
        "syllables": "ã“ã‚‚ã‚"
      },
      {
        "regionName": "ã‚³ãƒ­ãƒ³ãƒ“ã‚¢",
        "regionFlag": "ğŸ‡¨ğŸ‡´",
        "regionCode": "CO",
        "callingCode": "+57",
        "index": "ã‹",
        "syllables": "ã“ã‚ã‚“ã³ã‚"
      },
      {
        "callingCode": "+242",
        "regionName": "ã‚³ãƒ³ã‚´å…±å’Œå›½(ãƒ–ãƒ©ã‚¶ãƒ“ãƒ«)",
        "regionCode": "CG",
        "regionFlag": "ğŸ‡¨ğŸ‡¬",
        "index": "ã‹",
        "syllables": "ã“ã‚“ã”ãã‚‡ã†ã‚ã“ã(ã¶ã‚‰ã–ã³ã‚‹)"
      },
      {
        "callingCode": "+243",
        "regionCode": "CD",
        "regionFlag": "ğŸ‡¨ğŸ‡©",
        "regionName": "ã‚³ãƒ³ã‚´æ°‘ä¸»å…±å’Œå›½(ã‚­ãƒ³ã‚·ãƒ£ã‚µ)",
        "index": "ã‹",
        "syllables": "ã“ã‚“ã”ã¿ã‚“ã—ã‚…ãã‚‡ã†ã‚ã“ã(ãã‚“ã—ã‚ƒã•)"
      },
      {
        "callingCode": "+225",
        "regionFlag": "ğŸ‡¨ğŸ‡®",
        "regionCode": "CI",
        "regionName": "ã‚³ãƒ¼ãƒˆã‚¸ãƒœãƒ¯ãƒ¼ãƒ«",
        "index": "ã‹",
        "syllables": "ã“ãƒ¼ã¨ã˜ã¼ã‚ãƒ¼ã‚‹"
      }
    ]
  },
  {
    "index": "ã•",
    "items": [
      {
        "regionName": "ã‚µã‚¦ã‚¸ã‚¢ãƒ©ãƒ“ã‚¢",
        "regionCode": "SA",
        "regionFlag": "ğŸ‡¸ğŸ‡¦",
        "callingCode": "+966",
        "index": "ã•",
        "syllables": "ã•ã†ã˜ã‚ã‚‰ã³ã‚"
      },
      {
        "regionFlag": "ğŸ‡¬ğŸ‡¸",
        "regionName": "ã‚µã‚¦ã‚¹ã‚¸ãƒ§ãƒ¼ã‚¸ã‚¢ãƒ»ã‚µã‚¦ã‚¹ã‚µãƒ³ãƒ‰ã‚¦ã‚£ãƒƒãƒè«¸å³¶",
        "regionCode": "GS",
        "callingCode": "+500",
        "index": "ã•",
        "syllables": "ã•ã†ã™ã˜ã‚‡ãƒ¼ã˜ã‚ãƒ»ã•ã†ã™ã•ã‚“ã©ã†ãƒã£ã¡ã—ã‚‡ã¨ã†"
      },
      {
        "regionCode": "WS",
        "regionName": "ã‚µãƒ¢ã‚¢",
        "regionFlag": "ğŸ‡¼ğŸ‡¸",
        "callingCode": "+685",
        "index": "ã•",
        "syllables": "ã•ã‚‚ã‚"
      },
      {
        "regionName": "ã‚µãƒ³ãƒˆãƒ¡ãƒ»ãƒ—ãƒªãƒ³ã‚·ãƒš",
        "callingCode": "+239",
        "regionCode": "ST",
        "regionFlag": "ğŸ‡¸ğŸ‡¹",
        "index": "ã•",
        "syllables": "ã•ã‚“ã¨ã‚ãƒ»ã·ã‚Šã‚“ã—ãº"
      },
      {
        "regionName": "ã‚µãƒ³ãƒ”ã‚¨ãƒ¼ãƒ«å³¶ãƒ»ãƒŸã‚¯ãƒ­ãƒ³å³¶",
        "regionFlag": "ğŸ‡µğŸ‡²",
        "regionCode": "PM",
        "callingCode": "+508",
        "index": "ã•",
        "syllables": "ã•ã‚“ã´ãˆãƒ¼ã‚‹ã¨ã†ãƒ»ã¿ãã‚ã‚“ã¨ã†"
      },
      {
        "regionCode": "SM",
        "regionFlag": "ğŸ‡¸ğŸ‡²",
        "callingCode": "+378",
        "regionName": "ã‚µãƒ³ãƒãƒªãƒ",
        "index": "ã•",
        "syllables": "ã•ã‚“ã¾ã‚Šã®"
      },
      {
        "callingCode": "+590",
        "regionName": "ã‚µãƒ³ãƒ»ãƒãƒ«ãƒ†ãƒ«ãƒŸãƒ¼",
        "regionCode": "BL",
        "regionFlag": "ğŸ‡§ğŸ‡±",
        "index": "ã•",
        "syllables": "ã•ã‚“ãƒ»ã°ã‚‹ã¦ã‚‹ã¿ãƒ¼"
      },
      {
        "regionCode": "MF",
        "regionFlag": "ğŸ‡²ğŸ‡«",
        "regionName": "ã‚µãƒ³ãƒ»ãƒãƒ«ã‚¿ãƒ³",
        "callingCode": "+590",
        "index": "ã•",
        "syllables": "ã•ã‚“ãƒ»ã¾ã‚‹ãŸã‚“"
      },
      {
        "callingCode": "+260",
        "regionFlag": "ğŸ‡¿ğŸ‡²",
        "regionCode": "ZM",
        "regionName": "ã‚¶ãƒ³ãƒ“ã‚¢",
        "index": "ã•",
        "syllables": "ã–ã‚“ã³ã‚"
      },
      {
        "callingCode": "+232",
        "regionFlag": "ğŸ‡¸ğŸ‡±",
        "regionCode": "SL",
        "regionName": "ã‚·ã‚¨ãƒ©ãƒ¬ã‚ªãƒ",
        "index": "ã•",
        "syllables": "ã—ãˆã‚‰ã‚ŒãŠã­"
      },
      {
        "regionCode": "SY",
        "regionFlag": "ğŸ‡¸ğŸ‡¾",
        "regionName": "ã‚·ãƒªã‚¢",
        "callingCode": "+963",
        "index": "ã•",
        "syllables": "ã—ã‚Šã‚"
      },
      {
        "callingCode": "+65",
        "regionFlag": "ğŸ‡¸ğŸ‡¬",
        "regionName": "ã‚·ãƒ³ã‚¬ãƒãƒ¼ãƒ«",
        "regionCode": "SG",
        "index": "ã•",
        "syllables": "ã—ã‚“ãŒã½ãƒ¼ã‚‹"
      },
      {
        "regionFlag": "ğŸ‡¸ğŸ‡½",
        "regionName": "ã‚·ãƒ³ãƒˆãƒ»ãƒãƒ¼ãƒ«ãƒ†ãƒ³",
        "callingCode": "+1-721",
        "regionCode": "SX",
        "index": "ã•",
        "syllables": "ã—ã‚“ã¨ãƒ»ã¾ãƒ¼ã‚‹ã¦ã‚“"
      },
      {
        "regionCode": "DJ",
        "callingCode": "+253",
        "regionName": "ã‚¸ãƒ–ãƒ",
        "regionFlag": "ğŸ‡©ğŸ‡¯",
        "index": "ã•",
        "syllables": "ã˜ã¶ã¡"
      },
      {
        "regionName": "ã‚¸ãƒ–ãƒ©ãƒ«ã‚¿ãƒ«",
        "regionCode": "GI",
        "regionFlag": "ğŸ‡¬ğŸ‡®",
        "callingCode": "+350",
        "index": "ã•",
        "syllables": "ã˜ã¶ã‚‰ã‚‹ãŸã‚‹"
      },
      {
        "callingCode": "+1-876",
        "regionFlag": "ğŸ‡¯ğŸ‡²",
        "regionCode": "JM",
        "regionName": "ã‚¸ãƒ£ãƒã‚¤ã‚«",
        "index": "ã•",
        "syllables": "ã˜ã‚ƒã¾ã„ã‹"
      },
      {
        "regionName": "ã‚¸ãƒ£ãƒ¼ã‚¸ãƒ¼",
        "regionCode": "JE",
        "regionFlag": "ğŸ‡¯ğŸ‡ª",
        "callingCode": "+44",
        "index": "ã•",
        "syllables": "ã˜ã‚ƒãƒ¼ã˜ãƒ¼"
      },
      {
        "regionCode": "GE",
        "regionFlag": "ğŸ‡¬ğŸ‡ª",
        "callingCode": "+995",
        "regionName": "ã‚¸ãƒ§ãƒ¼ã‚¸ã‚¢",
        "index": "ã•",
        "syllables": "ã˜ã‚‡ãƒ¼ã˜ã‚"
      },
      {
        "regionName": "ã‚¸ãƒ³ãƒãƒ–ã‚¨",
        "regionCode": "ZW",
        "regionFlag": "ğŸ‡¿ğŸ‡¼",
        "callingCode": "+263",
        "index": "ã•",
        "syllables": "ã˜ã‚“ã°ã¶ãˆ"
      },
      {
        "callingCode": "+41",
        "regionName": "ã‚¹ã‚¤ã‚¹",
        "regionFlag": "ğŸ‡¨ğŸ‡­",
        "regionCode": "CH",
        "index": "ã•",
        "syllables": "ã™ã„ã™"
      },
      {
        "regionName": "ã‚¹ã‚¦ã‚§ãƒ¼ãƒ‡ãƒ³",
        "regionFlag": "ğŸ‡¸ğŸ‡ª",
        "callingCode": "+46",
        "regionCode": "SE",
        "index": "ã•",
        "syllables": "ã™ã†ã‡ãƒ¼ã§ã‚“"
      },
      {
        "callingCode": "+47",
        "regionName": "ã‚¹ãƒãƒ¼ãƒ«ãƒãƒ«è«¸å³¶ãƒ»ãƒ¤ãƒ³ãƒã‚¤ã‚¨ãƒ³å³¶",
        "regionCode": "SJ",
        "regionFlag": "ğŸ‡¸ğŸ‡¯",
        "index": "ã•",
        "syllables": "ã™ã°ãƒ¼ã‚‹ã°ã‚‹ã—ã‚‡ã¨ã†ãƒ»ã‚„ã‚“ã¾ã„ãˆã‚“ã¨ã†"
      },
      {
        "regionFlag": "ğŸ‡ªğŸ‡¸",
        "callingCode": "+34",
        "regionCode": "ES",
        "regionName": "ã‚¹ãƒšã‚¤ãƒ³",
        "index": "ã•",
        "syllables": "ã™ãºã„ã‚“"
      },
      {
        "regionFlag": "ğŸ‡¸ğŸ‡·",
        "regionName": "ã‚¹ãƒªãƒŠãƒ ",
        "callingCode": "+597",
        "regionCode": "SR",
        "index": "ã•",
        "syllables": "ã™ã‚Šãªã‚€"
      },
      {
        "regionFlag": "ğŸ‡±ğŸ‡°",
        "callingCode": "+94",
        "regionCode": "LK",
        "regionName": "ã‚¹ãƒªãƒ©ãƒ³ã‚«",
        "index": "ã•",
        "syllables": "ã™ã‚Šã‚‰ã‚“ã‹"
      },
      {
        "regionCode": "SK",
        "regionName": "ã‚¹ãƒ­ãƒã‚­ã‚¢",
        "callingCode": "+421",
        "regionFlag": "ğŸ‡¸ğŸ‡°",
        "index": "ã•",
        "syllables": "ã™ã‚ã°ãã‚"
      },
      {
        "regionName": "ã‚¹ãƒ­ãƒ™ãƒ‹ã‚¢",
        "regionFlag": "ğŸ‡¸ğŸ‡®",
        "regionCode": "SI",
        "callingCode": "+386",
        "index": "ã•",
        "syllables": "ã™ã‚ã¹ã«ã‚"
      },
      {
        "regionCode": "SD",
        "regionName": "ã‚¹ãƒ¼ãƒ€ãƒ³",
        "regionFlag": "ğŸ‡¸ğŸ‡©",
        "callingCode": "+249",
        "index": "ã•",
        "syllables": "ã™ãƒ¼ã ã‚“"
      },
      {
        "regionCode": "GQ",
        "regionFlag": "ğŸ‡¬ğŸ‡¶",
        "callingCode": "+240",
        "regionName": "èµ¤é“ã‚®ãƒ‹ã‚¢",
        "index": "ã•",
        "syllables": "ã›ãã©ã†ãã«ã‚"
      },
      {
        "callingCode": "+221",
        "regionCode": "SN",
        "regionName": "ã‚»ãƒã‚¬ãƒ«",
        "regionFlag": "ğŸ‡¸ğŸ‡³",
        "index": "ã•",
        "syllables": "ã›ã­ãŒã‚‹"
      },
      {
        "regionName": "ã‚»ãƒ«ãƒ“ã‚¢",
        "regionCode": "RS",
        "regionFlag": "ğŸ‡·ğŸ‡¸",
        "callingCode": "+381",
        "index": "ã•",
        "syllables": "ã›ã‚‹ã³ã‚"
      },
      {
        "regionFlag": "ğŸ‡°ğŸ‡³",
        "callingCode": "+1-869",
        "regionCode": "KN",
        "regionName": "ã‚»ãƒ³ãƒˆã‚¯ãƒªã‚¹ãƒˆãƒ•ã‚¡ãƒ¼ãƒ»ãƒãƒ¼ãƒ´ã‚£ã‚¹",
        "index": "ã•",
        "syllables": "ã›ã‚“ã¨ãã‚Šã™ã¨ãµããƒ¼ãƒ»ã­ãƒ¼ã‚”ãƒã™"
      },
      {
        "regionCode": "VC",
        "regionName": "ã‚»ãƒ³ãƒˆãƒ“ãƒ³ã‚»ãƒ³ãƒˆåŠã³ã‚°ãƒ¬ãƒŠãƒ‡ã‚£ãƒ¼ãƒ³è«¸å³¶",
        "callingCode": "+1-784",
        "regionFlag": "ğŸ‡»ğŸ‡¨",
        "index": "ã•",
        "syllables": "ã›ã‚“ã¨ã³ã‚“ã›ã‚“ã¨ãŠã‚ˆã³ãã‚Œãªã§ãƒãƒ¼ã‚“ã—ã‚‡ã¨ã†"
      },
      {
        "regionFlag": "ğŸ‡¸ğŸ‡­",
        "callingCode": "+290",
        "regionCode": "SH",
        "regionName": "ã‚»ãƒ³ãƒˆãƒ˜ãƒ¬ãƒŠ",
        "index": "ã•",
        "syllables": "ã›ã‚“ã¨ã¸ã‚Œãª"
      },
      {
        "regionFlag": "ğŸ‡±ğŸ‡¨",
        "regionName": "ã‚»ãƒ³ãƒˆãƒ«ã‚·ã‚¢",
        "callingCode": "+1-758",
        "regionCode": "LC",
        "index": "ã•",
        "syllables": "ã›ã‚“ã¨ã‚‹ã—ã‚"
      },
      {
        "regionCode": "SC",
        "regionFlag": "ğŸ‡¸ğŸ‡¨",
        "callingCode": "+248",
        "regionName": "ã‚»ãƒ¼ã‚·ã‚§ãƒ«",
        "index": "ã•",
        "syllables": "ã›ãƒ¼ã—ã‡ã‚‹"
      },
      {
        "regionCode": "SO",
        "regionName": "ã‚½ãƒãƒªã‚¢",
        "regionFlag": "ğŸ‡¸ğŸ‡´",
        "callingCode": "+252",
        "index": "ã•",
        "syllables": "ãã¾ã‚Šã‚"
      },
      {
        "regionCode": "SB",
        "regionName": "ã‚½ãƒ­ãƒ¢ãƒ³è«¸å³¶",
        "callingCode": "+677",
        "regionFlag": "ğŸ‡¸ğŸ‡§",
        "index": "ã•",
        "syllables": "ãã‚ã‚‚ã‚“ã—ã‚‡ã¨ã†"
      }
    ]
  },
  {
    "index": "ãŸ",
    "items": [
      {
        "callingCode": "+66",
        "regionCode": "TH",
        "regionFlag": "ğŸ‡¹ğŸ‡­",
        "regionName": "ã‚¿ã‚¤",
        "index": "ãŸ",
        "syllables": "ãŸã„"
      },
      {
        "regionCode": "TW",
        "regionName": "å°æ¹¾",
        "regionFlag": "ğŸ‡¨ğŸ‡³",
        "callingCode": "+886",
        "index": "ãŸ",
        "syllables": "ãŸã„ã‚ã‚“"
      },
      {
        "regionName": "ã‚¿ã‚¸ã‚­ã‚¹ã‚¿ãƒ³",
        "regionCode": "TJ",
        "callingCode": "+992",
        "regionFlag": "ğŸ‡¹ğŸ‡¯",
        "index": "ãŸ",
        "syllables": "ãŸã˜ãã™ãŸã‚“"
      },
      {
        "regionName": "ã‚¿ãƒ³ã‚¶ãƒ‹ã‚¢",
        "callingCode": "+255",
        "regionCode": "TZ",
        "regionFlag": "ğŸ‡¹ğŸ‡¿",
        "index": "ãŸ",
        "syllables": "ãŸã‚“ã–ã«ã‚"
      },
      {
        "callingCode": "+1-649",
        "regionFlag": "ğŸ‡¹ğŸ‡¨",
        "regionCode": "TC",
        "regionName": "ã‚¿ãƒ¼ã‚¯ã‚¹ãƒ»ã‚«ã‚¤ã‚³ã‚¹è«¸å³¶",
        "index": "ãŸ",
        "syllables": "ãŸãƒ¼ãã™ãƒ»ã‹ã„ã“ã™ã—ã‚‡ã¨ã†"
      },
      {
        "callingCode": "+420",
        "regionFlag": "ğŸ‡¨ğŸ‡¿",
        "regionCode": "CZ",
        "regionName": "ãƒã‚§ã‚³",
        "index": "ãŸ",
        "syllables": "ã¡ã‡ã“"
      },
      {
        "regionName": "ãƒãƒ£ãƒ‰",
        "regionFlag": "ğŸ‡¹ğŸ‡©",
        "callingCode": "+235",
        "regionCode": "TD",
        "index": "ãŸ",
        "syllables": "ã¡ã‚ƒã©"
      },
      {
        "callingCode": "+236",
        "regionCode": "CF",
        "regionFlag": "ğŸ‡¨ğŸ‡«",
        "regionName": "ä¸­å¤®ã‚¢ãƒ•ãƒªã‚«å…±å’Œå›½",
        "index": "ãŸ",
        "syllables": "ã¡ã‚…ã†ãŠã†ã‚ãµã‚Šã‹ãã‚‡ã†ã‚ã“ã"
      },
      {
        "regionCode": "HK",
        "regionName": "ä¸­è¯äººæ°‘å…±å’Œå›½é¦™æ¸¯ç‰¹åˆ¥è¡Œæ”¿åŒº",
        "regionFlag": "ğŸ‡­ğŸ‡°",
        "callingCode": "+852",
        "index": "ãŸ",
        "syllables": "ã¡ã‚…ã†ã‹ã˜ã‚“ã¿ã‚“ãã‚‡ã†ã‚ã“ãã»ã‚“ã“ã‚“ã¨ãã¹ã¤ãã‚‡ã†ã›ã„ã"
      },
      {
        "regionFlag": "ğŸ‡²ğŸ‡´",
        "regionCode": "MO",
        "callingCode": "+853",
        "regionName": "ä¸­è¯äººæ°‘å…±å’Œå›½ãƒã‚«ã‚ªç‰¹åˆ¥è¡Œæ”¿åŒº",
        "index": "ãŸ",
        "syllables": "ã¡ã‚…ã†ã‹ã˜ã‚“ã¿ã‚“ãã‚‡ã†ã‚ã“ãã¾ã‹ãŠã¨ãã¹ã¤ãã‚‡ã†ã›ã„ã"
      },
      {
        "regionFlag": "ğŸ‡¨ğŸ‡³",
        "callingCode": "+86",
        "regionName": "ä¸­å›½",
        "regionCode": "CN",
        "index": "ãŸ",
        "syllables": "ã¡ã‚…ã†ã”ã"
      },
      {
        "regionFlag": "ğŸ‡¹ğŸ‡³",
        "callingCode": "+216",
        "regionCode": "TN",
        "regionName": "ãƒãƒ¥ãƒ‹ã‚¸ã‚¢",
        "index": "ãŸ",
        "syllables": "ã¡ã‚…ã«ã˜ã‚"
      },
      {
        "regionName": "ãƒãƒª",
        "regionCode": "CL",
        "callingCode": "+56",
        "regionFlag": "ğŸ‡¨ğŸ‡±",
        "index": "ãŸ",
        "syllables": "ã¡ã‚Š"
      },
      {
        "regionName": "ãƒ„ãƒãƒ«",
        "regionCode": "TV",
        "callingCode": "+688",
        "regionFlag": "ğŸ‡¹ğŸ‡»",
        "index": "ãŸ",
        "syllables": "ã¤ã°ã‚‹"
      },
      {
        "regionFlag": "ğŸ‡©ğŸ‡°",
        "regionCode": "DK",
        "regionName": "ãƒ‡ãƒ³ãƒãƒ¼ã‚¯",
        "callingCode": "+45",
        "index": "ãŸ",
        "syllables": "ã§ã‚“ã¾ãƒ¼ã"
      },
      {
        "regionFlag": "ğŸ‡¹ğŸ‡°",
        "regionName": "ãƒˆã‚±ãƒ©ã‚¦",
        "regionCode": "TK",
        "callingCode": "+690",
        "index": "ãŸ",
        "syllables": "ã¨ã‘ã‚‰ã†"
      },
      {
        "callingCode": "+1-868",
        "regionCode": "TT",
        "regionName": "ãƒˆãƒªãƒ‹ãƒ€ãƒ¼ãƒ‰ãƒ»ãƒˆãƒã‚´",
        "regionFlag": "ğŸ‡¹ğŸ‡¹",
        "index": "ãŸ",
        "syllables": "ã¨ã‚Šã«ã ãƒ¼ã©ãƒ»ã¨ã°ã”"
      },
      {
        "regionFlag": "ğŸ‡¹ğŸ‡²",
        "regionName": "ãƒˆãƒ«ã‚¯ãƒ¡ãƒ‹ã‚¹ã‚¿ãƒ³",
        "callingCode": "+993",
        "regionCode": "TM",
        "index": "ãŸ",
        "syllables": "ã¨ã‚‹ãã‚ã«ã™ãŸã‚“"
      },
      {
        "regionName": "ãƒˆãƒ«ã‚³",
        "regionCode": "TR",
        "regionFlag": "ğŸ‡¹ğŸ‡·",
        "callingCode": "+90",
        "index": "ãŸ",
        "syllables": "ã¨ã‚‹ã“"
      },
      {
        "callingCode": "+676",
        "regionFlag": "ğŸ‡¹ğŸ‡´",
        "regionCode": "TO",
        "regionName": "ãƒˆãƒ³ã‚¬",
        "index": "ãŸ",
        "syllables": "ã¨ã‚“ãŒ"
      },
      {
        "regionCode": "TG",
        "regionFlag": "ğŸ‡¹ğŸ‡¬",
        "callingCode": "+228",
        "regionName": "ãƒˆãƒ¼ã‚´",
        "index": "ãŸ",
        "syllables": "ã¨ãƒ¼ã”"
      },
      {
        "regionName": "ãƒ‰ã‚¤ãƒ„",
        "regionFlag": "ğŸ‡©ğŸ‡ª",
        "regionCode": "DE",
        "callingCode": "+49",
        "index": "ãŸ",
        "syllables": "ã©ã„ã¤"
      },
      {
        "regionFlag": "ğŸ‡©ğŸ‡´",
        "regionCode": "DO",
        "regionName": "ãƒ‰ãƒŸãƒ‹ã‚«å…±å’Œå›½",
        "callingCode": "+1-849",
        "index": "ãŸ",
        "syllables": "ã©ã¿ã«ã‹ãã‚‡ã†ã‚ã“ã"
      },
      {
        "callingCode": "+1-767",
        "regionFlag": "ğŸ‡©ğŸ‡²",
        "regionName": "ãƒ‰ãƒŸãƒ‹ã‚«å›½",
        "regionCode": "DM",
        "index": "ãŸ",
        "syllables": "ã©ã¿ã«ã‹ã“ã"
      }
    ]
  },
  {
    "index": "ãª",
    "items": [
      {
        "regionFlag": "ğŸ‡³ğŸ‡¬",
        "regionName": "ãƒŠã‚¤ã‚¸ã‚§ãƒªã‚¢",
        "regionCode": "NG",
        "callingCode": "+234",
        "index": "ãª",
        "syllables": "ãªã„ã˜ã‡ã‚Šã‚"
      },
      {
        "regionFlag": "ğŸ‡³ğŸ‡·",
        "regionCode": "NR",
        "regionName": "ãƒŠã‚¦ãƒ«",
        "callingCode": "+674",
        "index": "ãª",
        "syllables": "ãªã†ã‚‹"
      },
      {
        "regionFlag": "ğŸ‡³ğŸ‡¦",
        "regionName": "ãƒŠãƒŸãƒ“ã‚¢",
        "callingCode": "+264",
        "regionCode": "NA",
        "index": "ãª",
        "syllables": "ãªã¿ã³ã‚"
      },
      {
        "regionFlag": "ğŸ‡¦ğŸ‡¶",
        "regionName": "å—æ¥µ",
        "callingCode": "+672",
        "regionCode": "AQ",
        "index": "ãª",
        "syllables": "ãªã‚“ãã‚‡ã"
      },
      {
        "regionCode": "NU",
        "regionName": "ãƒ‹ã‚¦ã‚¨",
        "regionFlag": "ğŸ‡³ğŸ‡º",
        "callingCode": "+683",
        "index": "ãª",
        "syllables": "ã«ã†ãˆ"
      },
      {
        "regionName": "ãƒ‹ã‚«ãƒ©ã‚°ã‚¢",
        "callingCode": "+505",
        "regionCode": "NI",
        "regionFlag": "ğŸ‡³ğŸ‡®",
        "index": "ãª",
        "syllables": "ã«ã‹ã‚‰ãã‚"
      },
      {
        "regionName": "è¥¿ã‚µãƒãƒ©",
        "regionFlag": "ğŸ‡ªğŸ‡­",
        "regionCode": "EH",
        "callingCode": "+212",
        "index": "ãª",
        "syllables": "ã«ã—ã•ã¯ã‚‰"
      },
      {
        "callingCode": "+227",
        "regionName": "ãƒ‹ã‚¸ã‚§ãƒ¼ãƒ«",
        "regionFlag": "ğŸ‡³ğŸ‡ª",
        "regionCode": "NE",
        "index": "ãª",
        "syllables": "ã«ã˜ã‡ãƒ¼ã‚‹"
      },
      {
        "regionCode": "JP",
        "callingCode": "+81",
        "regionFlag": "ğŸ‡¯ğŸ‡µ",
        "regionName": "æ—¥æœ¬",
        "index": "ãª",
        "syllables": "ã«ã£ã½ã‚“"
      },
      {
        "regionName": "ãƒ‹ãƒ¥ãƒ¼ã‚«ãƒ¬ãƒ‰ãƒ‹ã‚¢",
        "regionCode": "NC",
        "callingCode": "+687",
        "regionFlag": "ğŸ‡³ğŸ‡¨",
        "index": "ãª",
        "syllables": "ã«ã‚…ãƒ¼ã‹ã‚Œã©ã«ã‚"
      },
      {
        "regionCode": "NZ",
        "regionFlag": "ğŸ‡³ğŸ‡¿",
        "regionName": "ãƒ‹ãƒ¥ãƒ¼ã‚¸ãƒ¼ãƒ©ãƒ³ãƒ‰",
        "callingCode": "+64",
        "index": "ãª",
        "syllables": "ã«ã‚…ãƒ¼ã˜ãƒ¼ã‚‰ã‚“ã©"
      },
      {
        "regionFlag": "ğŸ‡³ğŸ‡µ",
        "regionName": "ãƒãƒ‘ãƒ¼ãƒ«",
        "callingCode": "+977",
        "regionCode": "NP",
        "index": "ãª",
        "syllables": "ã­ã±ãƒ¼ã‚‹"
      },
      {
        "callingCode": "+47",
        "regionCode": "NO",
        "regionFlag": "ğŸ‡³ğŸ‡´",
        "regionName": "ãƒãƒ«ã‚¦ã‚§ãƒ¼",
        "index": "ãª",
        "syllables": "ã®ã‚‹ã†ã‡ãƒ¼"
      },
      {
        "regionFlag": "ğŸ‡³ğŸ‡«",
        "regionName": "ãƒãƒ¼ãƒ•ã‚©ãƒ¼ã‚¯å³¶",
        "callingCode": "+672",
        "regionCode": "NF",
        "index": "ãª",
        "syllables": "ã®ãƒ¼ãµã‰ãƒ¼ãã¨ã†"
      }
    ]
  },
  {
    "index": "ã¯",
    "items": [
      {
        "regionFlag": "ğŸ‡­ğŸ‡¹",
        "regionCode": "HT",
        "regionName": "ãƒã‚¤ãƒ",
        "callingCode": "+509",
        "index": "ã¯",
        "syllables": "ã¯ã„ã¡"
      },
      {
        "regionCode": "HU",
        "regionName": "ãƒãƒ³ã‚¬ãƒªãƒ¼",
        "regionFlag": "ğŸ‡­ğŸ‡º",
        "callingCode": "+36",
        "index": "ã¯",
        "syllables": "ã¯ã‚“ãŒã‚Šãƒ¼"
      },
      {
        "callingCode": "+672",
        "regionFlag": "ğŸ‡­ğŸ‡²",
        "regionName": "ãƒãƒ¼ãƒ‰å³¶ãƒ»ãƒã‚¯ãƒ‰ãƒŠãƒ«ãƒ‰è«¸å³¶",
        "regionCode": "HM",
        "index": "ã¯",
        "syllables": "ã¯ãƒ¼ã©ã¨ã†ãƒ»ã¾ãã©ãªã‚‹ã©ã—ã‚‡ã¨ã†"
      },
      {
        "regionFlag": "ğŸ‡»ğŸ‡¦",
        "regionName": "ãƒãƒã‚«ãƒ³å¸‚å›½",
        "callingCode": "+379",
        "regionCode": "VA",
        "index": "ã¯",
        "syllables": "ã°ã¡ã‹ã‚“ã—ã“ã"
      },
      {
        "callingCode": "+678",
        "regionName": "ãƒãƒŒã‚¢ãƒ„",
        "regionFlag": "ğŸ‡»ğŸ‡º",
        "regionCode": "VU",
        "index": "ã¯",
        "syllables": "ã°ã¬ã‚ã¤"
      },
      {
        "regionFlag": "ğŸ‡§ğŸ‡¸",
        "regionCode": "BS",
        "regionName": "ãƒãƒãƒ",
        "callingCode": "+1-242",
        "index": "ã¯",
        "syllables": "ã°ã¯ã¾"
      },
      {
        "regionName": "ãƒãƒŸãƒ¥ãƒ¼ãƒ€",
        "callingCode": "+1-441",
        "regionCode": "BM",
        "regionFlag": "ğŸ‡§ğŸ‡²",
        "index": "ã¯",
        "syllables": "ã°ã¿ã‚…ãƒ¼ã "
      },
      {
        "regionCode": "BB",
        "regionFlag": "ğŸ‡§ğŸ‡§",
        "regionName": "ãƒãƒ«ãƒãƒ‰ã‚¹",
        "callingCode": "+1-246",
        "index": "ã¯",
        "syllables": "ã°ã‚‹ã°ã©ã™"
      },
      {
        "callingCode": "+880",
        "regionCode": "BD",
        "regionFlag": "ğŸ‡§ğŸ‡©",
        "regionName": "ãƒãƒ³ã‚°ãƒ©ãƒ‡ã‚·ãƒ¥",
        "index": "ã¯",
        "syllables": "ã°ã‚“ãã‚‰ã§ã—ã‚…"
      },
      {
        "regionName": "ãƒãƒ¼ãƒ¬ãƒ¼ãƒ³",
        "regionFlag": "ğŸ‡§ğŸ‡­",
        "callingCode": "+973",
        "regionCode": "BH",
        "index": "ã¯",
        "syllables": "ã°ãƒ¼ã‚Œãƒ¼ã‚“"
      },
      {
        "callingCode": "+92",
        "regionCode": "PK",
        "regionFlag": "ğŸ‡µğŸ‡°",
        "regionName": "ãƒ‘ã‚­ã‚¹ã‚¿ãƒ³",
        "index": "ã¯",
        "syllables": "ã±ãã™ãŸã‚“"
      },
      {
        "callingCode": "+507",
        "regionName": "ãƒ‘ãƒŠãƒ",
        "regionFlag": "ğŸ‡µğŸ‡¦",
        "regionCode": "PA",
        "index": "ã¯",
        "syllables": "ã±ãªã¾"
      },
      {
        "regionCode": "PG",
        "regionFlag": "ğŸ‡µğŸ‡¬",
        "regionName": "ãƒ‘ãƒ—ã‚¢ãƒ‹ãƒ¥ãƒ¼ã‚®ãƒ‹ã‚¢",
        "callingCode": "+675",
        "index": "ã¯",
        "syllables": "ã±ã·ã‚ã«ã‚…ãƒ¼ãã«ã‚"
      },
      {
        "regionName": "ãƒ‘ãƒ©ã‚ª",
        "callingCode": "+680",
        "regionFlag": "ğŸ‡µğŸ‡¼",
        "regionCode": "PW",
        "index": "ã¯",
        "syllables": "ã±ã‚‰ãŠ"
      },
      {
        "regionName": "ãƒ‘ãƒ©ã‚°ã‚¢ã‚¤",
        "regionFlag": "ğŸ‡µğŸ‡¾",
        "callingCode": "+595",
        "regionCode": "PY",
        "index": "ã¯",
        "syllables": "ã±ã‚‰ãã‚ã„"
      },
      {
        "callingCode": "+970",
        "regionCode": "PS",
        "regionFlag": "ğŸ‡µğŸ‡¸",
        "regionName": "ãƒ‘ãƒ¬ã‚¹ãƒãƒŠè‡ªæ²»åŒº",
        "index": "ã¯",
        "syllables": "ã±ã‚Œã™ã¡ãªã˜ã¡ã"
      },
      {
        "regionCode": "TL",
        "regionName": "æ±ãƒ†ã‚£ãƒ¢ãƒ¼ãƒ«",
        "callingCode": "+670",
        "regionFlag": "ğŸ‡¹ğŸ‡±",
        "index": "ã¯",
        "syllables": "ã²ãŒã—ã¦ãƒã‚‚ãƒ¼ã‚‹"
      },
      {
        "regionName": "ãƒ”ãƒˆã‚±ã‚¢ãƒ³è«¸å³¶",
        "callingCode": "+872",
        "regionCode": "PN",
        "regionFlag": "ğŸ‡µğŸ‡³",
        "index": "ã¯",
        "syllables": "ã´ã¨ã‘ã‚ã‚“ã—ã‚‡ã¨ã†"
      },
      {
        "regionCode": "FJ",
        "regionFlag": "ğŸ‡«ğŸ‡¯",
        "regionName": "ãƒ•ã‚£ã‚¸ãƒ¼",
        "callingCode": "+679",
        "index": "ã¯",
        "syllables": "ãµãƒã˜ãƒ¼"
      },
      {
        "regionName": "ãƒ•ã‚£ãƒªãƒ”ãƒ³",
        "regionFlag": "ğŸ‡µğŸ‡­",
        "callingCode": "+63",
        "regionCode": "PH",
        "index": "ã¯",
        "syllables": "ãµãƒã‚Šã´ã‚“"
      },
      {
        "regionFlag": "ğŸ‡«ğŸ‡®",
        "regionCode": "FI",
        "callingCode": "+358",
        "regionName": "ãƒ•ã‚£ãƒ³ãƒ©ãƒ³ãƒ‰",
        "index": "ã¯",
        "syllables": "ãµãƒã‚“ã‚‰ã‚“ã©"
      },
      {
        "regionCode": "FO",
        "regionName": "ãƒ•ã‚§ãƒ­ãƒ¼è«¸å³¶",
        "regionFlag": "ğŸ‡«ğŸ‡´",
        "callingCode": "+298",
        "index": "ã¯",
        "syllables": "ãµã‡ã‚ãƒ¼ã—ã‚‡ã¨ã†"
      },
      {
        "regionName": "ãƒ•ã‚©ãƒ¼ã‚¯ãƒ©ãƒ³ãƒ‰è«¸å³¶",
        "regionCode": "FK",
        "regionFlag": "ğŸ‡«ğŸ‡°",
        "callingCode": "+500",
        "index": "ã¯",
        "syllables": "ãµã‰ãƒ¼ãã‚‰ã‚“ã©ã—ã‚‡ã¨ã†"
      },
      {
        "regionName": "ä»é ˜ã‚®ã‚¢ãƒŠ",
        "regionFlag": "ğŸ‡¬ğŸ‡«",
        "callingCode": "+594",
        "regionCode": "GF",
        "index": "ã¯",
        "syllables": "ãµã¤ã‚Šã‚‡ã†ãã‚ãª"
      },
      {
        "callingCode": "+689",
        "regionFlag": "ğŸ‡µğŸ‡«",
        "regionName": "ä»é ˜ãƒãƒªãƒã‚·ã‚¢",
        "regionCode": "PF",
        "index": "ã¯",
        "syllables": "ãµã¤ã‚Šã‚‡ã†ã½ã‚Šã­ã—ã‚"
      },
      {
        "regionCode": "FR",
        "regionFlag": "ğŸ‡«ğŸ‡·",
        "regionName": "ãƒ•ãƒ©ãƒ³ã‚¹",
        "callingCode": "+33",
        "index": "ã¯",
        "syllables": "ãµã‚‰ã‚“ã™"
      },
      {
        "regionName": "ãƒ–ãƒ©ã‚¸ãƒ«",
        "regionCode": "BR",
        "callingCode": "+55",
        "regionFlag": "ğŸ‡§ğŸ‡·",
        "index": "ã¯",
        "syllables": "ã¶ã‚‰ã˜ã‚‹"
      },
      {
        "regionName": "ãƒ–ãƒ«ã‚¬ãƒªã‚¢",
        "callingCode": "+359",
        "regionCode": "BG",
        "regionFlag": "ğŸ‡§ğŸ‡¬",
        "index": "ã¯",
        "syllables": "ã¶ã‚‹ãŒã‚Šã‚"
      },
      {
        "callingCode": "+226",
        "regionFlag": "ğŸ‡§ğŸ‡«",
        "regionName": "ãƒ–ãƒ«ã‚­ãƒŠãƒ•ã‚¡ã‚½",
        "regionCode": "BF",
        "index": "ã¯",
        "syllables": "ã¶ã‚‹ããªãµãã"
      },
      {
        "regionName": "ãƒ–ãƒ«ãƒã‚¤",
        "regionCode": "BN",
        "regionFlag": "ğŸ‡§ğŸ‡³",
        "callingCode": "+673",
        "index": "ã¯",
        "syllables": "ã¶ã‚‹ã­ã„"
      },
      {
        "regionFlag": "ğŸ‡§ğŸ‡®",
        "regionName": "ãƒ–ãƒ«ãƒ³ã‚¸",
        "regionCode": "BI",
        "callingCode": "+257",
        "index": "ã¯",
        "syllables": "ã¶ã‚‹ã‚“ã˜"
      },
      {
        "regionCode": "BT",
        "regionName": "ãƒ–ãƒ¼ã‚¿ãƒ³",
        "callingCode": "+975",
        "regionFlag": "ğŸ‡§ğŸ‡¹",
        "index": "ã¯",
        "syllables": "ã¶ãƒ¼ãŸã‚“"
      },
      {
        "regionName": "ãƒ—ã‚¨ãƒ«ãƒˆãƒªã‚³",
        "regionCode": "PR",
        "regionFlag": "ğŸ‡µğŸ‡·",
        "callingCode": "+1-939",
        "index": "ã¯",
        "syllables": "ã·ãˆã‚‹ã¨ã‚Šã“"
      },
      {
        "callingCode": "+1-684",
        "regionName": "ç±³é ˜ã‚µãƒ¢ã‚¢",
        "regionFlag": "ğŸ‡¦ğŸ‡¸",
        "regionCode": "AS",
        "index": "ã¯",
        "syllables": "ã¹ã„ã‚Šã‚‡ã†ã•ã‚‚ã‚"
      },
      {
        "regionCode": "VI",
        "regionFlag": "ğŸ‡»ğŸ‡®",
        "regionName": "ç±³é ˜ãƒ´ã‚¡ãƒ¼ã‚¸ãƒ³è«¸å³¶",
        "callingCode": "+1-340",
        "index": "ã¯",
        "syllables": "ã¹ã„ã‚Šã‚‡ã†ã‚”ããƒ¼ã˜ã‚“ã—ã‚‡ã¨ã†"
      },
      {
        "callingCode": "+84",
        "regionName": "ãƒ™ãƒˆãƒŠãƒ ",
        "regionCode": "VN",
        "regionFlag": "ğŸ‡»ğŸ‡³",
        "index": "ã¯",
        "syllables": "ã¹ã¨ãªã‚€"
      },
      {
        "regionName": "ãƒ™ãƒŠãƒ³",
        "regionFlag": "ğŸ‡§ğŸ‡¯",
        "regionCode": "BJ",
        "callingCode": "+229",
        "index": "ã¯",
        "syllables": "ã¹ãªã‚“"
      },
      {
        "regionFlag": "ğŸ‡»ğŸ‡ª",
        "regionCode": "VE",
        "regionName": "ãƒ™ãƒã‚ºã‚¨ãƒ©",
        "callingCode": "+58",
        "index": "ã¯",
        "syllables": "ã¹ã­ãšãˆã‚‰"
      },
      {
        "regionCode": "BY",
        "regionFlag": "ğŸ‡§ğŸ‡¾",
        "regionName": "ãƒ™ãƒ©ãƒ«ãƒ¼ã‚·",
        "callingCode": "+375",
        "index": "ã¯",
        "syllables": "ã¹ã‚‰ã‚‹ãƒ¼ã—"
      },
      {
        "regionCode": "BZ",
        "regionFlag": "ğŸ‡§ğŸ‡¿",
        "callingCode": "+501",
        "regionName": "ãƒ™ãƒªãƒ¼ã‚º",
        "index": "ã¯",
        "syllables": "ã¹ã‚Šãƒ¼ãš"
      },
      {
        "callingCode": "+32",
        "regionCode": "BE",
        "regionName": "ãƒ™ãƒ«ã‚®ãƒ¼",
        "regionFlag": "ğŸ‡§ğŸ‡ª",
        "index": "ã¯",
        "syllables": "ã¹ã‚‹ããƒ¼"
      },
      {
        "regionCode": "PE",
        "regionName": "ãƒšãƒ«ãƒ¼",
        "callingCode": "+51",
        "regionFlag": "ğŸ‡µğŸ‡ª",
        "index": "ã¯",
        "syllables": "ãºã‚‹ãƒ¼"
      },
      {
        "regionCode": "HN",
        "callingCode": "+504",
        "regionName": "ãƒ›ãƒ³ã‚¸ãƒ¥ãƒ©ã‚¹",
        "regionFlag": "ğŸ‡­ğŸ‡³",
        "index": "ã¯",
        "syllables": "ã»ã‚“ã˜ã‚…ã‚‰ã™"
      },
      {
        "regionCode": "BA",
        "callingCode": "+387",
        "regionFlag": "ğŸ‡§ğŸ‡¦",
        "regionName": "ãƒœã‚¹ãƒ‹ã‚¢ãƒ»ãƒ˜ãƒ«ãƒ„ã‚§ã‚´ãƒ“ãƒŠ",
        "index": "ã¯",
        "syllables": "ã¼ã™ã«ã‚ãƒ»ã¸ã‚‹ã¤ã‡ã”ã³ãª"
      },
      {
        "regionFlag": "ğŸ‡§ğŸ‡¼",
        "regionName": "ãƒœãƒ„ãƒ¯ãƒŠ",
        "regionCode": "BW",
        "callingCode": "+267",
        "index": "ã¯",
        "syllables": "ã¼ã¤ã‚ãª"
      },
      {
        "regionName": "ãƒœãƒªãƒ“ã‚¢",
        "callingCode": "+591",
        "regionCode": "BO",
        "regionFlag": "ğŸ‡§ğŸ‡´",
        "index": "ã¯",
        "syllables": "ã¼ã‚Šã³ã‚"
      },
      {
        "regionCode": "PT",
        "regionFlag": "ğŸ‡µğŸ‡¹",
        "callingCode": "+351",
        "regionName": "ãƒãƒ«ãƒˆã‚¬ãƒ«",
        "index": "ã¯",
        "syllables": "ã½ã‚‹ã¨ãŒã‚‹"
      },
      {
        "regionCode": "PL",
        "regionFlag": "ğŸ‡µğŸ‡±",
        "callingCode": "+48",
        "regionName": "ãƒãƒ¼ãƒ©ãƒ³ãƒ‰",
        "index": "ã¯",
        "syllables": "ã½ãƒ¼ã‚‰ã‚“ã©"
      }
    ]
  },
  {
    "index": "ã¾",
    "items": [
      {
        "regionName": "ãƒãƒ€ã‚¬ã‚¹ã‚«ãƒ«",
        "regionFlag": "ğŸ‡²ğŸ‡¬",
        "regionCode": "MG",
        "callingCode": "+261",
        "index": "ã¾",
        "syllables": "ã¾ã ãŒã™ã‹ã‚‹"
      },
      {
        "callingCode": "+262",
        "regionName": "ãƒãƒ¨ãƒƒãƒˆ",
        "regionCode": "YT",
        "regionFlag": "ğŸ‡¾ğŸ‡¹",
        "index": "ã¾",
        "syllables": "ã¾ã‚ˆã£ã¨"
      },
      {
        "callingCode": "+265",
        "regionFlag": "ğŸ‡²ğŸ‡¼",
        "regionCode": "MW",
        "regionName": "ãƒãƒ©ã‚¦ã‚¤",
        "index": "ã¾",
        "syllables": "ã¾ã‚‰ã†ã„"
      },
      {
        "callingCode": "+223",
        "regionCode": "ML",
        "regionFlag": "ğŸ‡²ğŸ‡±",
        "regionName": "ãƒãƒª",
        "index": "ã¾",
        "syllables": "ã¾ã‚Š"
      },
      {
        "regionFlag": "ğŸ‡²ğŸ‡¹",
        "regionName": "ãƒãƒ«ã‚¿",
        "regionCode": "MT",
        "callingCode": "+356",
        "index": "ã¾",
        "syllables": "ã¾ã‚‹ãŸ"
      },
      {
        "regionFlag": "ğŸ‡²ğŸ‡¶",
        "regionName": "ãƒãƒ«ãƒ†ã‚£ãƒ‹ãƒ¼ã‚¯",
        "callingCode": "+596",
        "regionCode": "MQ",
        "index": "ã¾",
        "syllables": "ã¾ã‚‹ã¦ãƒã«ãƒ¼ã"
      },
      {
        "regionName": "ãƒãƒ¬ãƒ¼ã‚·ã‚¢",
        "callingCode": "+60",
        "regionCode": "MY",
        "regionFlag": "ğŸ‡²ğŸ‡¾",
        "index": "ã¾",
        "syllables": "ã¾ã‚Œãƒ¼ã—ã‚"
      },
      {
        "regionCode": "IM",
        "callingCode": "+44",
        "regionFlag": "ğŸ‡®ğŸ‡²",
        "regionName": "ãƒãƒ³å³¶",
        "index": "ã¾",
        "syllables": "ã¾ã‚“ã¨ã†"
      },
      {
        "regionName": "ãƒãƒ¼ã‚·ãƒ£ãƒ«è«¸å³¶",
        "regionCode": "MH",
        "regionFlag": "ğŸ‡²ğŸ‡­",
        "callingCode": "+692",
        "index": "ã¾",
        "syllables": "ã¾ãƒ¼ã—ã‚ƒã‚‹ã—ã‚‡ã¨ã†"
      },
      {
        "regionFlag": "ğŸ‡«ğŸ‡²",
        "regionName": "ãƒŸã‚¯ãƒ­ãƒã‚·ã‚¢é€£é‚¦",
        "callingCode": "+691",
        "regionCode": "FM",
        "index": "ã¾",
        "syllables": "ã¿ãã‚ã­ã—ã‚ã‚Œã‚“ã½ã†"
      },
      {
        "regionCode": "ZA",
        "regionFlag": "ğŸ‡¿ğŸ‡¦",
        "regionName": "å—ã‚¢ãƒ•ãƒªã‚«",
        "callingCode": "+27",
        "index": "ã¾",
        "syllables": "ã¿ãªã¿ã‚ãµã‚Šã‹"
      },
      {
        "regionFlag": "ğŸ‡¸ğŸ‡¸",
        "callingCode": "+211",
        "regionCode": "SS",
        "regionName": "å—ã‚¹ãƒ¼ãƒ€ãƒ³",
        "index": "ã¾",
        "syllables": "ã¿ãªã¿ã™ãƒ¼ã ã‚“"
      },
      {
        "regionCode": "MM",
        "regionName": "ãƒŸãƒ£ãƒ³ãƒãƒ¼ (ãƒ“ãƒ«ãƒ)",
        "callingCode": "+95",
        "regionFlag": "ğŸ‡²ğŸ‡²",
        "index": "ã¾",
        "syllables": "ã¿ã‚ƒã‚“ã¾ãƒ¼ (ã³ã‚‹ã¾)"
      },
      {
        "regionFlag": "ğŸ‡²ğŸ‡½",
        "regionCode": "MX",
        "regionName": "ãƒ¡ã‚­ã‚·ã‚³",
        "callingCode": "+52",
        "index": "ã¾",
        "syllables": "ã‚ãã—ã“"
      },
      {
        "regionCode": "MZ",
        "regionFlag": "ğŸ‡²ğŸ‡¿",
        "callingCode": "+258",
        "regionName": "ãƒ¢ã‚¶ãƒ³ãƒ“ãƒ¼ã‚¯",
        "index": "ã¾",
        "syllables": "ã‚‚ã–ã‚“ã³ãƒ¼ã"
      },
      {
        "regionFlag": "ğŸ‡²ğŸ‡¨",
        "callingCode": "+377",
        "regionName": "ãƒ¢ãƒŠã‚³",
        "regionCode": "MC",
        "index": "ã¾",
        "syllables": "ã‚‚ãªã“"
      },
      {
        "regionName": "ãƒ¢ãƒ«ãƒ‡ã‚£ãƒ–",
        "callingCode": "+960",
        "regionCode": "MV",
        "regionFlag": "ğŸ‡²ğŸ‡»",
        "index": "ã¾",
        "syllables": "ã‚‚ã‚‹ã§ãƒã¶"
      },
      {
        "regionFlag": "ğŸ‡²ğŸ‡©",
        "regionCode": "MD",
        "regionName": "ãƒ¢ãƒ«ãƒ‰ãƒ",
        "callingCode": "+373",
        "index": "ã¾",
        "syllables": "ã‚‚ã‚‹ã©ã°"
      },
      {
        "regionCode": "MA",
        "regionName": "ãƒ¢ãƒ­ãƒƒã‚³",
        "regionFlag": "ğŸ‡²ğŸ‡¦",
        "callingCode": "+212",
        "index": "ã¾",
        "syllables": "ã‚‚ã‚ã£ã“"
      },
      {
        "regionFlag": "ğŸ‡²ğŸ‡³",
        "callingCode": "+976",
        "regionName": "ãƒ¢ãƒ³ã‚´ãƒ«",
        "regionCode": "MN",
        "index": "ã¾",
        "syllables": "ã‚‚ã‚“ã”ã‚‹"
      },
      {
        "regionCode": "ME",
        "regionName": "ãƒ¢ãƒ³ãƒ†ãƒã‚°ãƒ­",
        "regionFlag": "ğŸ‡²ğŸ‡ª",
        "callingCode": "+382",
        "index": "ã¾",
        "syllables": "ã‚‚ã‚“ã¦ã­ãã‚"
      },
      {
        "regionName": "ãƒ¢ãƒ³ãƒˆã‚»ãƒ©ãƒˆ",
        "regionCode": "MS",
        "regionFlag": "ğŸ‡²ğŸ‡¸",
        "callingCode": "+1-664",
        "index": "ã¾",
        "syllables": "ã‚‚ã‚“ã¨ã›ã‚‰ã¨"
      },
      {
        "regionName": "ãƒ¢ãƒ¼ãƒªã‚·ãƒ£ã‚¹",
        "regionFlag": "ğŸ‡²ğŸ‡º",
        "callingCode": "+230",
        "regionCode": "MU",
        "index": "ã¾",
        "syllables": "ã‚‚ãƒ¼ã‚Šã—ã‚ƒã™"
      },
      {
        "regionFlag": "ğŸ‡²ğŸ‡·",
        "callingCode": "+222",
        "regionCode": "MR",
        "regionName": "ãƒ¢ãƒ¼ãƒªã‚¿ãƒ‹ã‚¢",
        "index": "ã¾",
        "syllables": "ã‚‚ãƒ¼ã‚ŠãŸã«ã‚"
      }
    ]
  },
  {
    "index": "ã‚ƒ",
    "items": [
      {
        "regionName": "ãƒ¨ãƒ«ãƒ€ãƒ³",
        "regionFlag": "ğŸ‡¯ğŸ‡´",
        "regionCode": "JO",
        "callingCode": "+962",
        "index": "ã‚ƒ",
        "syllables": "ã‚ˆã‚‹ã ã‚“"
      }
    ]
  },
  {
    "index": "ã‚‰",
    "items": [
      {
        "regionName": "ãƒ©ã‚ªã‚¹",
        "callingCode": "+856",
        "regionCode": "LA",
        "regionFlag": "ğŸ‡±ğŸ‡¦",
        "index": "ã‚‰",
        "syllables": "ã‚‰ãŠã™"
      },
      {
        "regionName": "ãƒ©ãƒˆãƒ“ã‚¢",
        "regionFlag": "ğŸ‡±ğŸ‡»",
        "callingCode": "+371",
        "regionCode": "LV",
        "index": "ã‚‰",
        "syllables": "ã‚‰ã¨ã³ã‚"
      },
      {
        "regionName": "ãƒªãƒˆã‚¢ãƒ‹ã‚¢",
        "regionCode": "LT",
        "callingCode": "+370",
        "regionFlag": "ğŸ‡±ğŸ‡¹",
        "index": "ã‚‰",
        "syllables": "ã‚Šã¨ã‚ã«ã‚"
      },
      {
        "regionFlag": "ğŸ‡±ğŸ‡®",
        "regionName": "ãƒªãƒ’ãƒ†ãƒ³ã‚·ãƒ¥ã‚¿ã‚¤ãƒ³",
        "regionCode": "LI",
        "callingCode": "+423",
        "index": "ã‚‰",
        "syllables": "ã‚Šã²ã¦ã‚“ã—ã‚…ãŸã„ã‚“"
      },
      {
        "callingCode": "+218",
        "regionFlag": "ğŸ‡±ğŸ‡¾",
        "regionCode": "LY",
        "regionName": "ãƒªãƒ“ã‚¢",
        "index": "ã‚‰",
        "syllables": "ã‚Šã³ã‚"
      },
      {
        "regionName": "ãƒªãƒ™ãƒªã‚¢",
        "regionCode": "LR",
        "regionFlag": "ğŸ‡±ğŸ‡·",
        "callingCode": "+231",
        "index": "ã‚‰",
        "syllables": "ã‚Šã¹ã‚Šã‚"
      },
      {
        "callingCode": "+352",
        "regionFlag": "ğŸ‡±ğŸ‡º",
        "regionName": "ãƒ«ã‚¯ã‚»ãƒ³ãƒ–ãƒ«ã‚¯",
        "regionCode": "LU",
        "index": "ã‚‰",
        "syllables": "ã‚‹ãã›ã‚“ã¶ã‚‹ã"
      },
      {
        "regionFlag": "ğŸ‡·ğŸ‡¼",
        "regionName": "ãƒ«ãƒ¯ãƒ³ãƒ€",
        "callingCode": "+250",
        "regionCode": "RW",
        "index": "ã‚‰",
        "syllables": "ã‚‹ã‚ã‚“ã "
      },
      {
        "callingCode": "+40",
        "regionFlag": "ğŸ‡·ğŸ‡´",
        "regionName": "ãƒ«ãƒ¼ãƒãƒ‹ã‚¢",
        "regionCode": "RO",
        "index": "ã‚‰",
        "syllables": "ã‚‹ãƒ¼ã¾ã«ã‚"
      },
      {
        "regionName": "ãƒ¬ã‚½ãƒˆ",
        "regionFlag": "ğŸ‡±ğŸ‡¸",
        "callingCode": "+266",
        "regionCode": "LS",
        "index": "ã‚‰",
        "syllables": "ã‚Œãã¨"
      },
      {
        "regionName": "ãƒ¬ãƒãƒãƒ³",
        "callingCode": "+961",
        "regionFlag": "ğŸ‡±ğŸ‡§",
        "regionCode": "LB",
        "index": "ã‚‰",
        "syllables": "ã‚Œã°ã®ã‚“"
      },
      {
        "regionFlag": "ğŸ‡·ğŸ‡ª",
        "regionName": "ãƒ¬ãƒ¦ãƒ‹ã‚ªãƒ³",
        "regionCode": "RE",
        "callingCode": "+262",
        "index": "ã‚‰",
        "syllables": "ã‚Œã‚†ã«ãŠã‚“"
      },
      {
        "regionFlag": "ğŸ‡·ğŸ‡º",
        "regionName": "ãƒ­ã‚·ã‚¢",
        "callingCode": "+7",
        "regionCode": "RU",
        "index": "ã‚‰",
        "syllables": "ã‚ã—ã‚"
      }
    ]
  }
]