[
  {
    "index": "A",
    "items": [
      {
        "regionName": "Ascension Island",
        "callingCode": "+247",
        "regionCode": "AC",
        "regionFlag": "ğŸ‡¦ğŸ‡¨"
      }
    ]
  },
  {
    "index": "K",
    "items": [
      {
        "regionFlag": "ğŸ‡½ğŸ‡°",
        "regionCode": "XK",
        "regionName": "Kosovo",
        "callingCode": "+383"
      }
    ]
  },
  {
    "index": "T",
    "items": [
      {
        "regionFlag": "ğŸ‡¹ğŸ‡¦",
        "regionName": "Tristan da Cunha",
        "regionCode": "TA",
        "callingCode": "+290"
      }
    ]
  },
  {
    "index": "Ğ",
    "items": [
      {
        "regionCode": "AU",
        "regionName": "ĞĞ²ÑÑ‚Ñ€Ğ°Ğ»Ğ¸Ñ",
        "callingCode": "+61",
        "regionFlag": "ğŸ‡¦ğŸ‡º"
      },
      {
        "regionCode": "AT",
        "regionFlag": "ğŸ‡¦ğŸ‡¹",
        "callingCode": "+43",
        "regionName": "ĞĞ²ÑÑ‚Ñ€Ğ¸Ñ"
      },
      {
        "callingCode": "+994",
        "regionFlag": "ğŸ‡¦ğŸ‡¿",
        "regionName": "ĞĞ·ĞµÑ€Ğ±Ğ°Ğ¹Ğ´Ğ¶Ğ°Ğ½",
        "regionCode": "AZ"
      },
      {
        "regionName": "ĞĞ»Ğ°Ğ½Ğ´ÑĞºĞ¸Ğµ Ğ¾-Ğ²Ğ°",
        "regionFlag": "ğŸ‡¦ğŸ‡½",
        "regionCode": "AX",
        "callingCode": "+358"
      },
      {
        "regionName": "ĞĞ»Ğ±Ğ°Ğ½Ğ¸Ñ",
        "regionCode": "AL",
        "callingCode": "+355",
        "regionFlag": "ğŸ‡¦ğŸ‡±"
      },
      {
        "regionCode": "DZ",
        "regionFlag": "ğŸ‡©ğŸ‡¿",
        "callingCode": "+213",
        "regionName": "ĞĞ»Ğ¶Ğ¸Ñ€"
      },
      {
        "callingCode": "+1-684",
        "regionName": "ĞĞ¼ĞµÑ€Ğ¸ĞºĞ°Ğ½ÑĞºĞ¾Ğµ Ğ¡Ğ°Ğ¼Ğ¾Ğ°",
        "regionFlag": "ğŸ‡¦ğŸ‡¸",
        "regionCode": "AS"
      },
      {
        "callingCode": "+1-264",
        "regionCode": "AI",
        "regionFlag": "ğŸ‡¦ğŸ‡®",
        "regionName": "ĞĞ½Ğ³Ğ¸Ğ»ÑŒÑ"
      },
      {
        "regionName": "ĞĞ½Ğ³Ğ¾Ğ»Ğ°",
        "regionCode": "AO",
        "callingCode": "+244",
        "regionFlag": "ğŸ‡¦ğŸ‡´"
      },
      {
        "regionCode": "AD",
        "regionFlag": "ğŸ‡¦ğŸ‡©",
        "regionName": "ĞĞ½Ğ´Ğ¾Ñ€Ñ€Ğ°",
        "callingCode": "+376"
      },
      {
        "regionFlag": "ğŸ‡¦ğŸ‡¶",
        "regionName": "ĞĞ½Ñ‚Ğ°Ñ€ĞºÑ‚Ğ¸Ğ´Ğ°",
        "callingCode": "+672",
        "regionCode": "AQ"
      },
      {
        "regionCode": "AG",
        "regionName": "ĞĞ½Ñ‚Ğ¸Ğ³ÑƒĞ° Ğ¸ Ğ‘Ğ°Ñ€Ğ±ÑƒĞ´Ğ°",
        "callingCode": "+1-268",
        "regionFlag": "ğŸ‡¦ğŸ‡¬"
      },
      {
        "regionCode": "AR",
        "regionName": "ĞÑ€Ğ³ĞµĞ½Ñ‚Ğ¸Ğ½Ğ°",
        "regionFlag": "ğŸ‡¦ğŸ‡·",
        "callingCode": "+54"
      },
      {
        "regionCode": "AM",
        "regionFlag": "ğŸ‡¦ğŸ‡²",
        "regionName": "ĞÑ€Ğ¼ĞµĞ½Ğ¸Ñ",
        "callingCode": "+374"
      },
      {
        "callingCode": "+297",
        "regionName": "ĞÑ€ÑƒĞ±Ğ°",
        "regionCode": "AW",
        "regionFlag": "ğŸ‡¦ğŸ‡¼"
      },
      {
        "regionFlag": "ğŸ‡¦ğŸ‡«",
        "regionCode": "AF",
        "callingCode": "+93",
        "regionName": "ĞÑ„Ğ³Ğ°Ğ½Ğ¸ÑÑ‚Ğ°Ğ½"
      }
    ]
  },
  {
    "index": "Ğ‘",
    "items": [
      {
        "regionFlag": "ğŸ‡§ğŸ‡¸",
        "regionCode": "BS",
        "regionName": "Ğ‘Ğ°Ğ³Ğ°Ğ¼Ñ‹",
        "callingCode": "+1-242"
      },
      {
        "callingCode": "+880",
        "regionCode": "BD",
        "regionFlag": "ğŸ‡§ğŸ‡©",
        "regionName": "Ğ‘Ğ°Ğ½Ğ³Ğ»Ğ°Ğ´ĞµÑˆ"
      },
      {
        "regionCode": "BB",
        "regionFlag": "ğŸ‡§ğŸ‡§",
        "regionName": "Ğ‘Ğ°Ñ€Ğ±Ğ°Ğ´Ğ¾Ñ",
        "callingCode": "+1-246"
      },
      {
        "regionName": "Ğ‘Ğ°Ñ…Ñ€ĞµĞ¹Ğ½",
        "regionFlag": "ğŸ‡§ğŸ‡­",
        "callingCode": "+973",
        "regionCode": "BH"
      },
      {
        "regionCode": "BY",
        "regionFlag": "ğŸ‡§ğŸ‡¾",
        "regionName": "Ğ‘ĞµĞ»Ğ°Ñ€ÑƒÑÑŒ",
        "callingCode": "+375"
      },
      {
        "regionCode": "BZ",
        "regionFlag": "ğŸ‡§ğŸ‡¿",
        "callingCode": "+501",
        "regionName": "Ğ‘ĞµĞ»Ğ¸Ğ·"
      },
      {
        "callingCode": "+32",
        "regionCode": "BE",
        "regionName": "Ğ‘ĞµĞ»ÑŒĞ³Ğ¸Ñ",
        "regionFlag": "ğŸ‡§ğŸ‡ª"
      },
      {
        "regionName": "Ğ‘ĞµĞ½Ğ¸Ğ½",
        "regionFlag": "ğŸ‡§ğŸ‡¯",
        "regionCode": "BJ",
        "callingCode": "+229"
      },
      {
        "regionName": "Ğ‘ĞµÑ€Ğ¼ÑƒĞ´ÑĞºĞ¸Ğµ Ğ¾-Ğ²Ğ°",
        "callingCode": "+1-441",
        "regionCode": "BM",
        "regionFlag": "ğŸ‡§ğŸ‡²"
      },
      {
        "regionName": "Ğ‘Ğ¾Ğ»Ğ³Ğ°Ñ€Ğ¸Ñ",
        "callingCode": "+359",
        "regionCode": "BG",
        "regionFlag": "ğŸ‡§ğŸ‡¬"
      },
      {
        "regionName": "Ğ‘Ğ¾Ğ»Ğ¸Ğ²Ğ¸Ñ",
        "callingCode": "+591",
        "regionCode": "BO",
        "regionFlag": "ğŸ‡§ğŸ‡´"
      },
      {
        "regionName": "Ğ‘Ğ¾Ğ½ÑĞ¹Ñ€, Ğ¡Ğ¸Ğ½Ñ‚-Ğ­ÑÑ‚Ğ°Ñ‚Ğ¸ÑƒÑ Ğ¸ Ğ¡Ğ°Ğ±Ğ°",
        "callingCode": "+599",
        "regionFlag": "ğŸ‡§ğŸ‡¶",
        "regionCode": "BQ"
      },
      {
        "regionCode": "BA",
        "callingCode": "+387",
        "regionFlag": "ğŸ‡§ğŸ‡¦",
        "regionName": "Ğ‘Ğ¾ÑĞ½Ğ¸Ñ Ğ¸ Ğ“ĞµÑ€Ñ†ĞµĞ³Ğ¾Ğ²Ğ¸Ğ½Ğ°"
      },
      {
        "regionFlag": "ğŸ‡§ğŸ‡¼",
        "regionName": "Ğ‘Ğ¾Ñ‚ÑĞ²Ğ°Ğ½Ğ°",
        "regionCode": "BW",
        "callingCode": "+267"
      },
      {
        "regionName": "Ğ‘Ñ€Ğ°Ğ·Ğ¸Ğ»Ğ¸Ñ",
        "regionCode": "BR",
        "callingCode": "+55",
        "regionFlag": "ğŸ‡§ğŸ‡·"
      },
      {
        "regionFlag": "ğŸ‡®ğŸ‡´",
        "regionCode": "IO",
        "callingCode": "+246",
        "regionName": "Ğ‘Ñ€Ğ¸Ñ‚Ğ°Ğ½ÑĞºĞ°Ñ Ñ‚ĞµÑ€Ñ€Ğ¸Ñ‚Ğ¾Ñ€Ğ¸Ñ Ğ² Ğ˜Ğ½Ğ´Ğ¸Ğ¹ÑĞºĞ¾Ğ¼ Ğ¾ĞºĞµĞ°Ğ½Ğµ"
      },
      {
        "regionName": "Ğ‘Ñ€ÑƒĞ½ĞµĞ¹-Ğ”Ğ°Ñ€ÑƒÑÑĞ°Ğ»Ğ°Ğ¼",
        "regionCode": "BN",
        "regionFlag": "ğŸ‡§ğŸ‡³",
        "callingCode": "+673"
      },
      {
        "callingCode": "+226",
        "regionFlag": "ğŸ‡§ğŸ‡«",
        "regionName": "Ğ‘ÑƒÑ€ĞºĞ¸Ğ½Ğ°-Ğ¤Ğ°ÑĞ¾",
        "regionCode": "BF"
      },
      {
        "regionFlag": "ğŸ‡§ğŸ‡®",
        "regionName": "Ğ‘ÑƒÑ€ÑƒĞ½Ğ´Ğ¸",
        "regionCode": "BI",
        "callingCode": "+257"
      },
      {
        "regionCode": "BT",
        "regionName": "Ğ‘ÑƒÑ‚Ğ°Ğ½",
        "callingCode": "+975",
        "regionFlag": "ğŸ‡§ğŸ‡¹"
      }
    ]
  },
  {
    "index": "Ğ’",
    "items": [
      {
        "callingCode": "+678",
        "regionName": "Ğ’Ğ°Ğ½ÑƒĞ°Ñ‚Ñƒ",
        "regionFlag": "ğŸ‡»ğŸ‡º",
        "regionCode": "VU"
      },
      {
        "regionFlag": "ğŸ‡»ğŸ‡¦",
        "regionName": "Ğ’Ğ°Ñ‚Ğ¸ĞºĞ°Ğ½",
        "callingCode": "+379",
        "regionCode": "VA"
      },
      {
        "callingCode": "+44",
        "regionFlag": "ğŸ‡¬ğŸ‡§",
        "regionCode": "GB",
        "regionName": "Ğ’ĞµĞ»Ğ¸ĞºĞ¾Ğ±Ñ€Ğ¸Ñ‚Ğ°Ğ½Ğ¸Ñ"
      },
      {
        "regionCode": "HU",
        "regionName": "Ğ’ĞµĞ½Ğ³Ñ€Ğ¸Ñ",
        "regionFlag": "ğŸ‡­ğŸ‡º",
        "callingCode": "+36"
      },
      {
        "regionFlag": "ğŸ‡»ğŸ‡ª",
        "regionCode": "VE",
        "regionName": "Ğ’ĞµĞ½ĞµÑÑƒÑĞ»Ğ°",
        "callingCode": "+58"
      },
      {
        "callingCode": "+1-284",
        "regionName": "Ğ’Ğ¸Ñ€Ğ³Ğ¸Ğ½ÑĞºĞ¸Ğµ Ğ¾-Ğ²Ğ° (Ğ’ĞµĞ»Ğ¸ĞºĞ¾Ğ±Ñ€Ğ¸Ñ‚Ğ°Ğ½Ğ¸Ñ)",
        "regionCode": "VG",
        "regionFlag": "ğŸ‡»ğŸ‡¬"
      },
      {
        "regionCode": "VI",
        "regionFlag": "ğŸ‡»ğŸ‡®",
        "regionName": "Ğ’Ğ¸Ñ€Ğ³Ğ¸Ğ½ÑĞºĞ¸Ğµ Ğ¾-Ğ²Ğ° (Ğ¡Ğ¨Ğ)",
        "callingCode": "+1-340"
      },
      {
        "callingCode": "+1",
        "regionFlag": "ğŸ‡ºğŸ‡¸",
        "regionCode": "UM",
        "regionName": "Ğ’Ğ½ĞµÑˆĞ½Ğ¸Ğµ Ğ¼Ğ°Ğ»Ñ‹Ğµ Ğ¾-Ğ²Ğ° (Ğ¡Ğ¨Ğ)"
      },
      {
        "regionCode": "TL",
        "regionName": "Ğ’Ğ¾ÑÑ‚Ğ¾Ñ‡Ğ½Ñ‹Ğ¹ Ğ¢Ğ¸Ğ¼Ğ¾Ñ€",
        "callingCode": "+670",
        "regionFlag": "ğŸ‡¹ğŸ‡±"
      },
      {
        "callingCode": "+84",
        "regionName": "Ğ’ÑŒĞµÑ‚Ğ½Ğ°Ğ¼",
        "regionCode": "VN",
        "regionFlag": "ğŸ‡»ğŸ‡³"
      }
    ]
  },
  {
    "index": "Ğ“",
    "items": [
      {
        "regionFlag": "ğŸ‡¬ğŸ‡¦",
        "callingCode": "+241",
        "regionName": "Ğ“Ğ°Ğ±Ğ¾Ğ½",
        "regionCode": "GA"
      },
      {
        "regionFlag": "ğŸ‡­ğŸ‡¹",
        "regionCode": "HT",
        "regionName": "Ğ“Ğ°Ğ¸Ñ‚Ğ¸",
        "callingCode": "+509"
      },
      {
        "callingCode": "+595",
        "regionName": "Ğ“Ğ°Ğ¹Ğ°Ğ½Ğ°",
        "regionCode": "GY",
        "regionFlag": "ğŸ‡¬ğŸ‡¾"
      },
      {
        "regionCode": "GM",
        "callingCode": "+220",
        "regionFlag": "ğŸ‡¬ğŸ‡²",
        "regionName": "Ğ“Ğ°Ğ¼Ğ±Ğ¸Ñ"
      },
      {
        "callingCode": "+233",
        "regionFlag": "ğŸ‡¬ğŸ‡­",
        "regionCode": "GH",
        "regionName": "Ğ“Ğ°Ğ½Ğ°"
      },
      {
        "callingCode": "+590",
        "regionCode": "GP",
        "regionFlag": "ğŸ‡¬ğŸ‡µ",
        "regionName": "Ğ“Ğ²Ğ°Ğ´ĞµĞ»ÑƒĞ¿Ğ°"
      },
      {
        "regionCode": "GT",
        "regionFlag": "ğŸ‡¬ğŸ‡¹",
        "callingCode": "+502",
        "regionName": "Ğ“Ğ²Ğ°Ñ‚ĞµĞ¼Ğ°Ğ»Ğ°"
      },
      {
        "regionName": "Ğ“Ğ²Ğ¸Ğ½ĞµÑ",
        "regionFlag": "ğŸ‡¬ğŸ‡³",
        "regionCode": "GN",
        "callingCode": "+224"
      },
      {
        "regionCode": "GW",
        "regionName": "Ğ“Ğ²Ğ¸Ğ½ĞµÑ-Ğ‘Ğ¸ÑĞ°Ñƒ",
        "callingCode": "+245",
        "regionFlag": "ğŸ‡¬ğŸ‡¼"
      },
      {
        "regionName": "Ğ“ĞµÑ€Ğ¼Ğ°Ğ½Ğ¸Ñ",
        "regionFlag": "ğŸ‡©ğŸ‡ª",
        "regionCode": "DE",
        "callingCode": "+49"
      },
      {
        "callingCode": "+44",
        "regionName": "Ğ“ĞµÑ€Ğ½ÑĞ¸",
        "regionCode": "GG",
        "regionFlag": "ğŸ‡¬ğŸ‡¬"
      },
      {
        "regionName": "Ğ“Ğ¸Ğ±Ñ€Ğ°Ğ»Ñ‚Ğ°Ñ€",
        "regionCode": "GI",
        "regionFlag": "ğŸ‡¬ğŸ‡®",
        "callingCode": "+350"
      },
      {
        "regionCode": "HN",
        "callingCode": "+504",
        "regionName": "Ğ“Ğ¾Ğ½Ğ´ÑƒÑ€Ğ°Ñ",
        "regionFlag": "ğŸ‡­ğŸ‡³"
      },
      {
        "regionCode": "HK",
        "regionName": "Ğ“Ğ¾Ğ½ĞºĞ¾Ğ½Ğ³ (Ğ¡ĞĞ )",
        "regionFlag": "ğŸ‡­ğŸ‡°",
        "callingCode": "+852"
      },
      {
        "regionCode": "GD",
        "regionName": "Ğ“Ñ€ĞµĞ½Ğ°Ğ´Ğ°",
        "callingCode": "+1-473",
        "regionFlag": "ğŸ‡¬ğŸ‡©"
      },
      {
        "regionFlag": "ğŸ‡¬ğŸ‡±",
        "regionCode": "GL",
        "regionName": "Ğ“Ñ€ĞµĞ½Ğ»Ğ°Ğ½Ğ´Ğ¸Ñ",
        "callingCode": "+299"
      },
      {
        "callingCode": "+30",
        "regionCode": "GR",
        "regionFlag": "ğŸ‡¬ğŸ‡·",
        "regionName": "Ğ“Ñ€ĞµÑ†Ğ¸Ñ"
      },
      {
        "regionCode": "GE",
        "regionFlag": "ğŸ‡¬ğŸ‡ª",
        "callingCode": "+995",
        "regionName": "Ğ“Ñ€ÑƒĞ·Ğ¸Ñ"
      },
      {
        "regionCode": "GU",
        "callingCode": "+1-671",
        "regionName": "Ğ“ÑƒĞ°Ğ¼",
        "regionFlag": "ğŸ‡¬ğŸ‡º"
      }
    ]
  },
  {
    "index": "Ğ”",
    "items": [
      {
        "regionFlag": "ğŸ‡©ğŸ‡°",
        "regionCode": "DK",
        "regionName": "Ğ”Ğ°Ğ½Ğ¸Ñ",
        "callingCode": "+45"
      },
      {
        "regionName": "Ğ”Ğ¶ĞµÑ€ÑĞ¸",
        "regionCode": "JE",
        "regionFlag": "ğŸ‡¯ğŸ‡ª",
        "callingCode": "+44"
      },
      {
        "regionCode": "DJ",
        "callingCode": "+253",
        "regionName": "Ğ”Ğ¶Ğ¸Ğ±ÑƒÑ‚Ğ¸",
        "regionFlag": "ğŸ‡©ğŸ‡¯"
      },
      {
        "callingCode": "+1-767",
        "regionFlag": "ğŸ‡©ğŸ‡²",
        "regionName": "Ğ”Ğ¾Ğ¼Ğ¸Ğ½Ğ¸ĞºĞ°",
        "regionCode": "DM"
      },
      {
        "regionFlag": "ğŸ‡©ğŸ‡´",
        "regionCode": "DO",
        "regionName": "Ğ”Ğ¾Ğ¼Ğ¸Ğ½Ğ¸ĞºĞ°Ğ½ÑĞºĞ°Ñ Ğ ĞµÑĞ¿ÑƒĞ±Ğ»Ğ¸ĞºĞ°",
        "callingCode": "+1-849"
      }
    ]
  },
  {
    "index": "Ğ•",
    "items": [
      {
        "regionFlag": "ğŸ‡ªğŸ‡¬",
        "regionCode": "EG",
        "regionName": "Ğ•Ğ³Ğ¸Ğ¿ĞµÑ‚",
        "callingCode": "+20"
      }
    ]
  },
  {
    "index": "Ğ—",
    "items": [
      {
        "callingCode": "+260",
        "regionFlag": "ğŸ‡¿ğŸ‡²",
        "regionCode": "ZM",
        "regionName": "Ğ—Ğ°Ğ¼Ğ±Ğ¸Ñ"
      },
      {
        "regionName": "Ğ—Ğ°Ğ¿Ğ°Ğ´Ğ½Ğ°Ñ Ğ¡Ğ°Ñ…Ğ°Ñ€Ğ°",
        "regionFlag": "ğŸ‡ªğŸ‡­",
        "regionCode": "EH",
        "callingCode": "+212"
      },
      {
        "regionName": "Ğ—Ğ¸Ğ¼Ğ±Ğ°Ğ±Ğ²Ğµ",
        "regionCode": "ZW",
        "regionFlag": "ğŸ‡¿ğŸ‡¼",
        "callingCode": "+263"
      }
    ]
  },
  {
    "index": "Ğ˜",
    "items": [
      {
        "regionName": "Ğ˜Ğ·Ñ€Ğ°Ğ¸Ğ»ÑŒ",
        "regionFlag": "ğŸ‡®ğŸ‡±",
        "callingCode": "+972",
        "regionCode": "IL"
      },
      {
        "regionCode": "IN",
        "regionFlag": "ğŸ‡®ğŸ‡³",
        "regionName": "Ğ˜Ğ½Ğ´Ğ¸Ñ",
        "callingCode": "+91"
      },
      {
        "regionCode": "ID",
        "regionFlag": "ğŸ‡®ğŸ‡©",
        "callingCode": "+62",
        "regionName": "Ğ˜Ğ½Ğ´Ğ¾Ğ½ĞµĞ·Ğ¸Ñ"
      },
      {
        "regionName": "Ğ˜Ğ¾Ñ€Ğ´Ğ°Ğ½Ğ¸Ñ",
        "regionFlag": "ğŸ‡¯ğŸ‡´",
        "regionCode": "JO",
        "callingCode": "+962"
      },
      {
        "callingCode": "+964",
        "regionCode": "IQ",
        "regionFlag": "ğŸ‡®ğŸ‡¶",
        "regionName": "Ğ˜Ñ€Ğ°Ğº"
      },
      {
        "regionFlag": "ğŸ‡®ğŸ‡·",
        "callingCode": "+98",
        "regionCode": "IR",
        "regionName": "Ğ˜Ñ€Ğ°Ğ½"
      },
      {
        "callingCode": "+353",
        "regionName": "Ğ˜Ñ€Ğ»Ğ°Ğ½Ğ´Ğ¸Ñ",
        "regionCode": "IE",
        "regionFlag": "ğŸ‡®ğŸ‡ª"
      },
      {
        "regionCode": "IS",
        "regionFlag": "ğŸ‡®ğŸ‡¸",
        "regionName": "Ğ˜ÑĞ»Ğ°Ğ½Ğ´Ğ¸Ñ",
        "callingCode": "+354"
      },
      {
        "regionFlag": "ğŸ‡ªğŸ‡¸",
        "callingCode": "+34",
        "regionCode": "ES",
        "regionName": "Ğ˜ÑĞ¿Ğ°Ğ½Ğ¸Ñ"
      },
      {
        "regionName": "Ğ˜Ñ‚Ğ°Ğ»Ğ¸Ñ",
        "callingCode": "+39",
        "regionCode": "IT",
        "regionFlag": "ğŸ‡®ğŸ‡¹"
      }
    ]
  },
  {
    "index": "Ğ™",
    "items": [
      {
        "regionName": "Ğ™ĞµĞ¼ĞµĞ½",
        "regionCode": "YE",
        "callingCode": "+967",
        "regionFlag": "ğŸ‡¾ğŸ‡ª"
      }
    ]
  },
  {
    "index": "Ğš",
    "items": [
      {
        "regionCode": "KP",
        "regionFlag": "ğŸ‡°ğŸ‡µ",
        "callingCode": "+850",
        "regionName": "ĞšĞĞ”Ğ "
      },
      {
        "regionFlag": "ğŸ‡¨ğŸ‡»",
        "regionName": "ĞšĞ°Ğ±Ğ¾-Ğ’ĞµÑ€Ğ´Ğµ",
        "callingCode": "+238",
        "regionCode": "CV"
      },
      {
        "regionFlag": "ğŸ‡°ğŸ‡¿",
        "callingCode": "+7",
        "regionName": "ĞšĞ°Ğ·Ğ°Ñ…ÑÑ‚Ğ°Ğ½",
        "regionCode": "KZ"
      },
      {
        "regionFlag": "ğŸ‡°ğŸ‡­",
        "regionCode": "KH",
        "callingCode": "+855",
        "regionName": "ĞšĞ°Ğ¼Ğ±Ğ¾Ğ´Ğ¶Ğ°"
      },
      {
        "callingCode": "+237",
        "regionFlag": "ğŸ‡¨ğŸ‡²",
        "regionCode": "CM",
        "regionName": "ĞšĞ°Ğ¼ĞµÑ€ÑƒĞ½"
      },
      {
        "callingCode": "+1",
        "regionCode": "CA",
        "regionName": "ĞšĞ°Ğ½Ğ°Ğ´Ğ°",
        "regionFlag": "ğŸ‡¨ğŸ‡¦"
      },
      {
        "regionCode": "QA",
        "regionName": "ĞšĞ°Ñ‚Ğ°Ñ€",
        "regionFlag": "ğŸ‡¶ğŸ‡¦",
        "callingCode": "+974"
      },
      {
        "callingCode": "+254",
        "regionFlag": "ğŸ‡°ğŸ‡ª",
        "regionName": "ĞšĞµĞ½Ğ¸Ñ",
        "regionCode": "KE"
      },
      {
        "regionName": "ĞšĞ¸Ğ¿Ñ€",
        "regionCode": "CY",
        "callingCode": "+357",
        "regionFlag": "ğŸ‡¨ğŸ‡¾"
      },
      {
        "callingCode": "+996",
        "regionFlag": "ğŸ‡°ğŸ‡¬",
        "regionName": "ĞšĞ¸Ñ€Ğ³Ğ¸Ğ·Ğ¸Ñ",
        "regionCode": "KG"
      },
      {
        "regionCode": "KI",
        "regionName": "ĞšĞ¸Ñ€Ğ¸Ğ±Ğ°Ñ‚Ğ¸",
        "callingCode": "+686",
        "regionFlag": "ğŸ‡°ğŸ‡®"
      },
      {
        "regionFlag": "ğŸ‡¨ğŸ‡³",
        "callingCode": "+86",
        "regionName": "ĞšĞ¸Ñ‚Ğ°Ğ¹",
        "regionCode": "CN"
      },
      {
        "regionCode": "CC",
        "regionFlag": "ğŸ‡¨ğŸ‡¨",
        "regionName": "ĞšĞ¾ĞºĞ¾ÑĞ¾Ğ²Ñ‹Ğµ Ğ¾-Ğ²Ğ°",
        "callingCode": "+61"
      },
      {
        "regionName": "ĞšĞ¾Ğ»ÑƒĞ¼Ğ±Ğ¸Ñ",
        "regionFlag": "ğŸ‡¨ğŸ‡´",
        "regionCode": "CO",
        "callingCode": "+57"
      },
      {
        "regionName": "ĞšĞ¾Ğ¼Ğ¾Ñ€Ñ‹",
        "callingCode": "+269",
        "regionFlag": "ğŸ‡°ğŸ‡²",
        "regionCode": "KM"
      },
      {
        "callingCode": "+242",
        "regionName": "ĞšĞ¾Ğ½Ğ³Ğ¾ - Ğ‘Ñ€Ğ°Ğ·Ğ·Ğ°Ğ²Ğ¸Ğ»ÑŒ",
        "regionCode": "CG",
        "regionFlag": "ğŸ‡¨ğŸ‡¬"
      },
      {
        "callingCode": "+243",
        "regionCode": "CD",
        "regionFlag": "ğŸ‡¨ğŸ‡©",
        "regionName": "ĞšĞ¾Ğ½Ğ³Ğ¾ - ĞšĞ¸Ğ½ÑˆĞ°ÑĞ°"
      },
      {
        "regionFlag": "ğŸ‡¨ğŸ‡·",
        "callingCode": "+506",
        "regionName": "ĞšĞ¾ÑÑ‚Ğ°-Ğ Ğ¸ĞºĞ°",
        "regionCode": "CR"
      },
      {
        "callingCode": "+225",
        "regionFlag": "ğŸ‡¨ğŸ‡®",
        "regionCode": "CI",
        "regionName": "ĞšĞ¾Ñ‚-Ğ´â€™Ğ˜Ğ²ÑƒĞ°Ñ€"
      },
      {
        "regionName": "ĞšÑƒĞ±Ğ°",
        "regionFlag": "ğŸ‡¨ğŸ‡º",
        "regionCode": "CU",
        "callingCode": "+53"
      },
      {
        "callingCode": "+965",
        "regionCode": "KW",
        "regionFlag": "ğŸ‡°ğŸ‡¼",
        "regionName": "ĞšÑƒĞ²ĞµĞ¹Ñ‚"
      },
      {
        "regionFlag": "ğŸ‡¨ğŸ‡¼",
        "regionCode": "CW",
        "regionName": "ĞšÑÑ€Ğ°ÑĞ°Ğ¾",
        "callingCode": "+599 9"
      }
    ]
  },
  {
    "index": "Ğ›",
    "items": [
      {
        "regionName": "Ğ›Ğ°Ğ¾Ñ",
        "callingCode": "+856",
        "regionCode": "LA",
        "regionFlag": "ğŸ‡±ğŸ‡¦"
      },
      {
        "regionName": "Ğ›Ğ°Ñ‚Ğ²Ğ¸Ñ",
        "regionFlag": "ğŸ‡±ğŸ‡»",
        "callingCode": "+371",
        "regionCode": "LV"
      },
      {
        "regionName": "Ğ›ĞµÑĞ¾Ñ‚Ğ¾",
        "regionFlag": "ğŸ‡±ğŸ‡¸",
        "callingCode": "+266",
        "regionCode": "LS"
      },
      {
        "regionName": "Ğ›Ğ¸Ğ±ĞµÑ€Ğ¸Ñ",
        "regionCode": "LR",
        "regionFlag": "ğŸ‡±ğŸ‡·",
        "callingCode": "+231"
      },
      {
        "regionName": "Ğ›Ğ¸Ğ²Ğ°Ğ½",
        "callingCode": "+961",
        "regionFlag": "ğŸ‡±ğŸ‡§",
        "regionCode": "LB"
      },
      {
        "callingCode": "+218",
        "regionFlag": "ğŸ‡±ğŸ‡¾",
        "regionCode": "LY",
        "regionName": "Ğ›Ğ¸Ğ²Ğ¸Ñ"
      },
      {
        "regionName": "Ğ›Ğ¸Ñ‚Ğ²Ğ°",
        "regionCode": "LT",
        "callingCode": "+370",
        "regionFlag": "ğŸ‡±ğŸ‡¹"
      },
      {
        "regionFlag": "ğŸ‡±ğŸ‡®",
        "regionName": "Ğ›Ğ¸Ñ…Ñ‚ĞµĞ½ÑˆÑ‚ĞµĞ¹Ğ½",
        "regionCode": "LI",
        "callingCode": "+423"
      },
      {
        "callingCode": "+352",
        "regionFlag": "ğŸ‡±ğŸ‡º",
        "regionName": "Ğ›ÑĞºÑĞµĞ¼Ğ±ÑƒÑ€Ğ³",
        "regionCode": "LU"
      }
    ]
  },
  {
    "index": "Ğœ",
    "items": [
      {
        "regionName": "ĞœĞ°Ğ²Ñ€Ğ¸ĞºĞ¸Ğ¹",
        "regionFlag": "ğŸ‡²ğŸ‡º",
        "callingCode": "+230",
        "regionCode": "MU"
      },
      {
        "regionFlag": "ğŸ‡²ğŸ‡·",
        "callingCode": "+222",
        "regionCode": "MR",
        "regionName": "ĞœĞ°Ğ²Ñ€Ğ¸Ñ‚Ğ°Ğ½Ğ¸Ñ"
      },
      {
        "regionName": "ĞœĞ°Ğ´Ğ°Ğ³Ğ°ÑĞºĞ°Ñ€",
        "regionFlag": "ğŸ‡²ğŸ‡¬",
        "regionCode": "MG",
        "callingCode": "+261"
      },
      {
        "callingCode": "+262",
        "regionName": "ĞœĞ°Ğ¹Ğ¾Ñ‚Ñ‚Ğ°",
        "regionCode": "YT",
        "regionFlag": "ğŸ‡¾ğŸ‡¹"
      },
      {
        "regionFlag": "ğŸ‡²ğŸ‡´",
        "regionCode": "MO",
        "callingCode": "+853",
        "regionName": "ĞœĞ°ĞºĞ°Ğ¾ (Ğ¡ĞĞ )"
      },
      {
        "callingCode": "+265",
        "regionFlag": "ğŸ‡²ğŸ‡¼",
        "regionCode": "MW",
        "regionName": "ĞœĞ°Ğ»Ğ°Ğ²Ğ¸"
      },
      {
        "regionName": "ĞœĞ°Ğ»Ğ°Ğ¹Ğ·Ğ¸Ñ",
        "callingCode": "+60",
        "regionCode": "MY",
        "regionFlag": "ğŸ‡²ğŸ‡¾"
      },
      {
        "callingCode": "+223",
        "regionCode": "ML",
        "regionFlag": "ğŸ‡²ğŸ‡±",
        "regionName": "ĞœĞ°Ğ»Ğ¸"
      },
      {
        "regionName": "ĞœĞ°Ğ»ÑŒĞ´Ğ¸Ğ²Ñ‹",
        "callingCode": "+960",
        "regionCode": "MV",
        "regionFlag": "ğŸ‡²ğŸ‡»"
      },
      {
        "regionFlag": "ğŸ‡²ğŸ‡¹",
        "regionName": "ĞœĞ°Ğ»ÑŒÑ‚Ğ°",
        "regionCode": "MT",
        "callingCode": "+356"
      },
      {
        "regionCode": "MA",
        "regionName": "ĞœĞ°Ñ€Ğ¾ĞºĞºĞ¾",
        "regionFlag": "ğŸ‡²ğŸ‡¦",
        "callingCode": "+212"
      },
      {
        "regionFlag": "ğŸ‡²ğŸ‡¶",
        "regionName": "ĞœĞ°Ñ€Ñ‚Ğ¸Ğ½Ğ¸ĞºĞ°",
        "callingCode": "+596",
        "regionCode": "MQ"
      },
      {
        "regionName": "ĞœĞ°Ñ€ÑˆĞ°Ğ»Ğ»Ğ¾Ğ²Ñ‹ ĞÑÑ‚Ñ€Ğ¾Ğ²Ğ°",
        "regionCode": "MH",
        "regionFlag": "ğŸ‡²ğŸ‡­",
        "callingCode": "+692"
      },
      {
        "regionFlag": "ğŸ‡²ğŸ‡½",
        "regionCode": "MX",
        "regionName": "ĞœĞµĞºÑĞ¸ĞºĞ°",
        "callingCode": "+52"
      },
      {
        "regionCode": "MZ",
        "regionFlag": "ğŸ‡²ğŸ‡¿",
        "callingCode": "+258",
        "regionName": "ĞœĞ¾Ğ·Ğ°Ğ¼Ğ±Ğ¸Ğº"
      },
      {
        "regionFlag": "ğŸ‡²ğŸ‡©",
        "regionCode": "MD",
        "regionName": "ĞœĞ¾Ğ»Ğ´Ğ¾Ğ²Ğ°",
        "callingCode": "+373"
      },
      {
        "regionFlag": "ğŸ‡²ğŸ‡¨",
        "callingCode": "+377",
        "regionName": "ĞœĞ¾Ğ½Ğ°ĞºĞ¾",
        "regionCode": "MC"
      },
      {
        "regionFlag": "ğŸ‡²ğŸ‡³",
        "callingCode": "+976",
        "regionName": "ĞœĞ¾Ğ½Ğ³Ğ¾Ğ»Ğ¸Ñ",
        "regionCode": "MN"
      },
      {
        "regionName": "ĞœĞ¾Ğ½Ñ‚ÑĞµÑ€Ñ€Ğ°Ñ‚",
        "regionCode": "MS",
        "regionFlag": "ğŸ‡²ğŸ‡¸",
        "callingCode": "+1-664"
      },
      {
        "regionCode": "MM",
        "regionName": "ĞœÑŒÑĞ½Ğ¼Ğ° (Ğ‘Ğ¸Ñ€Ğ¼Ğ°)",
        "callingCode": "+95",
        "regionFlag": "ğŸ‡²ğŸ‡²"
      }
    ]
  },
  {
    "index": "Ğ",
    "items": [
      {
        "regionFlag": "ğŸ‡³ğŸ‡¦",
        "regionName": "ĞĞ°Ğ¼Ğ¸Ğ±Ğ¸Ñ",
        "callingCode": "+264",
        "regionCode": "NA"
      },
      {
        "regionFlag": "ğŸ‡³ğŸ‡·",
        "regionCode": "NR",
        "regionName": "ĞĞ°ÑƒÑ€Ñƒ",
        "callingCode": "+674"
      },
      {
        "regionFlag": "ğŸ‡³ğŸ‡µ",
        "regionName": "ĞĞµĞ¿Ğ°Ğ»",
        "callingCode": "+977",
        "regionCode": "NP"
      },
      {
        "callingCode": "+227",
        "regionName": "ĞĞ¸Ğ³ĞµÑ€",
        "regionFlag": "ğŸ‡³ğŸ‡ª",
        "regionCode": "NE"
      },
      {
        "regionFlag": "ğŸ‡³ğŸ‡¬",
        "regionName": "ĞĞ¸Ğ³ĞµÑ€Ğ¸Ñ",
        "regionCode": "NG",
        "callingCode": "+234"
      },
      {
        "regionFlag": "ğŸ‡³ğŸ‡±",
        "regionCode": "NL",
        "regionName": "ĞĞ¸Ğ´ĞµÑ€Ğ»Ğ°Ğ½Ğ´Ñ‹",
        "callingCode": "+31"
      },
      {
        "regionName": "ĞĞ¸ĞºĞ°Ñ€Ğ°Ğ³ÑƒĞ°",
        "callingCode": "+505",
        "regionCode": "NI",
        "regionFlag": "ğŸ‡³ğŸ‡®"
      },
      {
        "regionCode": "NU",
        "regionName": "ĞĞ¸ÑƒÑ",
        "regionFlag": "ğŸ‡³ğŸ‡º",
        "callingCode": "+683"
      },
      {
        "regionCode": "NZ",
        "regionFlag": "ğŸ‡³ğŸ‡¿",
        "regionName": "ĞĞ¾Ğ²Ğ°Ñ Ğ—ĞµĞ»Ğ°Ğ½Ğ´Ğ¸Ñ",
        "callingCode": "+64"
      },
      {
        "regionName": "ĞĞ¾Ğ²Ğ°Ñ ĞšĞ°Ğ»ĞµĞ´Ğ¾Ğ½Ğ¸Ñ",
        "regionCode": "NC",
        "callingCode": "+687",
        "regionFlag": "ğŸ‡³ğŸ‡¨"
      },
      {
        "callingCode": "+47",
        "regionCode": "NO",
        "regionFlag": "ğŸ‡³ğŸ‡´",
        "regionName": "ĞĞ¾Ñ€Ğ²ĞµĞ³Ğ¸Ñ"
      }
    ]
  },
  {
    "index": "Ğ",
    "items": [
      {
        "regionCode": "AE",
        "callingCode": "+971",
        "regionFlag": "ğŸ‡¦ğŸ‡ª",
        "regionName": "ĞĞĞ­"
      },
      {
        "callingCode": "+968",
        "regionFlag": "ğŸ‡´ğŸ‡²",
        "regionName": "ĞĞ¼Ğ°Ğ½",
        "regionCode": "OM"
      },
      {
        "callingCode": "+345",
        "regionFlag": "ğŸ‡°ğŸ‡¾",
        "regionCode": "KY",
        "regionName": "ĞÑÑ‚Ñ€Ğ¾Ğ²Ğ° ĞšĞ°Ğ¹Ğ¼Ğ°Ğ½"
      },
      {
        "regionFlag": "ğŸ‡¨ğŸ‡°",
        "regionCode": "CK",
        "regionName": "ĞÑÑ‚Ñ€Ğ¾Ğ²Ğ° ĞšÑƒĞºĞ°",
        "callingCode": "+682"
      },
      {
        "regionCode": "IM",
        "callingCode": "+44",
        "regionFlag": "ğŸ‡®ğŸ‡²",
        "regionName": "Ğ¾-Ğ² ĞœÑĞ½"
      },
      {
        "regionFlag": "ğŸ‡³ğŸ‡«",
        "regionName": "Ğ¾-Ğ² ĞĞ¾Ñ€Ñ„Ğ¾Ğ»Ğº",
        "callingCode": "+672",
        "regionCode": "NF"
      },
      {
        "regionCode": "CX",
        "regionName": "Ğ¾-Ğ² Ğ Ğ¾Ğ¶Ğ´ĞµÑÑ‚Ğ²Ğ°",
        "callingCode": "+61",
        "regionFlag": "ğŸ‡¨ğŸ‡½"
      },
      {
        "regionFlag": "ğŸ‡¸ğŸ‡­",
        "callingCode": "+290",
        "regionCode": "SH",
        "regionName": "Ğ¾-Ğ² Ğ¡Ğ². Ğ•Ğ»ĞµĞ½Ñ‹"
      },
      {
        "regionName": "Ğ¾-Ğ²Ğ° ĞŸĞ¸Ñ‚ĞºÑÑ€Ğ½",
        "callingCode": "+872",
        "regionCode": "PN",
        "regionFlag": "ğŸ‡µğŸ‡³"
      },
      {
        "callingCode": "+1-649",
        "regionFlag": "ğŸ‡¹ğŸ‡¨",
        "regionCode": "TC",
        "regionName": "Ğ¾-Ğ²Ğ° Ğ¢Ñ‘Ñ€ĞºÑ Ğ¸ ĞšĞ°Ğ¹ĞºĞ¾Ñ"
      },
      {
        "callingCode": "+672",
        "regionFlag": "ğŸ‡­ğŸ‡²",
        "regionName": "Ğ¾-Ğ²Ğ° Ğ¥ĞµÑ€Ğ´ Ğ¸ ĞœĞ°ĞºĞ´Ğ¾Ğ½Ğ°Ğ»ÑŒĞ´",
        "regionCode": "HM"
      }
    ]
  },
  {
    "index": "ĞŸ",
    "items": [
      {
        "callingCode": "+92",
        "regionCode": "PK",
        "regionFlag": "ğŸ‡µğŸ‡°",
        "regionName": "ĞŸĞ°ĞºĞ¸ÑÑ‚Ğ°Ğ½"
      },
      {
        "regionName": "ĞŸĞ°Ğ»Ğ°Ñƒ",
        "callingCode": "+680",
        "regionFlag": "ğŸ‡µğŸ‡¼",
        "regionCode": "PW"
      },
      {
        "callingCode": "+970",
        "regionCode": "PS",
        "regionFlag": "ğŸ‡µğŸ‡¸",
        "regionName": "ĞŸĞ°Ğ»ĞµÑÑ‚Ğ¸Ğ½ÑĞºĞ¸Ğµ Ñ‚ĞµÑ€Ñ€Ğ¸Ñ‚Ğ¾Ñ€Ğ¸Ğ¸"
      },
      {
        "callingCode": "+507",
        "regionName": "ĞŸĞ°Ğ½Ğ°Ğ¼Ğ°",
        "regionFlag": "ğŸ‡µğŸ‡¦",
        "regionCode": "PA"
      },
      {
        "regionCode": "PG",
        "regionFlag": "ğŸ‡µğŸ‡¬",
        "regionName": "ĞŸĞ°Ğ¿ÑƒĞ° â€” ĞĞ¾Ğ²Ğ°Ñ Ğ“Ğ²Ğ¸Ğ½ĞµÑ",
        "callingCode": "+675"
      },
      {
        "regionName": "ĞŸĞ°Ñ€Ğ°Ğ³Ğ²Ğ°Ğ¹",
        "regionFlag": "ğŸ‡µğŸ‡¾",
        "callingCode": "+595",
        "regionCode": "PY"
      },
      {
        "regionCode": "PE",
        "regionName": "ĞŸĞµÑ€Ñƒ",
        "callingCode": "+51",
        "regionFlag": "ğŸ‡µğŸ‡ª"
      },
      {
        "regionCode": "PL",
        "regionFlag": "ğŸ‡µğŸ‡±",
        "callingCode": "+48",
        "regionName": "ĞŸĞ¾Ğ»ÑŒÑˆĞ°"
      },
      {
        "regionCode": "PT",
        "regionFlag": "ğŸ‡µğŸ‡¹",
        "callingCode": "+351",
        "regionName": "ĞŸĞ¾Ñ€Ñ‚ÑƒĞ³Ğ°Ğ»Ğ¸Ñ"
      },
      {
        "regionName": "ĞŸÑƒÑÑ€Ñ‚Ğ¾-Ğ Ğ¸ĞºĞ¾",
        "regionCode": "PR",
        "regionFlag": "ğŸ‡µğŸ‡·",
        "callingCode": "+1-939"
      }
    ]
  },
  {
    "index": "Ğ ",
    "items": [
      {
        "regionFlag": "ğŸ‡°ğŸ‡·",
        "callingCode": "+82",
        "regionName": "Ğ ĞµÑĞ¿ÑƒĞ±Ğ»Ğ¸ĞºĞ° ĞšĞ¾Ñ€ĞµÑ",
        "regionCode": "KR"
      },
      {
        "regionFlag": "ğŸ‡·ğŸ‡ª",
        "regionName": "Ğ ĞµÑĞ½ÑŒĞ¾Ğ½",
        "regionCode": "RE",
        "callingCode": "+262"
      },
      {
        "regionFlag": "ğŸ‡·ğŸ‡º",
        "regionName": "Ğ Ğ¾ÑÑĞ¸Ñ",
        "callingCode": "+7",
        "regionCode": "RU"
      },
      {
        "regionFlag": "ğŸ‡·ğŸ‡¼",
        "regionName": "Ğ ÑƒĞ°Ğ½Ğ´Ğ°",
        "callingCode": "+250",
        "regionCode": "RW"
      },
      {
        "callingCode": "+40",
        "regionFlag": "ğŸ‡·ğŸ‡´",
        "regionName": "Ğ ÑƒĞ¼Ñ‹Ğ½Ğ¸Ñ",
        "regionCode": "RO"
      }
    ]
  },
  {
    "index": "Ğ¡",
    "items": [
      {
        "callingCode": "+503",
        "regionFlag": "ğŸ‡¸ğŸ‡»",
        "regionCode": "SV",
        "regionName": "Ğ¡Ğ°Ğ»ÑŒĞ²Ğ°Ğ´Ğ¾Ñ€"
      },
      {
        "regionCode": "WS",
        "regionName": "Ğ¡Ğ°Ğ¼Ğ¾Ğ°",
        "regionFlag": "ğŸ‡¼ğŸ‡¸",
        "callingCode": "+685"
      },
      {
        "regionCode": "SM",
        "regionFlag": "ğŸ‡¸ğŸ‡²",
        "callingCode": "+378",
        "regionName": "Ğ¡Ğ°Ğ½-ĞœĞ°Ñ€Ğ¸Ğ½Ğ¾"
      },
      {
        "regionName": "Ğ¡Ğ°Ğ½-Ğ¢Ğ¾Ğ¼Ğµ Ğ¸ ĞŸÑ€Ğ¸Ğ½ÑĞ¸Ğ¿Ğ¸",
        "callingCode": "+239",
        "regionCode": "ST",
        "regionFlag": "ğŸ‡¸ğŸ‡¹"
      },
      {
        "regionName": "Ğ¡Ğ°ÑƒĞ´Ğ¾Ğ²ÑĞºĞ°Ñ ĞÑ€Ğ°Ğ²Ğ¸Ñ",
        "regionCode": "SA",
        "regionFlag": "ğŸ‡¸ğŸ‡¦",
        "callingCode": "+966"
      },
      {
        "regionCode": "MK",
        "callingCode": "+389",
        "regionName": "Ğ¡ĞµĞ²ĞµÑ€Ğ½Ğ°Ñ ĞœĞ°ĞºĞµĞ´Ğ¾Ğ½Ğ¸Ñ",
        "regionFlag": "ğŸ‡²ğŸ‡°"
      },
      {
        "regionName": "Ğ¡ĞµĞ²ĞµÑ€Ğ½Ñ‹Ğµ ĞœĞ°Ñ€Ğ¸Ğ°Ğ½ÑĞºĞ¸Ğµ Ğ¾-Ğ²Ğ°",
        "regionCode": "MP",
        "regionFlag": "ğŸ‡²ğŸ‡µ",
        "callingCode": "+1-670"
      },
      {
        "regionCode": "SC",
        "regionFlag": "ğŸ‡¸ğŸ‡¨",
        "callingCode": "+248",
        "regionName": "Ğ¡ĞµĞ¹ÑˆĞµĞ»ÑŒÑĞºĞ¸Ğµ ĞÑÑ‚Ñ€Ğ¾Ğ²Ğ°"
      },
      {
        "callingCode": "+590",
        "regionName": "Ğ¡ĞµĞ½-Ğ‘Ğ°Ñ€Ñ‚ĞµĞ»ĞµĞ¼Ğ¸",
        "regionCode": "BL",
        "regionFlag": "ğŸ‡§ğŸ‡±"
      },
      {
        "regionCode": "MF",
        "regionFlag": "ğŸ‡²ğŸ‡«",
        "regionName": "Ğ¡ĞµĞ½-ĞœĞ°Ñ€Ñ‚ĞµĞ½",
        "callingCode": "+590"
      },
      {
        "regionName": "Ğ¡ĞµĞ½-ĞŸÑŒĞµÑ€ Ğ¸ ĞœĞ¸ĞºĞµĞ»Ğ¾Ğ½",
        "regionFlag": "ğŸ‡µğŸ‡²",
        "regionCode": "PM",
        "callingCode": "+508"
      },
      {
        "callingCode": "+221",
        "regionCode": "SN",
        "regionName": "Ğ¡ĞµĞ½ĞµĞ³Ğ°Ğ»",
        "regionFlag": "ğŸ‡¸ğŸ‡³"
      },
      {
        "regionCode": "VC",
        "regionName": "Ğ¡ĞµĞ½Ñ‚-Ğ’Ğ¸Ğ½ÑĞµĞ½Ñ‚ Ğ¸ Ğ“Ñ€ĞµĞ½Ğ°Ğ´Ğ¸Ğ½Ñ‹",
        "callingCode": "+1-784",
        "regionFlag": "ğŸ‡»ğŸ‡¨"
      },
      {
        "regionFlag": "ğŸ‡°ğŸ‡³",
        "callingCode": "+1-869",
        "regionCode": "KN",
        "regionName": "Ğ¡ĞµĞ½Ñ‚-ĞšĞ¸Ñ‚Ñ Ğ¸ ĞĞµĞ²Ğ¸Ñ"
      },
      {
        "regionFlag": "ğŸ‡±ğŸ‡¨",
        "regionName": "Ğ¡ĞµĞ½Ñ‚-Ğ›ÑÑĞ¸Ñ",
        "callingCode": "+1-758",
        "regionCode": "LC"
      },
      {
        "regionName": "Ğ¡ĞµÑ€Ğ±Ğ¸Ñ",
        "regionCode": "RS",
        "regionFlag": "ğŸ‡·ğŸ‡¸",
        "callingCode": "+381"
      },
      {
        "callingCode": "+65",
        "regionFlag": "ğŸ‡¸ğŸ‡¬",
        "regionName": "Ğ¡Ğ¸Ğ½Ğ³Ğ°Ğ¿ÑƒÑ€",
        "regionCode": "SG"
      },
      {
        "regionFlag": "ğŸ‡¸ğŸ‡½",
        "regionName": "Ğ¡Ğ¸Ğ½Ñ‚-ĞœĞ°Ñ€Ñ‚ĞµĞ½",
        "callingCode": "+1-721",
        "regionCode": "SX"
      },
      {
        "regionCode": "SY",
        "regionFlag": "ğŸ‡¸ğŸ‡¾",
        "regionName": "Ğ¡Ğ¸Ñ€Ğ¸Ñ",
        "callingCode": "+963"
      },
      {
        "regionCode": "SK",
        "regionName": "Ğ¡Ğ»Ğ¾Ğ²Ğ°ĞºĞ¸Ñ",
        "callingCode": "+421",
        "regionFlag": "ğŸ‡¸ğŸ‡°"
      },
      {
        "regionName": "Ğ¡Ğ»Ğ¾Ğ²ĞµĞ½Ğ¸Ñ",
        "regionFlag": "ğŸ‡¸ğŸ‡®",
        "regionCode": "SI",
        "callingCode": "+386"
      },
      {
        "callingCode": "+1",
        "regionName": "Ğ¡Ğ¾ĞµĞ´Ğ¸Ğ½ĞµĞ½Ğ½Ñ‹Ğµ Ğ¨Ñ‚Ğ°Ñ‚Ñ‹",
        "regionFlag": "ğŸ‡ºğŸ‡¸",
        "regionCode": "US"
      },
      {
        "regionCode": "SB",
        "regionName": "Ğ¡Ğ¾Ğ»Ğ¾Ğ¼Ğ¾Ğ½Ğ¾Ğ²Ñ‹ ĞÑÑ‚Ñ€Ğ¾Ğ²Ğ°",
        "callingCode": "+677",
        "regionFlag": "ğŸ‡¸ğŸ‡§"
      },
      {
        "regionCode": "SO",
        "regionName": "Ğ¡Ğ¾Ğ¼Ğ°Ğ»Ğ¸",
        "regionFlag": "ğŸ‡¸ğŸ‡´",
        "callingCode": "+252"
      },
      {
        "regionCode": "SD",
        "regionName": "Ğ¡ÑƒĞ´Ğ°Ğ½",
        "regionFlag": "ğŸ‡¸ğŸ‡©",
        "callingCode": "+249"
      },
      {
        "regionFlag": "ğŸ‡¸ğŸ‡·",
        "regionName": "Ğ¡ÑƒÑ€Ğ¸Ğ½Ğ°Ğ¼",
        "callingCode": "+597",
        "regionCode": "SR"
      },
      {
        "callingCode": "+232",
        "regionFlag": "ğŸ‡¸ğŸ‡±",
        "regionCode": "SL",
        "regionName": "Ğ¡ÑŒĞµÑ€Ñ€Ğ°-Ğ›ĞµĞ¾Ğ½Ğµ"
      }
    ]
  },
  {
    "index": "Ğ¢",
    "items": [
      {
        "regionName": "Ğ¢Ğ°Ğ´Ğ¶Ğ¸ĞºĞ¸ÑÑ‚Ğ°Ğ½",
        "regionCode": "TJ",
        "callingCode": "+992",
        "regionFlag": "ğŸ‡¹ğŸ‡¯"
      },
      {
        "callingCode": "+66",
        "regionCode": "TH",
        "regionFlag": "ğŸ‡¹ğŸ‡­",
        "regionName": "Ğ¢Ğ°Ğ¸Ğ»Ğ°Ğ½Ğ´"
      },
      {
        "regionCode": "TW",
        "regionName": "Ğ¢Ğ°Ğ¹Ğ²Ğ°Ğ½ÑŒ",
        "regionFlag": "ğŸ‡¨ğŸ‡³",
        "callingCode": "+886"
      },
      {
        "regionName": "Ğ¢Ğ°Ğ½Ğ·Ğ°Ğ½Ğ¸Ñ",
        "callingCode": "+255",
        "regionCode": "TZ",
        "regionFlag": "ğŸ‡¹ğŸ‡¿"
      },
      {
        "regionCode": "TG",
        "regionFlag": "ğŸ‡¹ğŸ‡¬",
        "callingCode": "+228",
        "regionName": "Ğ¢Ğ¾Ğ³Ğ¾"
      },
      {
        "regionFlag": "ğŸ‡¹ğŸ‡°",
        "regionName": "Ğ¢Ğ¾ĞºĞµĞ»Ğ°Ñƒ",
        "regionCode": "TK",
        "callingCode": "+690"
      },
      {
        "callingCode": "+676",
        "regionFlag": "ğŸ‡¹ğŸ‡´",
        "regionCode": "TO",
        "regionName": "Ğ¢Ğ¾Ğ½Ğ³Ğ°"
      },
      {
        "callingCode": "+1-868",
        "regionCode": "TT",
        "regionName": "Ğ¢Ñ€Ğ¸Ğ½Ğ¸Ğ´Ğ°Ğ´ Ğ¸ Ğ¢Ğ¾Ğ±Ğ°Ğ³Ğ¾",
        "regionFlag": "ğŸ‡¹ğŸ‡¹"
      },
      {
        "regionName": "Ğ¢ÑƒĞ²Ğ°Ğ»Ñƒ",
        "regionCode": "TV",
        "callingCode": "+688",
        "regionFlag": "ğŸ‡¹ğŸ‡»"
      },
      {
        "regionFlag": "ğŸ‡¹ğŸ‡³",
        "callingCode": "+216",
        "regionCode": "TN",
        "regionName": "Ğ¢ÑƒĞ½Ğ¸Ñ"
      },
      {
        "regionFlag": "ğŸ‡¹ğŸ‡²",
        "regionName": "Ğ¢ÑƒÑ€ĞºĞ¼ĞµĞ½Ğ¸ÑÑ‚Ğ°Ğ½",
        "callingCode": "+993",
        "regionCode": "TM"
      },
      {
        "regionName": "Ğ¢ÑƒÑ€Ñ†Ğ¸Ñ",
        "regionCode": "TR",
        "regionFlag": "ğŸ‡¹ğŸ‡·",
        "callingCode": "+90"
      }
    ]
  },
  {
    "index": "Ğ£",
    "items": [
      {
        "regionFlag": "ğŸ‡ºğŸ‡¬",
        "regionCode": "UG",
        "callingCode": "+256",
        "regionName": "Ğ£Ğ³Ğ°Ğ½Ğ´Ğ°"
      },
      {
        "regionName": "Ğ£Ğ·Ğ±ĞµĞºĞ¸ÑÑ‚Ğ°Ğ½",
        "callingCode": "+998",
        "regionFlag": "ğŸ‡ºğŸ‡¿",
        "regionCode": "UZ"
      },
      {
        "regionName": "Ğ£ĞºÑ€Ğ°Ğ¸Ğ½Ğ°",
        "callingCode": "+380",
        "regionCode": "UA",
        "regionFlag": "ğŸ‡ºğŸ‡¦"
      },
      {
        "callingCode": "+681",
        "regionFlag": "ğŸ‡¼ğŸ‡«",
        "regionCode": "WF",
        "regionName": "Ğ£Ğ¾Ğ»Ğ»Ğ¸Ñ Ğ¸ Ğ¤ÑƒÑ‚ÑƒĞ½Ğ°"
      },
      {
        "regionFlag": "ğŸ‡ºğŸ‡¾",
        "regionCode": "UY",
        "regionName": "Ğ£Ñ€ÑƒĞ³Ğ²Ğ°Ğ¹",
        "callingCode": "+598"
      }
    ]
  },
  {
    "index": "Ğ¤",
    "items": [
      {
        "regionCode": "FO",
        "regionName": "Ğ¤Ğ°Ñ€ĞµÑ€ÑĞºĞ¸Ğµ Ğ¾-Ğ²Ğ°",
        "regionFlag": "ğŸ‡«ğŸ‡´",
        "callingCode": "+298"
      },
      {
        "regionFlag": "ğŸ‡«ğŸ‡²",
        "regionName": "Ğ¤ĞµĞ´ĞµÑ€Ğ°Ñ‚Ğ¸Ğ²Ğ½Ñ‹Ğµ Ğ¨Ñ‚Ğ°Ñ‚Ñ‹ ĞœĞ¸ĞºÑ€Ğ¾Ğ½ĞµĞ·Ğ¸Ğ¸",
        "callingCode": "+691",
        "regionCode": "FM"
      },
      {
        "regionCode": "FJ",
        "regionFlag": "ğŸ‡«ğŸ‡¯",
        "regionName": "Ğ¤Ğ¸Ğ´Ğ¶Ğ¸",
        "callingCode": "+679"
      },
      {
        "regionName": "Ğ¤Ğ¸Ğ»Ğ¸Ğ¿Ğ¿Ğ¸Ğ½Ñ‹",
        "regionFlag": "ğŸ‡µğŸ‡­",
        "callingCode": "+63",
        "regionCode": "PH"
      },
      {
        "regionFlag": "ğŸ‡«ğŸ‡®",
        "regionCode": "FI",
        "callingCode": "+358",
        "regionName": "Ğ¤Ğ¸Ğ½Ğ»ÑĞ½Ğ´Ğ¸Ñ"
      },
      {
        "regionName": "Ğ¤Ğ¾Ğ»ĞºĞ»ĞµĞ½Ğ´ÑĞºĞ¸Ğµ Ğ¾-Ğ²Ğ°",
        "regionCode": "FK",
        "regionFlag": "ğŸ‡«ğŸ‡°",
        "callingCode": "+500"
      },
      {
        "regionCode": "FR",
        "regionFlag": "ğŸ‡«ğŸ‡·",
        "regionName": "Ğ¤Ñ€Ğ°Ğ½Ñ†Ğ¸Ñ",
        "callingCode": "+33"
      },
      {
        "regionName": "Ğ¤Ñ€Ğ°Ğ½Ñ†ÑƒĞ·ÑĞºĞ°Ñ Ğ“Ğ²Ğ¸Ğ°Ğ½Ğ°",
        "regionFlag": "ğŸ‡¬ğŸ‡«",
        "callingCode": "+594",
        "regionCode": "GF"
      },
      {
        "callingCode": "+689",
        "regionFlag": "ğŸ‡µğŸ‡«",
        "regionName": "Ğ¤Ñ€Ğ°Ğ½Ñ†ÑƒĞ·ÑĞºĞ°Ñ ĞŸĞ¾Ğ»Ğ¸Ğ½ĞµĞ·Ğ¸Ñ",
        "regionCode": "PF"
      }
    ]
  },
  {
    "index": "Ğ¥",
    "items": [
      {
        "regionCode": "HR",
        "regionFlag": "ğŸ‡­ğŸ‡·",
        "regionName": "Ğ¥Ğ¾Ñ€Ğ²Ğ°Ñ‚Ğ¸Ñ",
        "callingCode": "+385"
      }
    ]
  },
  {
    "index": "Ğ¦",
    "items": [
      {
        "callingCode": "+236",
        "regionCode": "CF",
        "regionFlag": "ğŸ‡¨ğŸ‡«",
        "regionName": "Ğ¦ĞµĞ½Ñ‚Ñ€Ğ°Ğ»ÑŒĞ½Ğ¾-ĞÑ„Ñ€Ğ¸ĞºĞ°Ğ½ÑĞºĞ°Ñ Ğ ĞµÑĞ¿ÑƒĞ±Ğ»Ğ¸ĞºĞ°"
      }
    ]
  },
  {
    "index": "Ğ§",
    "items": [
      {
        "regionName": "Ğ§Ğ°Ğ´",
        "regionFlag": "ğŸ‡¹ğŸ‡©",
        "callingCode": "+235",
        "regionCode": "TD"
      },
      {
        "regionCode": "ME",
        "regionName": "Ğ§ĞµÑ€Ğ½Ğ¾Ğ³Ğ¾Ñ€Ğ¸Ñ",
        "regionFlag": "ğŸ‡²ğŸ‡ª",
        "callingCode": "+382"
      },
      {
        "callingCode": "+420",
        "regionFlag": "ğŸ‡¨ğŸ‡¿",
        "regionCode": "CZ",
        "regionName": "Ğ§ĞµÑ…Ğ¸Ñ"
      },
      {
        "regionName": "Ğ§Ğ¸Ğ»Ğ¸",
        "regionCode": "CL",
        "callingCode": "+56",
        "regionFlag": "ğŸ‡¨ğŸ‡±"
      }
    ]
  },
  {
    "index": "Ğ¨",
    "items": [
      {
        "callingCode": "+41",
        "regionName": "Ğ¨Ğ²ĞµĞ¹Ñ†Ğ°Ñ€Ğ¸Ñ",
        "regionFlag": "ğŸ‡¨ğŸ‡­",
        "regionCode": "CH"
      },
      {
        "regionName": "Ğ¨Ğ²ĞµÑ†Ğ¸Ñ",
        "regionFlag": "ğŸ‡¸ğŸ‡ª",
        "callingCode": "+46",
        "regionCode": "SE"
      },
      {
        "callingCode": "+47",
        "regionName": "Ğ¨Ğ¿Ğ¸Ñ†Ğ±ĞµÑ€Ğ³ĞµĞ½ Ğ¸ Ğ¯Ğ½-ĞœĞ°Ğ¹ĞµĞ½",
        "regionCode": "SJ",
        "regionFlag": "ğŸ‡¸ğŸ‡¯"
      },
      {
        "regionFlag": "ğŸ‡±ğŸ‡°",
        "callingCode": "+94",
        "regionCode": "LK",
        "regionName": "Ğ¨Ñ€Ğ¸-Ğ›Ğ°Ğ½ĞºĞ°"
      }
    ]
  },
  {
    "index": "Ğ­",
    "items": [
      {
        "regionCode": "EC",
        "regionName": "Ğ­ĞºĞ²Ğ°Ğ´Ğ¾Ñ€",
        "callingCode": "+593",
        "regionFlag": "ğŸ‡ªğŸ‡¨"
      },
      {
        "regionCode": "GQ",
        "regionFlag": "ğŸ‡¬ğŸ‡¶",
        "callingCode": "+240",
        "regionName": "Ğ­ĞºĞ²Ğ°Ñ‚Ğ¾Ñ€Ğ¸Ğ°Ğ»ÑŒĞ½Ğ°Ñ Ğ“Ğ²Ğ¸Ğ½ĞµÑ"
      },
      {
        "regionCode": "ER",
        "regionFlag": "ğŸ‡ªğŸ‡·",
        "callingCode": "+291",
        "regionName": "Ğ­Ñ€Ğ¸Ñ‚Ñ€ĞµÑ"
      },
      {
        "regionCode": "SZ",
        "regionName": "Ğ­ÑĞ²Ğ°Ñ‚Ğ¸Ğ½Ğ¸",
        "regionFlag": "ğŸ‡¸ğŸ‡¿",
        "callingCode": "+268"
      },
      {
        "callingCode": "+372",
        "regionName": "Ğ­ÑÑ‚Ğ¾Ğ½Ğ¸Ñ",
        "regionCode": "EE",
        "regionFlag": "ğŸ‡ªğŸ‡ª"
      },
      {
        "callingCode": "+251",
        "regionFlag": "ğŸ‡ªğŸ‡¹",
        "regionCode": "ET",
        "regionName": "Ğ­Ñ„Ğ¸Ğ¾Ğ¿Ğ¸Ñ"
      }
    ]
  },
  {
    "index": "Ğ®",
    "items": [
      {
        "regionFlag": "ğŸ‡¬ğŸ‡¸",
        "regionName": "Ğ®Ğ¶Ğ½Ğ°Ñ Ğ“ĞµĞ¾Ñ€Ğ³Ğ¸Ñ Ğ¸ Ğ®Ğ¶Ğ½Ñ‹Ğµ Ğ¡Ğ°Ğ½Ğ´Ğ²Ğ¸Ñ‡ĞµĞ²Ñ‹ Ğ¾-Ğ²Ğ°",
        "regionCode": "GS",
        "callingCode": "+500"
      },
      {
        "regionCode": "ZA",
        "regionFlag": "ğŸ‡¿ğŸ‡¦",
        "regionName": "Ğ®Ğ¶Ğ½Ğ¾-ĞÑ„Ñ€Ğ¸ĞºĞ°Ğ½ÑĞºĞ°Ñ Ğ ĞµÑĞ¿ÑƒĞ±Ğ»Ğ¸ĞºĞ°",
        "callingCode": "+27"
      },
      {
        "regionFlag": "ğŸ‡¸ğŸ‡¸",
        "callingCode": "+211",
        "regionCode": "SS",
        "regionName": "Ğ®Ğ¶Ğ½Ñ‹Ğ¹ Ğ¡ÑƒĞ´Ğ°Ğ½"
      }
    ]
  },
  {
    "index": "Ğ¯",
    "items": [
      {
        "callingCode": "+1-876",
        "regionFlag": "ğŸ‡¯ğŸ‡²",
        "regionCode": "JM",
        "regionName": "Ğ¯Ğ¼Ğ°Ğ¹ĞºĞ°"
      },
      {
        "regionCode": "JP",
        "callingCode": "+81",
        "regionFlag": "ğŸ‡¯ğŸ‡µ",
        "regionName": "Ğ¯Ğ¿Ğ¾Ğ½Ğ¸Ñ"
      }
    ]
  }
]