[
  {
    "index": "A",
    "items": [
      {
        "regionFlag": "ðŸ‡¦ðŸ‡«",
        "regionCode": "AF",
        "callingCode": "+93",
        "regionName": "Afghanistan"
      },
      {
        "regionName": "Albania",
        "regionCode": "AL",
        "callingCode": "+355",
        "regionFlag": "ðŸ‡¦ðŸ‡±"
      },
      {
        "regionCode": "DZ",
        "regionFlag": "ðŸ‡©ðŸ‡¿",
        "callingCode": "+213",
        "regionName": "Algeria"
      },
      {
        "callingCode": "+1",
        "regionFlag": "ðŸ‡ºðŸ‡¸",
        "regionCode": "UM",
        "regionName": "Altre isole americane del Pacifico"
      },
      {
        "regionCode": "AD",
        "regionFlag": "ðŸ‡¦ðŸ‡©",
        "regionName": "Andorra",
        "callingCode": "+376"
      },
      {
        "regionName": "Angola",
        "regionCode": "AO",
        "callingCode": "+244",
        "regionFlag": "ðŸ‡¦ðŸ‡´"
      },
      {
        "callingCode": "+1-264",
        "regionCode": "AI",
        "regionFlag": "ðŸ‡¦ðŸ‡®",
        "regionName": "Anguilla"
      },
      {
        "regionFlag": "ðŸ‡¦ðŸ‡¶",
        "regionName": "Antartide",
        "callingCode": "+672",
        "regionCode": "AQ"
      },
      {
        "regionCode": "AG",
        "regionName": "Antigua e Barbuda",
        "callingCode": "+1-268",
        "regionFlag": "ðŸ‡¦ðŸ‡¬"
      },
      {
        "regionName": "Arabia Saudita",
        "regionCode": "SA",
        "regionFlag": "ðŸ‡¸ðŸ‡¦",
        "callingCode": "+966"
      },
      {
        "regionCode": "AR",
        "regionName": "Argentina",
        "regionFlag": "ðŸ‡¦ðŸ‡·",
        "callingCode": "+54"
      },
      {
        "regionCode": "AM",
        "regionFlag": "ðŸ‡¦ðŸ‡²",
        "regionName": "Armenia",
        "callingCode": "+374"
      },
      {
        "callingCode": "+297",
        "regionName": "Aruba",
        "regionCode": "AW",
        "regionFlag": "ðŸ‡¦ðŸ‡¼"
      },
      {
        "regionName": "Ascension Island",
        "callingCode": "+247",
        "regionCode": "AC",
        "regionFlag": "ðŸ‡¦ðŸ‡¨"
      },
      {
        "regionCode": "AU",
        "regionName": "Australia",
        "callingCode": "+61",
        "regionFlag": "ðŸ‡¦ðŸ‡º"
      },
      {
        "regionCode": "AT",
        "regionFlag": "ðŸ‡¦ðŸ‡¹",
        "callingCode": "+43",
        "regionName": "Austria"
      },
      {
        "callingCode": "+994",
        "regionFlag": "ðŸ‡¦ðŸ‡¿",
        "regionName": "Azerbaigian",
        "regionCode": "AZ"
      }
    ]
  },
  {
    "index": "B",
    "items": [
      {
        "regionFlag": "ðŸ‡§ðŸ‡¸",
        "regionCode": "BS",
        "regionName": "Bahamas",
        "callingCode": "+1-242"
      },
      {
        "regionName": "Bahrein",
        "regionFlag": "ðŸ‡§ðŸ‡­",
        "callingCode": "+973",
        "regionCode": "BH"
      },
      {
        "callingCode": "+880",
        "regionCode": "BD",
        "regionFlag": "ðŸ‡§ðŸ‡©",
        "regionName": "Bangladesh"
      },
      {
        "regionCode": "BB",
        "regionFlag": "ðŸ‡§ðŸ‡§",
        "regionName": "Barbados",
        "callingCode": "+1-246"
      },
      {
        "callingCode": "+32",
        "regionCode": "BE",
        "regionName": "Belgio",
        "regionFlag": "ðŸ‡§ðŸ‡ª"
      },
      {
        "regionCode": "BZ",
        "regionFlag": "ðŸ‡§ðŸ‡¿",
        "callingCode": "+501",
        "regionName": "Belize"
      },
      {
        "regionName": "Benin",
        "regionFlag": "ðŸ‡§ðŸ‡¯",
        "regionCode": "BJ",
        "callingCode": "+229"
      },
      {
        "regionName": "Bermuda",
        "callingCode": "+1-441",
        "regionCode": "BM",
        "regionFlag": "ðŸ‡§ðŸ‡²"
      },
      {
        "regionCode": "BT",
        "regionName": "Bhutan",
        "callingCode": "+975",
        "regionFlag": "ðŸ‡§ðŸ‡¹"
      },
      {
        "regionCode": "BY",
        "regionFlag": "ðŸ‡§ðŸ‡¾",
        "regionName": "Bielorussia",
        "callingCode": "+375"
      },
      {
        "regionName": "Bolivia",
        "callingCode": "+591",
        "regionCode": "BO",
        "regionFlag": "ðŸ‡§ðŸ‡´"
      },
      {
        "regionCode": "BA",
        "callingCode": "+387",
        "regionFlag": "ðŸ‡§ðŸ‡¦",
        "regionName": "Bosnia ed Erzegovina"
      },
      {
        "regionFlag": "ðŸ‡§ðŸ‡¼",
        "regionName": "Botswana",
        "regionCode": "BW",
        "callingCode": "+267"
      },
      {
        "regionName": "Brasile",
        "regionCode": "BR",
        "callingCode": "+55",
        "regionFlag": "ðŸ‡§ðŸ‡·"
      },
      {
        "regionName": "Brunei",
        "regionCode": "BN",
        "regionFlag": "ðŸ‡§ðŸ‡³",
        "callingCode": "+673"
      },
      {
        "regionName": "Bulgaria",
        "callingCode": "+359",
        "regionCode": "BG",
        "regionFlag": "ðŸ‡§ðŸ‡¬"
      },
      {
        "callingCode": "+226",
        "regionFlag": "ðŸ‡§ðŸ‡«",
        "regionName": "Burkina Faso",
        "regionCode": "BF"
      },
      {
        "regionFlag": "ðŸ‡§ðŸ‡®",
        "regionName": "Burundi",
        "regionCode": "BI",
        "callingCode": "+257"
      }
    ]
  },
  {
    "index": "C",
    "items": [
      {
        "regionFlag": "ðŸ‡°ðŸ‡­",
        "regionCode": "KH",
        "callingCode": "+855",
        "regionName": "Cambogia"
      },
      {
        "callingCode": "+237",
        "regionFlag": "ðŸ‡¨ðŸ‡²",
        "regionCode": "CM",
        "regionName": "Camerun"
      },
      {
        "callingCode": "+1",
        "regionCode": "CA",
        "regionName": "Canada",
        "regionFlag": "ðŸ‡¨ðŸ‡¦"
      },
      {
        "regionFlag": "ðŸ‡¨ðŸ‡»",
        "regionName": "Capo Verde",
        "callingCode": "+238",
        "regionCode": "CV"
      },
      {
        "regionName": "Caraibi olandesi",
        "callingCode": "+599",
        "regionFlag": "ðŸ‡§ðŸ‡¶",
        "regionCode": "BQ"
      },
      {
        "callingCode": "+420",
        "regionFlag": "ðŸ‡¨ðŸ‡¿",
        "regionCode": "CZ",
        "regionName": "Cechia"
      },
      {
        "regionName": "Ciad",
        "regionFlag": "ðŸ‡¹ðŸ‡©",
        "callingCode": "+235",
        "regionCode": "TD"
      },
      {
        "regionName": "Cile",
        "regionCode": "CL",
        "callingCode": "+56",
        "regionFlag": "ðŸ‡¨ðŸ‡±"
      },
      {
        "regionFlag": "ðŸ‡¨ðŸ‡³",
        "callingCode": "+86",
        "regionName": "Cina",
        "regionCode": "CN"
      },
      {
        "regionName": "Cipro",
        "regionCode": "CY",
        "callingCode": "+357",
        "regionFlag": "ðŸ‡¨ðŸ‡¾"
      },
      {
        "regionFlag": "ðŸ‡»ðŸ‡¦",
        "regionName": "CittÃ  del Vaticano",
        "callingCode": "+379",
        "regionCode": "VA"
      },
      {
        "regionName": "Colombia",
        "regionFlag": "ðŸ‡¨ðŸ‡´",
        "regionCode": "CO",
        "callingCode": "+57"
      },
      {
        "regionName": "Comore",
        "callingCode": "+269",
        "regionFlag": "ðŸ‡°ðŸ‡²",
        "regionCode": "KM"
      },
      {
        "callingCode": "+243",
        "regionCode": "CD",
        "regionFlag": "ðŸ‡¨ðŸ‡©",
        "regionName": "Congo - Kinshasa"
      },
      {
        "callingCode": "+242",
        "regionName": "Congo-Brazzaville",
        "regionCode": "CG",
        "regionFlag": "ðŸ‡¨ðŸ‡¬"
      },
      {
        "regionCode": "KP",
        "regionFlag": "ðŸ‡°ðŸ‡µ",
        "callingCode": "+850",
        "regionName": "Corea del Nord"
      },
      {
        "regionFlag": "ðŸ‡°ðŸ‡·",
        "callingCode": "+82",
        "regionName": "Corea del Sud",
        "regionCode": "KR"
      },
      {
        "regionFlag": "ðŸ‡¨ðŸ‡·",
        "callingCode": "+506",
        "regionName": "Costa Rica",
        "regionCode": "CR"
      },
      {
        "callingCode": "+225",
        "regionFlag": "ðŸ‡¨ðŸ‡®",
        "regionCode": "CI",
        "regionName": "Costa dâ€™Avorio"
      },
      {
        "regionCode": "HR",
        "regionFlag": "ðŸ‡­ðŸ‡·",
        "regionName": "Croazia",
        "callingCode": "+385"
      },
      {
        "regionName": "Cuba",
        "regionFlag": "ðŸ‡¨ðŸ‡º",
        "regionCode": "CU",
        "callingCode": "+53"
      },
      {
        "regionFlag": "ðŸ‡¨ðŸ‡¼",
        "regionCode": "CW",
        "regionName": "CuraÃ§ao",
        "callingCode": "+599 9"
      }
    ]
  },
  {
    "index": "D",
    "items": [
      {
        "regionFlag": "ðŸ‡©ðŸ‡°",
        "regionCode": "DK",
        "regionName": "Danimarca",
        "callingCode": "+45"
      },
      {
        "callingCode": "+1-767",
        "regionFlag": "ðŸ‡©ðŸ‡²",
        "regionName": "Dominica",
        "regionCode": "DM"
      }
    ]
  },
  {
    "index": "E",
    "items": [
      {
        "regionCode": "EC",
        "regionName": "Ecuador",
        "callingCode": "+593",
        "regionFlag": "ðŸ‡ªðŸ‡¨"
      },
      {
        "regionFlag": "ðŸ‡ªðŸ‡¬",
        "regionCode": "EG",
        "regionName": "Egitto",
        "callingCode": "+20"
      },
      {
        "callingCode": "+503",
        "regionFlag": "ðŸ‡¸ðŸ‡»",
        "regionCode": "SV",
        "regionName": "El Salvador"
      },
      {
        "regionCode": "AE",
        "callingCode": "+971",
        "regionFlag": "ðŸ‡¦ðŸ‡ª",
        "regionName": "Emirati Arabi Uniti"
      },
      {
        "regionCode": "ER",
        "regionFlag": "ðŸ‡ªðŸ‡·",
        "callingCode": "+291",
        "regionName": "Eritrea"
      },
      {
        "callingCode": "+372",
        "regionName": "Estonia",
        "regionCode": "EE",
        "regionFlag": "ðŸ‡ªðŸ‡ª"
      },
      {
        "callingCode": "+251",
        "regionFlag": "ðŸ‡ªðŸ‡¹",
        "regionCode": "ET",
        "regionName": "Etiopia"
      }
    ]
  },
  {
    "index": "F",
    "items": [
      {
        "regionCode": "FJ",
        "regionFlag": "ðŸ‡«ðŸ‡¯",
        "regionName": "Figi",
        "callingCode": "+679"
      },
      {
        "regionName": "Filippine",
        "regionFlag": "ðŸ‡µðŸ‡­",
        "callingCode": "+63",
        "regionCode": "PH"
      },
      {
        "regionFlag": "ðŸ‡«ðŸ‡®",
        "regionCode": "FI",
        "callingCode": "+358",
        "regionName": "Finlandia"
      },
      {
        "regionCode": "FR",
        "regionFlag": "ðŸ‡«ðŸ‡·",
        "regionName": "Francia",
        "callingCode": "+33"
      }
    ]
  },
  {
    "index": "G",
    "items": [
      {
        "regionFlag": "ðŸ‡¬ðŸ‡¦",
        "callingCode": "+241",
        "regionName": "Gabon",
        "regionCode": "GA"
      },
      {
        "regionCode": "GM",
        "callingCode": "+220",
        "regionFlag": "ðŸ‡¬ðŸ‡²",
        "regionName": "Gambia"
      },
      {
        "regionCode": "GE",
        "regionFlag": "ðŸ‡¬ðŸ‡ª",
        "callingCode": "+995",
        "regionName": "Georgia"
      },
      {
        "regionFlag": "ðŸ‡¬ðŸ‡¸",
        "regionName": "Georgia del Sud e Sandwich australi",
        "regionCode": "GS",
        "callingCode": "+500"
      },
      {
        "regionName": "Germania",
        "regionFlag": "ðŸ‡©ðŸ‡ª",
        "regionCode": "DE",
        "callingCode": "+49"
      },
      {
        "callingCode": "+233",
        "regionFlag": "ðŸ‡¬ðŸ‡­",
        "regionCode": "GH",
        "regionName": "Ghana"
      },
      {
        "callingCode": "+1-876",
        "regionFlag": "ðŸ‡¯ðŸ‡²",
        "regionCode": "JM",
        "regionName": "Giamaica"
      },
      {
        "regionCode": "JP",
        "callingCode": "+81",
        "regionFlag": "ðŸ‡¯ðŸ‡µ",
        "regionName": "Giappone"
      },
      {
        "regionName": "Gibilterra",
        "regionCode": "GI",
        "regionFlag": "ðŸ‡¬ðŸ‡®",
        "callingCode": "+350"
      },
      {
        "regionCode": "DJ",
        "callingCode": "+253",
        "regionName": "Gibuti",
        "regionFlag": "ðŸ‡©ðŸ‡¯"
      },
      {
        "regionName": "Giordania",
        "regionFlag": "ðŸ‡¯ðŸ‡´",
        "regionCode": "JO",
        "callingCode": "+962"
      },
      {
        "callingCode": "+30",
        "regionCode": "GR",
        "regionFlag": "ðŸ‡¬ðŸ‡·",
        "regionName": "Grecia"
      },
      {
        "regionCode": "GD",
        "regionName": "Grenada",
        "callingCode": "+1-473",
        "regionFlag": "ðŸ‡¬ðŸ‡©"
      },
      {
        "regionFlag": "ðŸ‡¬ðŸ‡±",
        "regionCode": "GL",
        "regionName": "Groenlandia",
        "callingCode": "+299"
      },
      {
        "callingCode": "+590",
        "regionCode": "GP",
        "regionFlag": "ðŸ‡¬ðŸ‡µ",
        "regionName": "Guadalupa"
      },
      {
        "regionCode": "GU",
        "callingCode": "+1-671",
        "regionName": "Guam",
        "regionFlag": "ðŸ‡¬ðŸ‡º"
      },
      {
        "regionCode": "GT",
        "regionFlag": "ðŸ‡¬ðŸ‡¹",
        "callingCode": "+502",
        "regionName": "Guatemala"
      },
      {
        "callingCode": "+44",
        "regionName": "Guernsey",
        "regionCode": "GG",
        "regionFlag": "ðŸ‡¬ðŸ‡¬"
      },
      {
        "regionName": "Guinea",
        "regionFlag": "ðŸ‡¬ðŸ‡³",
        "regionCode": "GN",
        "callingCode": "+224"
      },
      {
        "regionCode": "GQ",
        "regionFlag": "ðŸ‡¬ðŸ‡¶",
        "callingCode": "+240",
        "regionName": "Guinea Equatoriale"
      },
      {
        "regionCode": "GW",
        "regionName": "Guinea-Bissau",
        "callingCode": "+245",
        "regionFlag": "ðŸ‡¬ðŸ‡¼"
      },
      {
        "callingCode": "+595",
        "regionName": "Guyana",
        "regionCode": "GY",
        "regionFlag": "ðŸ‡¬ðŸ‡¾"
      },
      {
        "regionName": "Guyana francese",
        "regionFlag": "ðŸ‡¬ðŸ‡«",
        "callingCode": "+594",
        "regionCode": "GF"
      }
    ]
  },
  {
    "index": "H",
    "items": [
      {
        "regionFlag": "ðŸ‡­ðŸ‡¹",
        "regionCode": "HT",
        "regionName": "Haiti",
        "callingCode": "+509"
      },
      {
        "regionCode": "HN",
        "callingCode": "+504",
        "regionName": "Honduras",
        "regionFlag": "ðŸ‡­ðŸ‡³"
      }
    ]
  },
  {
    "index": "I",
    "items": [
      {
        "regionCode": "IN",
        "regionFlag": "ðŸ‡®ðŸ‡³",
        "regionName": "India",
        "callingCode": "+91"
      },
      {
        "regionCode": "ID",
        "regionFlag": "ðŸ‡®ðŸ‡©",
        "callingCode": "+62",
        "regionName": "Indonesia"
      },
      {
        "regionFlag": "ðŸ‡®ðŸ‡·",
        "callingCode": "+98",
        "regionCode": "IR",
        "regionName": "Iran"
      },
      {
        "callingCode": "+964",
        "regionCode": "IQ",
        "regionFlag": "ðŸ‡®ðŸ‡¶",
        "regionName": "Iraq"
      },
      {
        "callingCode": "+353",
        "regionName": "Irlanda",
        "regionCode": "IE",
        "regionFlag": "ðŸ‡®ðŸ‡ª"
      },
      {
        "regionCode": "IS",
        "regionFlag": "ðŸ‡®ðŸ‡¸",
        "regionName": "Islanda",
        "callingCode": "+354"
      },
      {
        "regionCode": "CX",
        "regionName": "Isola Christmas",
        "callingCode": "+61",
        "regionFlag": "ðŸ‡¨ðŸ‡½"
      },
      {
        "regionFlag": "ðŸ‡³ðŸ‡«",
        "regionName": "Isola Norfolk",
        "callingCode": "+672",
        "regionCode": "NF"
      },
      {
        "regionCode": "IM",
        "callingCode": "+44",
        "regionFlag": "ðŸ‡®ðŸ‡²",
        "regionName": "Isola di Man"
      },
      {
        "callingCode": "+345",
        "regionFlag": "ðŸ‡°ðŸ‡¾",
        "regionCode": "KY",
        "regionName": "Isole Cayman"
      },
      {
        "regionCode": "CC",
        "regionFlag": "ðŸ‡¨ðŸ‡¨",
        "regionName": "Isole Cocos (Keeling)",
        "callingCode": "+61"
      },
      {
        "regionFlag": "ðŸ‡¨ðŸ‡°",
        "regionCode": "CK",
        "regionName": "Isole Cook",
        "callingCode": "+682"
      },
      {
        "regionName": "Isole Falkland",
        "regionCode": "FK",
        "regionFlag": "ðŸ‡«ðŸ‡°",
        "callingCode": "+500"
      },
      {
        "regionCode": "FO",
        "regionName": "Isole FÃ¦r Ã˜er",
        "regionFlag": "ðŸ‡«ðŸ‡´",
        "callingCode": "+298"
      },
      {
        "callingCode": "+672",
        "regionFlag": "ðŸ‡­ðŸ‡²",
        "regionName": "Isole Heard e McDonald",
        "regionCode": "HM"
      },
      {
        "regionName": "Isole Marianne settentrionali",
        "regionCode": "MP",
        "regionFlag": "ðŸ‡²ðŸ‡µ",
        "callingCode": "+1-670"
      },
      {
        "regionName": "Isole Marshall",
        "regionCode": "MH",
        "regionFlag": "ðŸ‡²ðŸ‡­",
        "callingCode": "+692"
      },
      {
        "regionName": "Isole Pitcairn",
        "callingCode": "+872",
        "regionCode": "PN",
        "regionFlag": "ðŸ‡µðŸ‡³"
      },
      {
        "regionCode": "SB",
        "regionName": "Isole Salomone",
        "callingCode": "+677",
        "regionFlag": "ðŸ‡¸ðŸ‡§"
      },
      {
        "callingCode": "+1-649",
        "regionFlag": "ðŸ‡¹ðŸ‡¨",
        "regionCode": "TC",
        "regionName": "Isole Turks e Caicos"
      },
      {
        "regionCode": "VI",
        "regionFlag": "ðŸ‡»ðŸ‡®",
        "regionName": "Isole Vergini Americane",
        "callingCode": "+1-340"
      },
      {
        "callingCode": "+1-284",
        "regionName": "Isole Vergini Britanniche",
        "regionCode": "VG",
        "regionFlag": "ðŸ‡»ðŸ‡¬"
      },
      {
        "regionName": "Isole Ã…land",
        "regionFlag": "ðŸ‡¦ðŸ‡½",
        "regionCode": "AX",
        "callingCode": "+358"
      },
      {
        "regionName": "Israele",
        "regionFlag": "ðŸ‡®ðŸ‡±",
        "callingCode": "+972",
        "regionCode": "IL"
      },
      {
        "regionName": "Italia",
        "callingCode": "+39",
        "regionCode": "IT",
        "regionFlag": "ðŸ‡®ðŸ‡¹"
      }
    ]
  },
  {
    "index": "J",
    "items": [
      {
        "regionName": "Jersey",
        "regionCode": "JE",
        "regionFlag": "ðŸ‡¯ðŸ‡ª",
        "callingCode": "+44"
      }
    ]
  },
  {
    "index": "K",
    "items": [
      {
        "regionFlag": "ðŸ‡°ðŸ‡¿",
        "callingCode": "+7",
        "regionName": "Kazakistan",
        "regionCode": "KZ"
      },
      {
        "callingCode": "+254",
        "regionFlag": "ðŸ‡°ðŸ‡ª",
        "regionName": "Kenya",
        "regionCode": "KE"
      },
      {
        "callingCode": "+996",
        "regionFlag": "ðŸ‡°ðŸ‡¬",
        "regionName": "Kirghizistan",
        "regionCode": "KG"
      },
      {
        "regionCode": "KI",
        "regionName": "Kiribati",
        "callingCode": "+686",
        "regionFlag": "ðŸ‡°ðŸ‡®"
      },
      {
        "regionFlag": "ðŸ‡½ðŸ‡°",
        "regionCode": "XK",
        "regionName": "Kosovo",
        "callingCode": "+383"
      },
      {
        "callingCode": "+965",
        "regionCode": "KW",
        "regionFlag": "ðŸ‡°ðŸ‡¼",
        "regionName": "Kuwait"
      }
    ]
  },
  {
    "index": "L",
    "items": [
      {
        "regionName": "Laos",
        "callingCode": "+856",
        "regionCode": "LA",
        "regionFlag": "ðŸ‡±ðŸ‡¦"
      },
      {
        "regionName": "Lesotho",
        "regionFlag": "ðŸ‡±ðŸ‡¸",
        "callingCode": "+266",
        "regionCode": "LS"
      },
      {
        "regionName": "Lettonia",
        "regionFlag": "ðŸ‡±ðŸ‡»",
        "callingCode": "+371",
        "regionCode": "LV"
      },
      {
        "regionName": "Libano",
        "callingCode": "+961",
        "regionFlag": "ðŸ‡±ðŸ‡§",
        "regionCode": "LB"
      },
      {
        "regionName": "Liberia",
        "regionCode": "LR",
        "regionFlag": "ðŸ‡±ðŸ‡·",
        "callingCode": "+231"
      },
      {
        "callingCode": "+218",
        "regionFlag": "ðŸ‡±ðŸ‡¾",
        "regionCode": "LY",
        "regionName": "Libia"
      },
      {
        "regionFlag": "ðŸ‡±ðŸ‡®",
        "regionName": "Liechtenstein",
        "regionCode": "LI",
        "callingCode": "+423"
      },
      {
        "regionName": "Lituania",
        "regionCode": "LT",
        "callingCode": "+370",
        "regionFlag": "ðŸ‡±ðŸ‡¹"
      },
      {
        "callingCode": "+352",
        "regionFlag": "ðŸ‡±ðŸ‡º",
        "regionName": "Lussemburgo",
        "regionCode": "LU"
      }
    ]
  },
  {
    "index": "M",
    "items": [
      {
        "regionCode": "MK",
        "callingCode": "+389",
        "regionName": "Macedonia del Nord",
        "regionFlag": "ðŸ‡²ðŸ‡°"
      },
      {
        "regionName": "Madagascar",
        "regionFlag": "ðŸ‡²ðŸ‡¬",
        "regionCode": "MG",
        "callingCode": "+261"
      },
      {
        "callingCode": "+265",
        "regionFlag": "ðŸ‡²ðŸ‡¼",
        "regionCode": "MW",
        "regionName": "Malawi"
      },
      {
        "regionName": "Malaysia",
        "callingCode": "+60",
        "regionCode": "MY",
        "regionFlag": "ðŸ‡²ðŸ‡¾"
      },
      {
        "regionName": "Maldive",
        "callingCode": "+960",
        "regionCode": "MV",
        "regionFlag": "ðŸ‡²ðŸ‡»"
      },
      {
        "callingCode": "+223",
        "regionCode": "ML",
        "regionFlag": "ðŸ‡²ðŸ‡±",
        "regionName": "Mali"
      },
      {
        "regionFlag": "ðŸ‡²ðŸ‡¹",
        "regionName": "Malta",
        "regionCode": "MT",
        "callingCode": "+356"
      },
      {
        "regionCode": "MA",
        "regionName": "Marocco",
        "regionFlag": "ðŸ‡²ðŸ‡¦",
        "callingCode": "+212"
      },
      {
        "regionFlag": "ðŸ‡²ðŸ‡¶",
        "regionName": "Martinica",
        "callingCode": "+596",
        "regionCode": "MQ"
      },
      {
        "regionFlag": "ðŸ‡²ðŸ‡·",
        "callingCode": "+222",
        "regionCode": "MR",
        "regionName": "Mauritania"
      },
      {
        "regionName": "Mauritius",
        "regionFlag": "ðŸ‡²ðŸ‡º",
        "callingCode": "+230",
        "regionCode": "MU"
      },
      {
        "callingCode": "+262",
        "regionName": "Mayotte",
        "regionCode": "YT",
        "regionFlag": "ðŸ‡¾ðŸ‡¹"
      },
      {
        "regionFlag": "ðŸ‡²ðŸ‡½",
        "regionCode": "MX",
        "regionName": "Messico",
        "callingCode": "+52"
      },
      {
        "regionFlag": "ðŸ‡«ðŸ‡²",
        "regionName": "Micronesia",
        "callingCode": "+691",
        "regionCode": "FM"
      },
      {
        "regionFlag": "ðŸ‡²ðŸ‡©",
        "regionCode": "MD",
        "regionName": "Moldavia",
        "callingCode": "+373"
      },
      {
        "regionFlag": "ðŸ‡²ðŸ‡¨",
        "callingCode": "+377",
        "regionName": "Monaco",
        "regionCode": "MC"
      },
      {
        "regionFlag": "ðŸ‡²ðŸ‡³",
        "callingCode": "+976",
        "regionName": "Mongolia",
        "regionCode": "MN"
      },
      {
        "regionCode": "ME",
        "regionName": "Montenegro",
        "regionFlag": "ðŸ‡²ðŸ‡ª",
        "callingCode": "+382"
      },
      {
        "regionName": "Montserrat",
        "regionCode": "MS",
        "regionFlag": "ðŸ‡²ðŸ‡¸",
        "callingCode": "+1-664"
      },
      {
        "regionCode": "MZ",
        "regionFlag": "ðŸ‡²ðŸ‡¿",
        "callingCode": "+258",
        "regionName": "Mozambico"
      },
      {
        "regionCode": "MM",
        "regionName": "Myanmar (Birmania)",
        "callingCode": "+95",
        "regionFlag": "ðŸ‡²ðŸ‡²"
      }
    ]
  },
  {
    "index": "N",
    "items": [
      {
        "regionFlag": "ðŸ‡³ðŸ‡¦",
        "regionName": "Namibia",
        "callingCode": "+264",
        "regionCode": "NA"
      },
      {
        "regionFlag": "ðŸ‡³ðŸ‡·",
        "regionCode": "NR",
        "regionName": "Nauru",
        "callingCode": "+674"
      },
      {
        "regionFlag": "ðŸ‡³ðŸ‡µ",
        "regionName": "Nepal",
        "callingCode": "+977",
        "regionCode": "NP"
      },
      {
        "regionName": "Nicaragua",
        "callingCode": "+505",
        "regionCode": "NI",
        "regionFlag": "ðŸ‡³ðŸ‡®"
      },
      {
        "callingCode": "+227",
        "regionName": "Niger",
        "regionFlag": "ðŸ‡³ðŸ‡ª",
        "regionCode": "NE"
      },
      {
        "regionFlag": "ðŸ‡³ðŸ‡¬",
        "regionName": "Nigeria",
        "regionCode": "NG",
        "callingCode": "+234"
      },
      {
        "regionCode": "NU",
        "regionName": "Niue",
        "regionFlag": "ðŸ‡³ðŸ‡º",
        "callingCode": "+683"
      },
      {
        "callingCode": "+47",
        "regionCode": "NO",
        "regionFlag": "ðŸ‡³ðŸ‡´",
        "regionName": "Norvegia"
      },
      {
        "regionName": "Nuova Caledonia",
        "regionCode": "NC",
        "callingCode": "+687",
        "regionFlag": "ðŸ‡³ðŸ‡¨"
      },
      {
        "regionCode": "NZ",
        "regionFlag": "ðŸ‡³ðŸ‡¿",
        "regionName": "Nuova Zelanda",
        "callingCode": "+64"
      }
    ]
  },
  {
    "index": "O",
    "items": [
      {
        "callingCode": "+968",
        "regionFlag": "ðŸ‡´ðŸ‡²",
        "regionName": "Oman",
        "regionCode": "OM"
      }
    ]
  },
  {
    "index": "P",
    "items": [
      {
        "regionFlag": "ðŸ‡³ðŸ‡±",
        "regionCode": "NL",
        "regionName": "Paesi Bassi",
        "callingCode": "+31"
      },
      {
        "callingCode": "+92",
        "regionCode": "PK",
        "regionFlag": "ðŸ‡µðŸ‡°",
        "regionName": "Pakistan"
      },
      {
        "regionName": "Palau",
        "callingCode": "+680",
        "regionFlag": "ðŸ‡µðŸ‡¼",
        "regionCode": "PW"
      },
      {
        "callingCode": "+507",
        "regionName": "PanamÃ¡",
        "regionFlag": "ðŸ‡µðŸ‡¦",
        "regionCode": "PA"
      },
      {
        "regionCode": "PG",
        "regionFlag": "ðŸ‡µðŸ‡¬",
        "regionName": "Papua Nuova Guinea",
        "callingCode": "+675"
      },
      {
        "regionName": "Paraguay",
        "regionFlag": "ðŸ‡µðŸ‡¾",
        "callingCode": "+595",
        "regionCode": "PY"
      },
      {
        "regionCode": "PE",
        "regionName": "PerÃ¹",
        "callingCode": "+51",
        "regionFlag": "ðŸ‡µðŸ‡ª"
      },
      {
        "callingCode": "+689",
        "regionFlag": "ðŸ‡µðŸ‡«",
        "regionName": "Polinesia francese",
        "regionCode": "PF"
      },
      {
        "regionCode": "PL",
        "regionFlag": "ðŸ‡µðŸ‡±",
        "callingCode": "+48",
        "regionName": "Polonia"
      },
      {
        "regionCode": "PT",
        "regionFlag": "ðŸ‡µðŸ‡¹",
        "callingCode": "+351",
        "regionName": "Portogallo"
      },
      {
        "regionName": "Portorico",
        "regionCode": "PR",
        "regionFlag": "ðŸ‡µðŸ‡·",
        "callingCode": "+1-939"
      }
    ]
  },
  {
    "index": "Q",
    "items": [
      {
        "regionCode": "QA",
        "regionName": "Qatar",
        "regionFlag": "ðŸ‡¶ðŸ‡¦",
        "callingCode": "+974"
      }
    ]
  },
  {
    "index": "R",
    "items": [
      {
        "regionCode": "HK",
        "regionName": "RAS di Hong Kong",
        "regionFlag": "ðŸ‡­ðŸ‡°",
        "callingCode": "+852"
      },
      {
        "regionFlag": "ðŸ‡²ðŸ‡´",
        "regionCode": "MO",
        "callingCode": "+853",
        "regionName": "RAS di Macao"
      },
      {
        "callingCode": "+44",
        "regionFlag": "ðŸ‡¬ðŸ‡§",
        "regionCode": "GB",
        "regionName": "Regno Unito"
      },
      {
        "callingCode": "+236",
        "regionCode": "CF",
        "regionFlag": "ðŸ‡¨ðŸ‡«",
        "regionName": "Repubblica Centrafricana"
      },
      {
        "regionFlag": "ðŸ‡©ðŸ‡´",
        "regionCode": "DO",
        "regionName": "Repubblica Dominicana",
        "callingCode": "+1-849"
      },
      {
        "regionFlag": "ðŸ‡·ðŸ‡ª",
        "regionName": "Riunione",
        "regionCode": "RE",
        "callingCode": "+262"
      },
      {
        "callingCode": "+40",
        "regionFlag": "ðŸ‡·ðŸ‡´",
        "regionName": "Romania",
        "regionCode": "RO"
      },
      {
        "regionFlag": "ðŸ‡·ðŸ‡¼",
        "regionName": "Ruanda",
        "callingCode": "+250",
        "regionCode": "RW"
      },
      {
        "regionFlag": "ðŸ‡·ðŸ‡º",
        "regionName": "Russia",
        "callingCode": "+7",
        "regionCode": "RU"
      }
    ]
  },
  {
    "index": "S",
    "items": [
      {
        "regionName": "Sahara occidentale",
        "regionFlag": "ðŸ‡ªðŸ‡­",
        "regionCode": "EH",
        "callingCode": "+212"
      },
      {
        "regionFlag": "ðŸ‡°ðŸ‡³",
        "callingCode": "+1-869",
        "regionCode": "KN",
        "regionName": "Saint Kitts e Nevis"
      },
      {
        "regionFlag": "ðŸ‡±ðŸ‡¨",
        "regionName": "Saint Lucia",
        "callingCode": "+1-758",
        "regionCode": "LC"
      },
      {
        "regionCode": "MF",
        "regionFlag": "ðŸ‡²ðŸ‡«",
        "regionName": "Saint Martin",
        "callingCode": "+590"
      },
      {
        "regionCode": "VC",
        "regionName": "Saint Vincent e Grenadine",
        "callingCode": "+1-784",
        "regionFlag": "ðŸ‡»ðŸ‡¨"
      },
      {
        "callingCode": "+590",
        "regionName": "Saint-BarthÃ©lemy",
        "regionCode": "BL",
        "regionFlag": "ðŸ‡§ðŸ‡±"
      },
      {
        "regionName": "Saint-Pierre e Miquelon",
        "regionFlag": "ðŸ‡µðŸ‡²",
        "regionCode": "PM",
        "callingCode": "+508"
      },
      {
        "regionCode": "WS",
        "regionName": "Samoa",
        "regionFlag": "ðŸ‡¼ðŸ‡¸",
        "callingCode": "+685"
      },
      {
        "callingCode": "+1-684",
        "regionName": "Samoa americane",
        "regionFlag": "ðŸ‡¦ðŸ‡¸",
        "regionCode": "AS"
      },
      {
        "regionCode": "SM",
        "regionFlag": "ðŸ‡¸ðŸ‡²",
        "callingCode": "+378",
        "regionName": "San Marino"
      },
      {
        "regionFlag": "ðŸ‡¸ðŸ‡­",
        "callingCode": "+290",
        "regionCode": "SH",
        "regionName": "Santâ€™Elena"
      },
      {
        "callingCode": "+221",
        "regionCode": "SN",
        "regionName": "Senegal",
        "regionFlag": "ðŸ‡¸ðŸ‡³"
      },
      {
        "regionName": "Serbia",
        "regionCode": "RS",
        "regionFlag": "ðŸ‡·ðŸ‡¸",
        "callingCode": "+381"
      },
      {
        "regionCode": "SC",
        "regionFlag": "ðŸ‡¸ðŸ‡¨",
        "callingCode": "+248",
        "regionName": "Seychelles"
      },
      {
        "callingCode": "+232",
        "regionFlag": "ðŸ‡¸ðŸ‡±",
        "regionCode": "SL",
        "regionName": "Sierra Leone"
      },
      {
        "callingCode": "+65",
        "regionFlag": "ðŸ‡¸ðŸ‡¬",
        "regionName": "Singapore",
        "regionCode": "SG"
      },
      {
        "regionFlag": "ðŸ‡¸ðŸ‡½",
        "regionName": "Sint Maarten",
        "callingCode": "+1-721",
        "regionCode": "SX"
      },
      {
        "regionCode": "SY",
        "regionFlag": "ðŸ‡¸ðŸ‡¾",
        "regionName": "Siria",
        "callingCode": "+963"
      },
      {
        "regionCode": "SK",
        "regionName": "Slovacchia",
        "callingCode": "+421",
        "regionFlag": "ðŸ‡¸ðŸ‡°"
      },
      {
        "regionName": "Slovenia",
        "regionFlag": "ðŸ‡¸ðŸ‡®",
        "regionCode": "SI",
        "callingCode": "+386"
      },
      {
        "regionCode": "SO",
        "regionName": "Somalia",
        "regionFlag": "ðŸ‡¸ðŸ‡´",
        "callingCode": "+252"
      },
      {
        "regionFlag": "ðŸ‡ªðŸ‡¸",
        "callingCode": "+34",
        "regionCode": "ES",
        "regionName": "Spagna"
      },
      {
        "regionFlag": "ðŸ‡±ðŸ‡°",
        "callingCode": "+94",
        "regionCode": "LK",
        "regionName": "Sri Lanka"
      },
      {
        "callingCode": "+1",
        "regionName": "Stati Uniti",
        "regionFlag": "ðŸ‡ºðŸ‡¸",
        "regionCode": "US"
      },
      {
        "regionFlag": "ðŸ‡¸ðŸ‡¸",
        "callingCode": "+211",
        "regionCode": "SS",
        "regionName": "Sud Sudan"
      },
      {
        "regionCode": "ZA",
        "regionFlag": "ðŸ‡¿ðŸ‡¦",
        "regionName": "Sudafrica",
        "callingCode": "+27"
      },
      {
        "regionCode": "SD",
        "regionName": "Sudan",
        "regionFlag": "ðŸ‡¸ðŸ‡©",
        "callingCode": "+249"
      },
      {
        "regionFlag": "ðŸ‡¸ðŸ‡·",
        "regionName": "Suriname",
        "callingCode": "+597",
        "regionCode": "SR"
      },
      {
        "callingCode": "+47",
        "regionName": "Svalbard e Jan Mayen",
        "regionCode": "SJ",
        "regionFlag": "ðŸ‡¸ðŸ‡¯"
      },
      {
        "regionName": "Svezia",
        "regionFlag": "ðŸ‡¸ðŸ‡ª",
        "callingCode": "+46",
        "regionCode": "SE"
      },
      {
        "callingCode": "+41",
        "regionName": "Svizzera",
        "regionFlag": "ðŸ‡¨ðŸ‡­",
        "regionCode": "CH"
      },
      {
        "regionCode": "SZ",
        "regionName": "Swaziland",
        "regionFlag": "ðŸ‡¸ðŸ‡¿",
        "callingCode": "+268"
      },
      {
        "regionName": "SÃ£o TomÃ© e PrÃ­ncipe",
        "callingCode": "+239",
        "regionCode": "ST",
        "regionFlag": "ðŸ‡¸ðŸ‡¹"
      }
    ]
  },
  {
    "index": "T",
    "items": [
      {
        "regionName": "Tagikistan",
        "regionCode": "TJ",
        "callingCode": "+992",
        "regionFlag": "ðŸ‡¹ðŸ‡¯"
      },
      {
        "regionCode": "TW",
        "regionName": "Taiwan",
        "regionFlag": "ðŸ‡¨ðŸ‡³",
        "callingCode": "+886"
      },
      {
        "regionName": "Tanzania",
        "callingCode": "+255",
        "regionCode": "TZ",
        "regionFlag": "ðŸ‡¹ðŸ‡¿"
      },
      {
        "callingCode": "+970",
        "regionCode": "PS",
        "regionFlag": "ðŸ‡µðŸ‡¸",
        "regionName": "Territori palestinesi"
      },
      {
        "regionFlag": "ðŸ‡®ðŸ‡´",
        "regionCode": "IO",
        "callingCode": "+246",
        "regionName": "Territorio britannico dellâ€™Oceano Indiano"
      },
      {
        "callingCode": "+66",
        "regionCode": "TH",
        "regionFlag": "ðŸ‡¹ðŸ‡­",
        "regionName": "Thailandia"
      },
      {
        "regionCode": "TL",
        "regionName": "Timor Est",
        "callingCode": "+670",
        "regionFlag": "ðŸ‡¹ðŸ‡±"
      },
      {
        "regionCode": "TG",
        "regionFlag": "ðŸ‡¹ðŸ‡¬",
        "callingCode": "+228",
        "regionName": "Togo"
      },
      {
        "regionFlag": "ðŸ‡¹ðŸ‡°",
        "regionName": "Tokelau",
        "regionCode": "TK",
        "callingCode": "+690"
      },
      {
        "callingCode": "+676",
        "regionFlag": "ðŸ‡¹ðŸ‡´",
        "regionCode": "TO",
        "regionName": "Tonga"
      },
      {
        "callingCode": "+1-868",
        "regionCode": "TT",
        "regionName": "Trinidad e Tobago",
        "regionFlag": "ðŸ‡¹ðŸ‡¹"
      },
      {
        "regionFlag": "ðŸ‡¹ðŸ‡¦",
        "regionName": "Tristan da Cunha",
        "regionCode": "TA",
        "callingCode": "+290"
      },
      {
        "regionFlag": "ðŸ‡¹ðŸ‡³",
        "callingCode": "+216",
        "regionCode": "TN",
        "regionName": "Tunisia"
      },
      {
        "regionName": "Turchia",
        "regionCode": "TR",
        "regionFlag": "ðŸ‡¹ðŸ‡·",
        "callingCode": "+90"
      },
      {
        "regionFlag": "ðŸ‡¹ðŸ‡²",
        "regionName": "Turkmenistan",
        "callingCode": "+993",
        "regionCode": "TM"
      },
      {
        "regionName": "Tuvalu",
        "regionCode": "TV",
        "callingCode": "+688",
        "regionFlag": "ðŸ‡¹ðŸ‡»"
      }
    ]
  },
  {
    "index": "U",
    "items": [
      {
        "regionName": "Ucraina",
        "callingCode": "+380",
        "regionCode": "UA",
        "regionFlag": "ðŸ‡ºðŸ‡¦"
      },
      {
        "regionFlag": "ðŸ‡ºðŸ‡¬",
        "regionCode": "UG",
        "callingCode": "+256",
        "regionName": "Uganda"
      },
      {
        "regionCode": "HU",
        "regionName": "Ungheria",
        "regionFlag": "ðŸ‡­ðŸ‡º",
        "callingCode": "+36"
      },
      {
        "regionFlag": "ðŸ‡ºðŸ‡¾",
        "regionCode": "UY",
        "regionName": "Uruguay",
        "callingCode": "+598"
      },
      {
        "regionName": "Uzbekistan",
        "callingCode": "+998",
        "regionFlag": "ðŸ‡ºðŸ‡¿",
        "regionCode": "UZ"
      }
    ]
  },
  {
    "index": "V",
    "items": [
      {
        "callingCode": "+678",
        "regionName": "Vanuatu",
        "regionFlag": "ðŸ‡»ðŸ‡º",
        "regionCode": "VU"
      },
      {
        "regionFlag": "ðŸ‡»ðŸ‡ª",
        "regionCode": "VE",
        "regionName": "Venezuela",
        "callingCode": "+58"
      },
      {
        "callingCode": "+84",
        "regionName": "Vietnam",
        "regionCode": "VN",
        "regionFlag": "ðŸ‡»ðŸ‡³"
      }
    ]
  },
  {
    "index": "W",
    "items": [
      {
        "callingCode": "+681",
        "regionFlag": "ðŸ‡¼ðŸ‡«",
        "regionCode": "WF",
        "regionName": "Wallis e Futuna"
      }
    ]
  },
  {
    "index": "Y",
    "items": [
      {
        "regionName": "Yemen",
        "regionCode": "YE",
        "callingCode": "+967",
        "regionFlag": "ðŸ‡¾ðŸ‡ª"
      }
    ]
  },
  {
    "index": "Z",
    "items": [
      {
        "callingCode": "+260",
        "regionFlag": "ðŸ‡¿ðŸ‡²",
        "regionCode": "ZM",
        "regionName": "Zambia"
      },
      {
        "regionName": "Zimbabwe",
        "regionCode": "ZW",
        "regionFlag": "ðŸ‡¿ðŸ‡¼",
        "callingCode": "+263"
      }
    ]
  }
]