[
  {
    "index": "A",
    "items": [
      {
        "regionFlag": "ðŸ‡¦ðŸ‡«",
        "regionCode": "AF",
        "callingCode": "+93",
        "regionName": "Afghanistan",
        "index": "A",
        "syllables": "Afghanistan"
      },
      {
        "regionName": "Albanien",
        "regionCode": "AL",
        "callingCode": "+355",
        "regionFlag": "ðŸ‡¦ðŸ‡±",
        "index": "A",
        "syllables": "Albanien"
      },
      {
        "regionCode": "DZ",
        "regionFlag": "ðŸ‡©ðŸ‡¿",
        "callingCode": "+213",
        "regionName": "Algerien",
        "index": "A",
        "syllables": "Algerien"
      },
      {
        "callingCode": "+1-684",
        "regionName": "Amerikanisch-Samoa",
        "regionFlag": "ðŸ‡¦ðŸ‡¸",
        "regionCode": "AS",
        "index": "A",
        "syllables": "Amerikanisch-Samoa"
      },
      {
        "regionCode": "VI",
        "regionFlag": "ðŸ‡»ðŸ‡®",
        "regionName": "Amerikanische Jungferninseln",
        "callingCode": "+1-340",
        "index": "A",
        "syllables": "Amerikanische Jungferninseln"
      },
      {
        "callingCode": "+1",
        "regionFlag": "ðŸ‡ºðŸ‡¸",
        "regionCode": "UM",
        "regionName": "Amerikanische Ãœberseeinseln",
        "index": "A",
        "syllables": "Amerikanische Ãœberseeinseln"
      },
      {
        "regionCode": "AD",
        "regionFlag": "ðŸ‡¦ðŸ‡©",
        "regionName": "Andorra",
        "callingCode": "+376",
        "index": "A",
        "syllables": "Andorra"
      },
      {
        "regionName": "Angola",
        "regionCode": "AO",
        "callingCode": "+244",
        "regionFlag": "ðŸ‡¦ðŸ‡´",
        "index": "A",
        "syllables": "Angola"
      },
      {
        "callingCode": "+1-264",
        "regionCode": "AI",
        "regionFlag": "ðŸ‡¦ðŸ‡®",
        "regionName": "Anguilla",
        "index": "A",
        "syllables": "Anguilla"
      },
      {
        "regionFlag": "ðŸ‡¦ðŸ‡¶",
        "regionName": "Antarktis",
        "callingCode": "+672",
        "regionCode": "AQ",
        "index": "A",
        "syllables": "Antarktis"
      },
      {
        "regionCode": "AG",
        "regionName": "Antigua und Barbuda",
        "callingCode": "+1-268",
        "regionFlag": "ðŸ‡¦ðŸ‡¬",
        "index": "A",
        "syllables": "Antigua und Barbuda"
      },
      {
        "regionCode": "AR",
        "regionName": "Argentinien",
        "regionFlag": "ðŸ‡¦ðŸ‡·",
        "callingCode": "+54",
        "index": "A",
        "syllables": "Argentinien"
      },
      {
        "regionCode": "AM",
        "regionFlag": "ðŸ‡¦ðŸ‡²",
        "regionName": "Armenien",
        "callingCode": "+374",
        "index": "A",
        "syllables": "Armenien"
      },
      {
        "callingCode": "+297",
        "regionName": "Aruba",
        "regionCode": "AW",
        "regionFlag": "ðŸ‡¦ðŸ‡¼",
        "index": "A",
        "syllables": "Aruba"
      },
      {
        "regionName": "Ascension Island",
        "callingCode": "+247",
        "regionCode": "AC",
        "regionFlag": "ðŸ‡¦ðŸ‡¨",
        "index": "A",
        "syllables": "Ascension Island"
      },
      {
        "callingCode": "+994",
        "regionFlag": "ðŸ‡¦ðŸ‡¿",
        "regionName": "Aserbaidschan",
        "regionCode": "AZ",
        "index": "A",
        "syllables": "Aserbaidschan"
      },
      {
        "regionCode": "AU",
        "regionName": "Australien",
        "callingCode": "+61",
        "regionFlag": "ðŸ‡¦ðŸ‡º",
        "index": "A",
        "syllables": "Australien"
      },
      {
        "regionFlag": "ðŸ‡ªðŸ‡¬",
        "regionCode": "EG",
        "regionName": "Ã„gypten",
        "callingCode": "+20",
        "index": "A",
        "syllables": "Ã„gypten"
      },
      {
        "regionCode": "GQ",
        "regionFlag": "ðŸ‡¬ðŸ‡¶",
        "callingCode": "+240",
        "regionName": "Ã„quatorialguinea",
        "index": "A",
        "syllables": "Ã„quatorialguinea"
      },
      {
        "callingCode": "+251",
        "regionFlag": "ðŸ‡ªðŸ‡¹",
        "regionCode": "ET",
        "regionName": "Ã„thiopien",
        "index": "A",
        "syllables": "Ã„thiopien"
      },
      {
        "regionName": "Ã…landinseln",
        "regionFlag": "ðŸ‡¦ðŸ‡½",
        "regionCode": "AX",
        "callingCode": "+358",
        "index": "A",
        "syllables": "Ã…landinseln"
      }
    ]
  },
  {
    "index": "B",
    "items": [
      {
        "regionFlag": "ðŸ‡§ðŸ‡¸",
        "regionCode": "BS",
        "regionName": "Bahamas",
        "callingCode": "+1-242",
        "index": "B",
        "syllables": "Bahamas"
      },
      {
        "regionName": "Bahrain",
        "regionFlag": "ðŸ‡§ðŸ‡­",
        "callingCode": "+973",
        "regionCode": "BH",
        "index": "B",
        "syllables": "Bahrain"
      },
      {
        "callingCode": "+880",
        "regionCode": "BD",
        "regionFlag": "ðŸ‡§ðŸ‡©",
        "regionName": "Bangladesch",
        "index": "B",
        "syllables": "Bangladesch"
      },
      {
        "regionCode": "BB",
        "regionFlag": "ðŸ‡§ðŸ‡§",
        "regionName": "Barbados",
        "callingCode": "+1-246",
        "index": "B",
        "syllables": "Barbados"
      },
      {
        "regionCode": "BY",
        "regionFlag": "ðŸ‡§ðŸ‡¾",
        "regionName": "Belarus",
        "callingCode": "+375",
        "index": "B",
        "syllables": "Belarus"
      },
      {
        "callingCode": "+32",
        "regionCode": "BE",
        "regionName": "Belgien",
        "regionFlag": "ðŸ‡§ðŸ‡ª",
        "index": "B",
        "syllables": "Belgien"
      },
      {
        "regionCode": "BZ",
        "regionFlag": "ðŸ‡§ðŸ‡¿",
        "callingCode": "+501",
        "regionName": "Belize",
        "index": "B",
        "syllables": "Belize"
      },
      {
        "regionName": "Benin",
        "regionFlag": "ðŸ‡§ðŸ‡¯",
        "regionCode": "BJ",
        "callingCode": "+229",
        "index": "B",
        "syllables": "Benin"
      },
      {
        "regionName": "Bermuda",
        "callingCode": "+1-441",
        "regionCode": "BM",
        "regionFlag": "ðŸ‡§ðŸ‡²",
        "index": "B",
        "syllables": "Bermuda"
      },
      {
        "regionCode": "BT",
        "regionName": "Bhutan",
        "callingCode": "+975",
        "regionFlag": "ðŸ‡§ðŸ‡¹",
        "index": "B",
        "syllables": "Bhutan"
      },
      {
        "regionName": "Bolivien",
        "callingCode": "+591",
        "regionCode": "BO",
        "regionFlag": "ðŸ‡§ðŸ‡´",
        "index": "B",
        "syllables": "Bolivien"
      },
      {
        "regionName": "Bonaire, Sint Eustatius und Saba",
        "callingCode": "+599",
        "regionFlag": "ðŸ‡§ðŸ‡¶",
        "regionCode": "BQ",
        "index": "B",
        "syllables": "Bonaire, Sint Eustatius und Saba"
      },
      {
        "regionCode": "BA",
        "callingCode": "+387",
        "regionFlag": "ðŸ‡§ðŸ‡¦",
        "regionName": "Bosnien und Herzegowina",
        "index": "B",
        "syllables": "Bosnien und Herzegowina"
      },
      {
        "regionFlag": "ðŸ‡§ðŸ‡¼",
        "regionName": "Botsuana",
        "regionCode": "BW",
        "callingCode": "+267",
        "index": "B",
        "syllables": "Botsuana"
      },
      {
        "regionName": "Brasilien",
        "regionCode": "BR",
        "callingCode": "+55",
        "regionFlag": "ðŸ‡§ðŸ‡·",
        "index": "B",
        "syllables": "Brasilien"
      },
      {
        "callingCode": "+1-284",
        "regionName": "Britische Jungferninseln",
        "regionCode": "VG",
        "regionFlag": "ðŸ‡»ðŸ‡¬",
        "index": "B",
        "syllables": "Britische Jungferninseln"
      },
      {
        "regionFlag": "ðŸ‡®ðŸ‡´",
        "regionCode": "IO",
        "callingCode": "+246",
        "regionName": "Britisches Territorium im Indischen Ozean",
        "index": "B",
        "syllables": "Britisches Territorium im Indischen Ozean"
      },
      {
        "regionName": "Brunei Darussalam",
        "regionCode": "BN",
        "regionFlag": "ðŸ‡§ðŸ‡³",
        "callingCode": "+673",
        "index": "B",
        "syllables": "Brunei Darussalam"
      },
      {
        "regionName": "Bulgarien",
        "callingCode": "+359",
        "regionCode": "BG",
        "regionFlag": "ðŸ‡§ðŸ‡¬",
        "index": "B",
        "syllables": "Bulgarien"
      },
      {
        "callingCode": "+226",
        "regionFlag": "ðŸ‡§ðŸ‡«",
        "regionName": "Burkina Faso",
        "regionCode": "BF",
        "index": "B",
        "syllables": "Burkina Faso"
      },
      {
        "regionFlag": "ðŸ‡§ðŸ‡®",
        "regionName": "Burundi",
        "regionCode": "BI",
        "callingCode": "+257",
        "index": "B",
        "syllables": "Burundi"
      }
    ]
  },
  {
    "index": "C",
    "items": [
      {
        "regionFlag": "ðŸ‡¨ðŸ‡»",
        "regionName": "Cabo Verde",
        "callingCode": "+238",
        "regionCode": "CV",
        "index": "C",
        "syllables": "Cabo Verde"
      },
      {
        "regionName": "Chile",
        "regionCode": "CL",
        "callingCode": "+56",
        "regionFlag": "ðŸ‡¨ðŸ‡±",
        "index": "C",
        "syllables": "Chile"
      },
      {
        "regionFlag": "ðŸ‡¨ðŸ‡³",
        "callingCode": "+86",
        "regionName": "China",
        "regionCode": "CN",
        "index": "C",
        "syllables": "China"
      },
      {
        "regionFlag": "ðŸ‡¨ðŸ‡°",
        "regionCode": "CK",
        "regionName": "Cookinseln",
        "callingCode": "+682",
        "index": "C",
        "syllables": "Cookinseln"
      },
      {
        "regionFlag": "ðŸ‡¨ðŸ‡·",
        "callingCode": "+506",
        "regionName": "Costa Rica",
        "regionCode": "CR",
        "index": "C",
        "syllables": "Costa Rica"
      },
      {
        "regionFlag": "ðŸ‡¨ðŸ‡¼",
        "regionCode": "CW",
        "regionName": "CuraÃ§ao",
        "callingCode": "+599 9",
        "index": "C",
        "syllables": "CuraÃ§ao"
      },
      {
        "callingCode": "+225",
        "regionFlag": "ðŸ‡¨ðŸ‡®",
        "regionCode": "CI",
        "regionName": "CÃ´te dâ€™Ivoire",
        "index": "C",
        "syllables": "CÃ´te dâ€™Ivoire"
      }
    ]
  },
  {
    "index": "D",
    "items": [
      {
        "regionName": "Deutschland",
        "regionFlag": "ðŸ‡©ðŸ‡ª",
        "regionCode": "DE",
        "callingCode": "+49",
        "index": "D",
        "syllables": "Deutschland"
      },
      {
        "callingCode": "+1-767",
        "regionFlag": "ðŸ‡©ðŸ‡²",
        "regionName": "Dominica",
        "regionCode": "DM",
        "index": "D",
        "syllables": "Dominica"
      },
      {
        "regionFlag": "ðŸ‡©ðŸ‡´",
        "regionCode": "DO",
        "regionName": "Dominikanische Republik",
        "callingCode": "+1-849",
        "index": "D",
        "syllables": "Dominikanische Republik"
      },
      {
        "regionCode": "DJ",
        "callingCode": "+253",
        "regionName": "Dschibuti",
        "regionFlag": "ðŸ‡©ðŸ‡¯",
        "index": "D",
        "syllables": "Dschibuti"
      },
      {
        "regionFlag": "ðŸ‡©ðŸ‡°",
        "regionCode": "DK",
        "regionName": "DÃ¤nemark",
        "callingCode": "+45",
        "index": "D",
        "syllables": "DÃ¤nemark"
      }
    ]
  },
  {
    "index": "E",
    "items": [
      {
        "regionCode": "EC",
        "regionName": "Ecuador",
        "callingCode": "+593",
        "regionFlag": "ðŸ‡ªðŸ‡¨",
        "index": "E",
        "syllables": "Ecuador"
      },
      {
        "callingCode": "+503",
        "regionFlag": "ðŸ‡¸ðŸ‡»",
        "regionCode": "SV",
        "regionName": "El Salvador",
        "index": "E",
        "syllables": "El Salvador"
      },
      {
        "regionCode": "ER",
        "regionFlag": "ðŸ‡ªðŸ‡·",
        "callingCode": "+291",
        "regionName": "Eritrea",
        "index": "E",
        "syllables": "Eritrea"
      },
      {
        "callingCode": "+372",
        "regionName": "Estland",
        "regionCode": "EE",
        "regionFlag": "ðŸ‡ªðŸ‡ª",
        "index": "E",
        "syllables": "Estland"
      },
      {
        "regionCode": "SZ",
        "regionName": "Eswatini",
        "regionFlag": "ðŸ‡¸ðŸ‡¿",
        "callingCode": "+268",
        "index": "E",
        "syllables": "Eswatini"
      }
    ]
  },
  {
    "index": "F",
    "items": [
      {
        "regionName": "Falklandinseln",
        "regionCode": "FK",
        "regionFlag": "ðŸ‡«ðŸ‡°",
        "callingCode": "+500",
        "index": "F",
        "syllables": "Falklandinseln"
      },
      {
        "regionCode": "FJ",
        "regionFlag": "ðŸ‡«ðŸ‡¯",
        "regionName": "Fidschi",
        "callingCode": "+679",
        "index": "F",
        "syllables": "Fidschi"
      },
      {
        "regionFlag": "ðŸ‡«ðŸ‡®",
        "regionCode": "FI",
        "callingCode": "+358",
        "regionName": "Finnland",
        "index": "F",
        "syllables": "Finnland"
      },
      {
        "regionCode": "FR",
        "regionFlag": "ðŸ‡«ðŸ‡·",
        "regionName": "Frankreich",
        "callingCode": "+33",
        "index": "F",
        "syllables": "Frankreich"
      },
      {
        "regionName": "FranzÃ¶sisch-Guayana",
        "regionFlag": "ðŸ‡¬ðŸ‡«",
        "callingCode": "+594",
        "regionCode": "GF",
        "index": "F",
        "syllables": "FranzÃ¶sisch-Guayana"
      },
      {
        "callingCode": "+689",
        "regionFlag": "ðŸ‡µðŸ‡«",
        "regionName": "FranzÃ¶sisch-Polynesien",
        "regionCode": "PF",
        "index": "F",
        "syllables": "FranzÃ¶sisch-Polynesien"
      },
      {
        "regionCode": "FO",
        "regionName": "FÃ¤rÃ¶er",
        "regionFlag": "ðŸ‡«ðŸ‡´",
        "callingCode": "+298",
        "index": "F",
        "syllables": "FÃ¤rÃ¶er"
      }
    ]
  },
  {
    "index": "G",
    "items": [
      {
        "regionFlag": "ðŸ‡¬ðŸ‡¦",
        "callingCode": "+241",
        "regionName": "Gabun",
        "regionCode": "GA",
        "index": "G",
        "syllables": "Gabun"
      },
      {
        "regionCode": "GM",
        "callingCode": "+220",
        "regionFlag": "ðŸ‡¬ðŸ‡²",
        "regionName": "Gambia",
        "index": "G",
        "syllables": "Gambia"
      },
      {
        "regionCode": "GE",
        "regionFlag": "ðŸ‡¬ðŸ‡ª",
        "callingCode": "+995",
        "regionName": "Georgien",
        "index": "G",
        "syllables": "Georgien"
      },
      {
        "callingCode": "+233",
        "regionFlag": "ðŸ‡¬ðŸ‡­",
        "regionCode": "GH",
        "regionName": "Ghana",
        "index": "G",
        "syllables": "Ghana"
      },
      {
        "regionName": "Gibraltar",
        "regionCode": "GI",
        "regionFlag": "ðŸ‡¬ðŸ‡®",
        "callingCode": "+350",
        "index": "G",
        "syllables": "Gibraltar"
      },
      {
        "regionCode": "GD",
        "regionName": "Grenada",
        "callingCode": "+1-473",
        "regionFlag": "ðŸ‡¬ðŸ‡©",
        "index": "G",
        "syllables": "Grenada"
      },
      {
        "callingCode": "+30",
        "regionCode": "GR",
        "regionFlag": "ðŸ‡¬ðŸ‡·",
        "regionName": "Griechenland",
        "index": "G",
        "syllables": "Griechenland"
      },
      {
        "regionFlag": "ðŸ‡¬ðŸ‡±",
        "regionCode": "GL",
        "regionName": "GrÃ¶nland",
        "callingCode": "+299",
        "index": "G",
        "syllables": "GrÃ¶nland"
      },
      {
        "callingCode": "+590",
        "regionCode": "GP",
        "regionFlag": "ðŸ‡¬ðŸ‡µ",
        "regionName": "Guadeloupe",
        "index": "G",
        "syllables": "Guadeloupe"
      },
      {
        "regionCode": "GU",
        "callingCode": "+1-671",
        "regionName": "Guam",
        "regionFlag": "ðŸ‡¬ðŸ‡º",
        "index": "G",
        "syllables": "Guam"
      },
      {
        "regionCode": "GT",
        "regionFlag": "ðŸ‡¬ðŸ‡¹",
        "callingCode": "+502",
        "regionName": "Guatemala",
        "index": "G",
        "syllables": "Guatemala"
      },
      {
        "callingCode": "+44",
        "regionName": "Guernsey",
        "regionCode": "GG",
        "regionFlag": "ðŸ‡¬ðŸ‡¬",
        "index": "G",
        "syllables": "Guernsey"
      },
      {
        "regionName": "Guinea",
        "regionFlag": "ðŸ‡¬ðŸ‡³",
        "regionCode": "GN",
        "callingCode": "+224",
        "index": "G",
        "syllables": "Guinea"
      },
      {
        "regionCode": "GW",
        "regionName": "Guinea-Bissau",
        "callingCode": "+245",
        "regionFlag": "ðŸ‡¬ðŸ‡¼",
        "index": "G",
        "syllables": "Guinea-Bissau"
      },
      {
        "callingCode": "+595",
        "regionName": "Guyana",
        "regionCode": "GY",
        "regionFlag": "ðŸ‡¬ðŸ‡¾",
        "index": "G",
        "syllables": "Guyana"
      }
    ]
  },
  {
    "index": "H",
    "items": [
      {
        "regionFlag": "ðŸ‡­ðŸ‡¹",
        "regionCode": "HT",
        "regionName": "Haiti",
        "callingCode": "+509",
        "index": "H",
        "syllables": "Haiti"
      },
      {
        "callingCode": "+672",
        "regionFlag": "ðŸ‡­ðŸ‡²",
        "regionName": "Heard und McDonaldinseln",
        "regionCode": "HM",
        "index": "H",
        "syllables": "Heard und McDonaldinseln"
      },
      {
        "regionCode": "HN",
        "callingCode": "+504",
        "regionName": "Honduras",
        "regionFlag": "ðŸ‡­ðŸ‡³",
        "index": "H",
        "syllables": "Honduras"
      }
    ]
  },
  {
    "index": "I",
    "items": [
      {
        "regionCode": "IN",
        "regionFlag": "ðŸ‡®ðŸ‡³",
        "regionName": "Indien",
        "callingCode": "+91",
        "index": "I",
        "syllables": "Indien"
      },
      {
        "regionCode": "ID",
        "regionFlag": "ðŸ‡®ðŸ‡©",
        "callingCode": "+62",
        "regionName": "Indonesien",
        "index": "I",
        "syllables": "Indonesien"
      },
      {
        "callingCode": "+964",
        "regionCode": "IQ",
        "regionFlag": "ðŸ‡®ðŸ‡¶",
        "regionName": "Irak",
        "index": "I",
        "syllables": "Irak"
      },
      {
        "regionFlag": "ðŸ‡®ðŸ‡·",
        "callingCode": "+98",
        "regionCode": "IR",
        "regionName": "Iran",
        "index": "I",
        "syllables": "Iran"
      },
      {
        "callingCode": "+353",
        "regionName": "Irland",
        "regionCode": "IE",
        "regionFlag": "ðŸ‡®ðŸ‡ª",
        "index": "I",
        "syllables": "Irland"
      },
      {
        "regionCode": "IS",
        "regionFlag": "ðŸ‡®ðŸ‡¸",
        "regionName": "Island",
        "callingCode": "+354",
        "index": "I",
        "syllables": "Island"
      },
      {
        "regionCode": "IM",
        "callingCode": "+44",
        "regionFlag": "ðŸ‡®ðŸ‡²",
        "regionName": "Isle of Man",
        "index": "I",
        "syllables": "Isle of Man"
      },
      {
        "regionName": "Israel",
        "regionFlag": "ðŸ‡®ðŸ‡±",
        "callingCode": "+972",
        "regionCode": "IL",
        "index": "I",
        "syllables": "Israel"
      },
      {
        "regionName": "Italien",
        "callingCode": "+39",
        "regionCode": "IT",
        "regionFlag": "ðŸ‡®ðŸ‡¹",
        "index": "I",
        "syllables": "Italien"
      }
    ]
  },
  {
    "index": "J",
    "items": [
      {
        "callingCode": "+1-876",
        "regionFlag": "ðŸ‡¯ðŸ‡²",
        "regionCode": "JM",
        "regionName": "Jamaika",
        "index": "J",
        "syllables": "Jamaika"
      },
      {
        "regionCode": "JP",
        "callingCode": "+81",
        "regionFlag": "ðŸ‡¯ðŸ‡µ",
        "regionName": "Japan",
        "index": "J",
        "syllables": "Japan"
      },
      {
        "regionName": "Jemen",
        "regionCode": "YE",
        "callingCode": "+967",
        "regionFlag": "ðŸ‡¾ðŸ‡ª",
        "index": "J",
        "syllables": "Jemen"
      },
      {
        "regionName": "Jersey",
        "regionCode": "JE",
        "regionFlag": "ðŸ‡¯ðŸ‡ª",
        "callingCode": "+44",
        "index": "J",
        "syllables": "Jersey"
      },
      {
        "regionName": "Jordanien",
        "regionFlag": "ðŸ‡¯ðŸ‡´",
        "regionCode": "JO",
        "callingCode": "+962",
        "index": "J",
        "syllables": "Jordanien"
      }
    ]
  },
  {
    "index": "K",
    "items": [
      {
        "callingCode": "+345",
        "regionFlag": "ðŸ‡°ðŸ‡¾",
        "regionCode": "KY",
        "regionName": "Kaimaninseln",
        "index": "K",
        "syllables": "Kaimaninseln"
      },
      {
        "regionFlag": "ðŸ‡°ðŸ‡­",
        "regionCode": "KH",
        "callingCode": "+855",
        "regionName": "Kambodscha",
        "index": "K",
        "syllables": "Kambodscha"
      },
      {
        "callingCode": "+237",
        "regionFlag": "ðŸ‡¨ðŸ‡²",
        "regionCode": "CM",
        "regionName": "Kamerun",
        "index": "K",
        "syllables": "Kamerun"
      },
      {
        "callingCode": "+1",
        "regionCode": "CA",
        "regionName": "Kanada",
        "regionFlag": "ðŸ‡¨ðŸ‡¦",
        "index": "K",
        "syllables": "Kanada"
      },
      {
        "regionFlag": "ðŸ‡°ðŸ‡¿",
        "callingCode": "+7",
        "regionName": "Kasachstan",
        "regionCode": "KZ",
        "index": "K",
        "syllables": "Kasachstan"
      },
      {
        "regionCode": "QA",
        "regionName": "Katar",
        "regionFlag": "ðŸ‡¶ðŸ‡¦",
        "callingCode": "+974",
        "index": "K",
        "syllables": "Katar"
      },
      {
        "callingCode": "+254",
        "regionFlag": "ðŸ‡°ðŸ‡ª",
        "regionName": "Kenia",
        "regionCode": "KE",
        "index": "K",
        "syllables": "Kenia"
      },
      {
        "callingCode": "+996",
        "regionFlag": "ðŸ‡°ðŸ‡¬",
        "regionName": "Kirgisistan",
        "regionCode": "KG",
        "index": "K",
        "syllables": "Kirgisistan"
      },
      {
        "regionCode": "KI",
        "regionName": "Kiribati",
        "callingCode": "+686",
        "regionFlag": "ðŸ‡°ðŸ‡®",
        "index": "K",
        "syllables": "Kiribati"
      },
      {
        "regionCode": "CC",
        "regionFlag": "ðŸ‡¨ðŸ‡¨",
        "regionName": "Kokosinseln",
        "callingCode": "+61",
        "index": "K",
        "syllables": "Kokosinseln"
      },
      {
        "regionName": "Kolumbien",
        "regionFlag": "ðŸ‡¨ðŸ‡´",
        "regionCode": "CO",
        "callingCode": "+57",
        "index": "K",
        "syllables": "Kolumbien"
      },
      {
        "regionName": "Komoren",
        "callingCode": "+269",
        "regionFlag": "ðŸ‡°ðŸ‡²",
        "regionCode": "KM",
        "index": "K",
        "syllables": "Komoren"
      },
      {
        "callingCode": "+242",
        "regionName": "Kongo-Brazzaville",
        "regionCode": "CG",
        "regionFlag": "ðŸ‡¨ðŸ‡¬",
        "index": "K",
        "syllables": "Kongo-Brazzaville"
      },
      {
        "callingCode": "+243",
        "regionCode": "CD",
        "regionFlag": "ðŸ‡¨ðŸ‡©",
        "regionName": "Kongo-Kinshasa",
        "index": "K",
        "syllables": "Kongo-Kinshasa"
      },
      {
        "regionFlag": "ðŸ‡½ðŸ‡°",
        "regionCode": "XK",
        "regionName": "Kosovo",
        "callingCode": "+383",
        "index": "K",
        "syllables": "Kosovo"
      },
      {
        "regionCode": "HR",
        "regionFlag": "ðŸ‡­ðŸ‡·",
        "regionName": "Kroatien",
        "callingCode": "+385",
        "index": "K",
        "syllables": "Kroatien"
      },
      {
        "regionName": "Kuba",
        "regionFlag": "ðŸ‡¨ðŸ‡º",
        "regionCode": "CU",
        "callingCode": "+53",
        "index": "K",
        "syllables": "Kuba"
      },
      {
        "callingCode": "+965",
        "regionCode": "KW",
        "regionFlag": "ðŸ‡°ðŸ‡¼",
        "regionName": "Kuwait",
        "index": "K",
        "syllables": "Kuwait"
      }
    ]
  },
  {
    "index": "L",
    "items": [
      {
        "regionName": "Laos",
        "callingCode": "+856",
        "regionCode": "LA",
        "regionFlag": "ðŸ‡±ðŸ‡¦",
        "index": "L",
        "syllables": "Laos"
      },
      {
        "regionName": "Lesotho",
        "regionFlag": "ðŸ‡±ðŸ‡¸",
        "callingCode": "+266",
        "regionCode": "LS",
        "index": "L",
        "syllables": "Lesotho"
      },
      {
        "regionName": "Lettland",
        "regionFlag": "ðŸ‡±ðŸ‡»",
        "callingCode": "+371",
        "regionCode": "LV",
        "index": "L",
        "syllables": "Lettland"
      },
      {
        "regionName": "Libanon",
        "callingCode": "+961",
        "regionFlag": "ðŸ‡±ðŸ‡§",
        "regionCode": "LB",
        "index": "L",
        "syllables": "Libanon"
      },
      {
        "regionName": "Liberia",
        "regionCode": "LR",
        "regionFlag": "ðŸ‡±ðŸ‡·",
        "callingCode": "+231",
        "index": "L",
        "syllables": "Liberia"
      },
      {
        "callingCode": "+218",
        "regionFlag": "ðŸ‡±ðŸ‡¾",
        "regionCode": "LY",
        "regionName": "Libyen",
        "index": "L",
        "syllables": "Libyen"
      },
      {
        "regionFlag": "ðŸ‡±ðŸ‡®",
        "regionName": "Liechtenstein",
        "regionCode": "LI",
        "callingCode": "+423",
        "index": "L",
        "syllables": "Liechtenstein"
      },
      {
        "regionName": "Litauen",
        "regionCode": "LT",
        "callingCode": "+370",
        "regionFlag": "ðŸ‡±ðŸ‡¹",
        "index": "L",
        "syllables": "Litauen"
      },
      {
        "callingCode": "+352",
        "regionFlag": "ðŸ‡±ðŸ‡º",
        "regionName": "Luxemburg",
        "regionCode": "LU",
        "index": "L",
        "syllables": "Luxemburg"
      }
    ]
  },
  {
    "index": "M",
    "items": [
      {
        "regionName": "Madagaskar",
        "regionFlag": "ðŸ‡²ðŸ‡¬",
        "regionCode": "MG",
        "callingCode": "+261",
        "index": "M",
        "syllables": "Madagaskar"
      },
      {
        "callingCode": "+265",
        "regionFlag": "ðŸ‡²ðŸ‡¼",
        "regionCode": "MW",
        "regionName": "Malawi",
        "index": "M",
        "syllables": "Malawi"
      },
      {
        "regionName": "Malaysia",
        "callingCode": "+60",
        "regionCode": "MY",
        "regionFlag": "ðŸ‡²ðŸ‡¾",
        "index": "M",
        "syllables": "Malaysia"
      },
      {
        "regionName": "Malediven",
        "callingCode": "+960",
        "regionCode": "MV",
        "regionFlag": "ðŸ‡²ðŸ‡»",
        "index": "M",
        "syllables": "Malediven"
      },
      {
        "callingCode": "+223",
        "regionCode": "ML",
        "regionFlag": "ðŸ‡²ðŸ‡±",
        "regionName": "Mali",
        "index": "M",
        "syllables": "Mali"
      },
      {
        "regionFlag": "ðŸ‡²ðŸ‡¹",
        "regionName": "Malta",
        "regionCode": "MT",
        "callingCode": "+356",
        "index": "M",
        "syllables": "Malta"
      },
      {
        "regionCode": "MA",
        "regionName": "Marokko",
        "regionFlag": "ðŸ‡²ðŸ‡¦",
        "callingCode": "+212",
        "index": "M",
        "syllables": "Marokko"
      },
      {
        "regionName": "Marshallinseln",
        "regionCode": "MH",
        "regionFlag": "ðŸ‡²ðŸ‡­",
        "callingCode": "+692",
        "index": "M",
        "syllables": "Marshallinseln"
      },
      {
        "regionFlag": "ðŸ‡²ðŸ‡¶",
        "regionName": "Martinique",
        "callingCode": "+596",
        "regionCode": "MQ",
        "index": "M",
        "syllables": "Martinique"
      },
      {
        "regionFlag": "ðŸ‡²ðŸ‡·",
        "callingCode": "+222",
        "regionCode": "MR",
        "regionName": "Mauretanien",
        "index": "M",
        "syllables": "Mauretanien"
      },
      {
        "regionName": "Mauritius",
        "regionFlag": "ðŸ‡²ðŸ‡º",
        "callingCode": "+230",
        "regionCode": "MU",
        "index": "M",
        "syllables": "Mauritius"
      },
      {
        "callingCode": "+262",
        "regionName": "Mayotte",
        "regionCode": "YT",
        "regionFlag": "ðŸ‡¾ðŸ‡¹",
        "index": "M",
        "syllables": "Mayotte"
      },
      {
        "regionFlag": "ðŸ‡²ðŸ‡½",
        "regionCode": "MX",
        "regionName": "Mexiko",
        "callingCode": "+52",
        "index": "M",
        "syllables": "Mexiko"
      },
      {
        "regionFlag": "ðŸ‡«ðŸ‡²",
        "regionName": "Mikronesien",
        "callingCode": "+691",
        "regionCode": "FM",
        "index": "M",
        "syllables": "Mikronesien"
      },
      {
        "regionFlag": "ðŸ‡²ðŸ‡¨",
        "callingCode": "+377",
        "regionName": "Monaco",
        "regionCode": "MC",
        "index": "M",
        "syllables": "Monaco"
      },
      {
        "regionFlag": "ðŸ‡²ðŸ‡³",
        "callingCode": "+976",
        "regionName": "Mongolei",
        "regionCode": "MN",
        "index": "M",
        "syllables": "Mongolei"
      },
      {
        "regionCode": "ME",
        "regionName": "Montenegro",
        "regionFlag": "ðŸ‡²ðŸ‡ª",
        "callingCode": "+382",
        "index": "M",
        "syllables": "Montenegro"
      },
      {
        "regionName": "Montserrat",
        "regionCode": "MS",
        "regionFlag": "ðŸ‡²ðŸ‡¸",
        "callingCode": "+1-664",
        "index": "M",
        "syllables": "Montserrat"
      },
      {
        "regionCode": "MZ",
        "regionFlag": "ðŸ‡²ðŸ‡¿",
        "callingCode": "+258",
        "regionName": "Mosambik",
        "index": "M",
        "syllables": "Mosambik"
      },
      {
        "regionCode": "MM",
        "regionName": "Myanmar",
        "callingCode": "+95",
        "regionFlag": "ðŸ‡²ðŸ‡²",
        "index": "M",
        "syllables": "Myanmar"
      }
    ]
  },
  {
    "index": "N",
    "items": [
      {
        "regionFlag": "ðŸ‡³ðŸ‡¦",
        "regionName": "Namibia",
        "callingCode": "+264",
        "regionCode": "NA",
        "index": "N",
        "syllables": "Namibia"
      },
      {
        "regionFlag": "ðŸ‡³ðŸ‡·",
        "regionCode": "NR",
        "regionName": "Nauru",
        "callingCode": "+674",
        "index": "N",
        "syllables": "Nauru"
      },
      {
        "regionFlag": "ðŸ‡³ðŸ‡µ",
        "regionName": "Nepal",
        "callingCode": "+977",
        "regionCode": "NP",
        "index": "N",
        "syllables": "Nepal"
      },
      {
        "regionName": "Neukaledonien",
        "regionCode": "NC",
        "callingCode": "+687",
        "regionFlag": "ðŸ‡³ðŸ‡¨",
        "index": "N",
        "syllables": "Neukaledonien"
      },
      {
        "regionCode": "NZ",
        "regionFlag": "ðŸ‡³ðŸ‡¿",
        "regionName": "Neuseeland",
        "callingCode": "+64",
        "index": "N",
        "syllables": "Neuseeland"
      },
      {
        "regionName": "Nicaragua",
        "callingCode": "+505",
        "regionCode": "NI",
        "regionFlag": "ðŸ‡³ðŸ‡®",
        "index": "N",
        "syllables": "Nicaragua"
      },
      {
        "regionFlag": "ðŸ‡³ðŸ‡±",
        "regionCode": "NL",
        "regionName": "Niederlande",
        "callingCode": "+31",
        "index": "N",
        "syllables": "Niederlande"
      },
      {
        "callingCode": "+227",
        "regionName": "Niger",
        "regionFlag": "ðŸ‡³ðŸ‡ª",
        "regionCode": "NE",
        "index": "N",
        "syllables": "Niger"
      },
      {
        "regionFlag": "ðŸ‡³ðŸ‡¬",
        "regionName": "Nigeria",
        "regionCode": "NG",
        "callingCode": "+234",
        "index": "N",
        "syllables": "Nigeria"
      },
      {
        "regionCode": "NU",
        "regionName": "Niue",
        "regionFlag": "ðŸ‡³ðŸ‡º",
        "callingCode": "+683",
        "index": "N",
        "syllables": "Niue"
      },
      {
        "regionCode": "KP",
        "regionFlag": "ðŸ‡°ðŸ‡µ",
        "callingCode": "+850",
        "regionName": "Nordkorea",
        "index": "N",
        "syllables": "Nordkorea"
      },
      {
        "regionCode": "MK",
        "callingCode": "+389",
        "regionName": "Nordmazedonien",
        "regionFlag": "ðŸ‡²ðŸ‡°",
        "index": "N",
        "syllables": "Nordmazedonien"
      },
      {
        "regionFlag": "ðŸ‡³ðŸ‡«",
        "regionName": "Norfolkinsel",
        "callingCode": "+672",
        "regionCode": "NF",
        "index": "N",
        "syllables": "Norfolkinsel"
      },
      {
        "callingCode": "+47",
        "regionCode": "NO",
        "regionFlag": "ðŸ‡³ðŸ‡´",
        "regionName": "Norwegen",
        "index": "N",
        "syllables": "Norwegen"
      },
      {
        "regionName": "NÃ¶rdliche Marianen",
        "regionCode": "MP",
        "regionFlag": "ðŸ‡²ðŸ‡µ",
        "callingCode": "+1-670",
        "index": "N",
        "syllables": "NÃ¶rdliche Marianen"
      }
    ]
  },
  {
    "index": "O",
    "items": [
      {
        "callingCode": "+968",
        "regionFlag": "ðŸ‡´ðŸ‡²",
        "regionName": "Oman",
        "regionCode": "OM",
        "index": "O",
        "syllables": "Oman"
      },
      {
        "regionCode": "AT",
        "regionFlag": "ðŸ‡¦ðŸ‡¹",
        "callingCode": "+43",
        "regionName": "Ã–sterreich",
        "index": "O",
        "syllables": "Ã–sterreich"
      }
    ]
  },
  {
    "index": "P",
    "items": [
      {
        "callingCode": "+92",
        "regionCode": "PK",
        "regionFlag": "ðŸ‡µðŸ‡°",
        "regionName": "Pakistan",
        "index": "P",
        "syllables": "Pakistan"
      },
      {
        "regionName": "Palau",
        "callingCode": "+680",
        "regionFlag": "ðŸ‡µðŸ‡¼",
        "regionCode": "PW",
        "index": "P",
        "syllables": "Palau"
      },
      {
        "callingCode": "+970",
        "regionCode": "PS",
        "regionFlag": "ðŸ‡µðŸ‡¸",
        "regionName": "PalÃ¤stinensische Autonomiegebiete",
        "index": "P",
        "syllables": "PalÃ¤stinensische Autonomiegebiete"
      },
      {
        "callingCode": "+507",
        "regionName": "Panama",
        "regionFlag": "ðŸ‡µðŸ‡¦",
        "regionCode": "PA",
        "index": "P",
        "syllables": "Panama"
      },
      {
        "regionCode": "PG",
        "regionFlag": "ðŸ‡µðŸ‡¬",
        "regionName": "Papua-Neuguinea",
        "callingCode": "+675",
        "index": "P",
        "syllables": "Papua-Neuguinea"
      },
      {
        "regionName": "Paraguay",
        "regionFlag": "ðŸ‡µðŸ‡¾",
        "callingCode": "+595",
        "regionCode": "PY",
        "index": "P",
        "syllables": "Paraguay"
      },
      {
        "regionCode": "PE",
        "regionName": "Peru",
        "callingCode": "+51",
        "regionFlag": "ðŸ‡µðŸ‡ª",
        "index": "P",
        "syllables": "Peru"
      },
      {
        "regionName": "Philippinen",
        "regionFlag": "ðŸ‡µðŸ‡­",
        "callingCode": "+63",
        "regionCode": "PH",
        "index": "P",
        "syllables": "Philippinen"
      },
      {
        "regionName": "Pitcairninseln",
        "callingCode": "+872",
        "regionCode": "PN",
        "regionFlag": "ðŸ‡µðŸ‡³",
        "index": "P",
        "syllables": "Pitcairninseln"
      },
      {
        "regionCode": "PL",
        "regionFlag": "ðŸ‡µðŸ‡±",
        "callingCode": "+48",
        "regionName": "Polen",
        "index": "P",
        "syllables": "Polen"
      },
      {
        "regionCode": "PT",
        "regionFlag": "ðŸ‡µðŸ‡¹",
        "callingCode": "+351",
        "regionName": "Portugal",
        "index": "P",
        "syllables": "Portugal"
      },
      {
        "regionName": "Puerto Rico",
        "regionCode": "PR",
        "regionFlag": "ðŸ‡µðŸ‡·",
        "callingCode": "+1-939",
        "index": "P",
        "syllables": "Puerto Rico"
      }
    ]
  },
  {
    "index": "R",
    "items": [
      {
        "regionFlag": "ðŸ‡²ðŸ‡©",
        "regionCode": "MD",
        "regionName": "Republik Moldau",
        "callingCode": "+373",
        "index": "R",
        "syllables": "Republik Moldau"
      },
      {
        "regionFlag": "ðŸ‡·ðŸ‡¼",
        "regionName": "Ruanda",
        "callingCode": "+250",
        "regionCode": "RW",
        "index": "R",
        "syllables": "Ruanda"
      },
      {
        "callingCode": "+40",
        "regionFlag": "ðŸ‡·ðŸ‡´",
        "regionName": "RumÃ¤nien",
        "regionCode": "RO",
        "index": "R",
        "syllables": "RumÃ¤nien"
      },
      {
        "regionFlag": "ðŸ‡·ðŸ‡º",
        "regionName": "Russland",
        "callingCode": "+7",
        "regionCode": "RU",
        "index": "R",
        "syllables": "Russland"
      },
      {
        "regionFlag": "ðŸ‡·ðŸ‡ª",
        "regionName": "RÃ©union",
        "regionCode": "RE",
        "callingCode": "+262",
        "index": "R",
        "syllables": "RÃ©union"
      }
    ]
  },
  {
    "index": "S",
    "items": [
      {
        "regionCode": "SB",
        "regionName": "Salomonen",
        "callingCode": "+677",
        "regionFlag": "ðŸ‡¸ðŸ‡§",
        "index": "S",
        "syllables": "Salomonen"
      },
      {
        "callingCode": "+260",
        "regionFlag": "ðŸ‡¿ðŸ‡²",
        "regionCode": "ZM",
        "regionName": "Sambia",
        "index": "S",
        "syllables": "Sambia"
      },
      {
        "regionCode": "WS",
        "regionName": "Samoa",
        "regionFlag": "ðŸ‡¼ðŸ‡¸",
        "callingCode": "+685",
        "index": "S",
        "syllables": "Samoa"
      },
      {
        "regionCode": "SM",
        "regionFlag": "ðŸ‡¸ðŸ‡²",
        "callingCode": "+378",
        "regionName": "San Marino",
        "index": "S",
        "syllables": "San Marino"
      },
      {
        "regionName": "Saudi-Arabien",
        "regionCode": "SA",
        "regionFlag": "ðŸ‡¸ðŸ‡¦",
        "callingCode": "+966",
        "index": "S",
        "syllables": "Saudi-Arabien"
      },
      {
        "regionName": "Schweden",
        "regionFlag": "ðŸ‡¸ðŸ‡ª",
        "callingCode": "+46",
        "regionCode": "SE",
        "index": "S",
        "syllables": "Schweden"
      },
      {
        "callingCode": "+41",
        "regionName": "Schweiz",
        "regionFlag": "ðŸ‡¨ðŸ‡­",
        "regionCode": "CH",
        "index": "S",
        "syllables": "Schweiz"
      },
      {
        "callingCode": "+221",
        "regionCode": "SN",
        "regionName": "Senegal",
        "regionFlag": "ðŸ‡¸ðŸ‡³",
        "index": "S",
        "syllables": "Senegal"
      },
      {
        "regionName": "Serbien",
        "regionCode": "RS",
        "regionFlag": "ðŸ‡·ðŸ‡¸",
        "callingCode": "+381",
        "index": "S",
        "syllables": "Serbien"
      },
      {
        "regionCode": "SC",
        "regionFlag": "ðŸ‡¸ðŸ‡¨",
        "callingCode": "+248",
        "regionName": "Seychellen",
        "index": "S",
        "syllables": "Seychellen"
      },
      {
        "callingCode": "+232",
        "regionFlag": "ðŸ‡¸ðŸ‡±",
        "regionCode": "SL",
        "regionName": "Sierra Leone",
        "index": "S",
        "syllables": "Sierra Leone"
      },
      {
        "regionName": "Simbabwe",
        "regionCode": "ZW",
        "regionFlag": "ðŸ‡¿ðŸ‡¼",
        "callingCode": "+263",
        "index": "S",
        "syllables": "Simbabwe"
      },
      {
        "callingCode": "+65",
        "regionFlag": "ðŸ‡¸ðŸ‡¬",
        "regionName": "Singapur",
        "regionCode": "SG",
        "index": "S",
        "syllables": "Singapur"
      },
      {
        "regionFlag": "ðŸ‡¸ðŸ‡½",
        "regionName": "Sint Maarten",
        "callingCode": "+1-721",
        "regionCode": "SX",
        "index": "S",
        "syllables": "Sint Maarten"
      },
      {
        "regionCode": "SK",
        "regionName": "Slowakei",
        "callingCode": "+421",
        "regionFlag": "ðŸ‡¸ðŸ‡°",
        "index": "S",
        "syllables": "Slowakei"
      },
      {
        "regionName": "Slowenien",
        "regionFlag": "ðŸ‡¸ðŸ‡®",
        "regionCode": "SI",
        "callingCode": "+386",
        "index": "S",
        "syllables": "Slowenien"
      },
      {
        "regionCode": "SO",
        "regionName": "Somalia",
        "regionFlag": "ðŸ‡¸ðŸ‡´",
        "callingCode": "+252",
        "index": "S",
        "syllables": "Somalia"
      },
      {
        "regionCode": "HK",
        "regionName": "Sonderverwaltungsregion Hongkong",
        "regionFlag": "ðŸ‡­ðŸ‡°",
        "callingCode": "+852",
        "index": "S",
        "syllables": "Sonderverwaltungsregion Hongkong"
      },
      {
        "regionFlag": "ðŸ‡²ðŸ‡´",
        "regionCode": "MO",
        "callingCode": "+853",
        "regionName": "Sonderverwaltungsregion Macau",
        "index": "S",
        "syllables": "Sonderverwaltungsregion Macau"
      },
      {
        "regionFlag": "ðŸ‡ªðŸ‡¸",
        "callingCode": "+34",
        "regionCode": "ES",
        "regionName": "Spanien",
        "index": "S",
        "syllables": "Spanien"
      },
      {
        "callingCode": "+47",
        "regionName": "Spitzbergen und Jan Mayen",
        "regionCode": "SJ",
        "regionFlag": "ðŸ‡¸ðŸ‡¯",
        "index": "S",
        "syllables": "Spitzbergen und Jan Mayen"
      },
      {
        "regionFlag": "ðŸ‡±ðŸ‡°",
        "callingCode": "+94",
        "regionCode": "LK",
        "regionName": "Sri Lanka",
        "index": "S",
        "syllables": "Sri Lanka"
      },
      {
        "callingCode": "+590",
        "regionName": "St. BarthÃ©lemy",
        "regionCode": "BL",
        "regionFlag": "ðŸ‡§ðŸ‡±",
        "index": "S",
        "syllables": "St. BarthÃ©lemy"
      },
      {
        "regionFlag": "ðŸ‡¸ðŸ‡­",
        "callingCode": "+290",
        "regionCode": "SH",
        "regionName": "St. Helena",
        "index": "S",
        "syllables": "St. Helena"
      },
      {
        "regionFlag": "ðŸ‡°ðŸ‡³",
        "callingCode": "+1-869",
        "regionCode": "KN",
        "regionName": "St. Kitts und Nevis",
        "index": "S",
        "syllables": "St. Kitts und Nevis"
      },
      {
        "regionFlag": "ðŸ‡±ðŸ‡¨",
        "regionName": "St. Lucia",
        "callingCode": "+1-758",
        "regionCode": "LC",
        "index": "S",
        "syllables": "St. Lucia"
      },
      {
        "regionCode": "MF",
        "regionFlag": "ðŸ‡²ðŸ‡«",
        "regionName": "St. Martin",
        "callingCode": "+590",
        "index": "S",
        "syllables": "St. Martin"
      },
      {
        "regionName": "St. Pierre und Miquelon",
        "regionFlag": "ðŸ‡µðŸ‡²",
        "regionCode": "PM",
        "callingCode": "+508",
        "index": "S",
        "syllables": "St. Pierre und Miquelon"
      },
      {
        "regionCode": "VC",
        "regionName": "St. Vincent und die Grenadinen",
        "callingCode": "+1-784",
        "regionFlag": "ðŸ‡»ðŸ‡¨",
        "index": "S",
        "syllables": "St. Vincent und die Grenadinen"
      },
      {
        "regionCode": "SD",
        "regionName": "Sudan",
        "regionFlag": "ðŸ‡¸ðŸ‡©",
        "callingCode": "+249",
        "index": "S",
        "syllables": "Sudan"
      },
      {
        "regionFlag": "ðŸ‡¸ðŸ‡·",
        "regionName": "Suriname",
        "callingCode": "+597",
        "regionCode": "SR",
        "index": "S",
        "syllables": "Suriname"
      },
      {
        "regionCode": "SY",
        "regionFlag": "ðŸ‡¸ðŸ‡¾",
        "regionName": "Syrien",
        "callingCode": "+963",
        "index": "S",
        "syllables": "Syrien"
      },
      {
        "regionName": "SÃ£o TomÃ© und PrÃ­ncipe",
        "callingCode": "+239",
        "regionCode": "ST",
        "regionFlag": "ðŸ‡¸ðŸ‡¹",
        "index": "S",
        "syllables": "SÃ£o TomÃ© und PrÃ­ncipe"
      },
      {
        "regionCode": "ZA",
        "regionFlag": "ðŸ‡¿ðŸ‡¦",
        "regionName": "SÃ¼dafrika",
        "callingCode": "+27",
        "index": "S",
        "syllables": "SÃ¼dafrika"
      },
      {
        "regionFlag": "ðŸ‡¬ðŸ‡¸",
        "regionName": "SÃ¼dgeorgien und die SÃ¼dlichen Sandwichinseln",
        "regionCode": "GS",
        "callingCode": "+500",
        "index": "S",
        "syllables": "SÃ¼dgeorgien und die SÃ¼dlichen Sandwichinseln"
      },
      {
        "regionFlag": "ðŸ‡°ðŸ‡·",
        "callingCode": "+82",
        "regionName": "SÃ¼dkorea",
        "regionCode": "KR",
        "index": "S",
        "syllables": "SÃ¼dkorea"
      },
      {
        "regionFlag": "ðŸ‡¸ðŸ‡¸",
        "callingCode": "+211",
        "regionCode": "SS",
        "regionName": "SÃ¼dsudan",
        "index": "S",
        "syllables": "SÃ¼dsudan"
      }
    ]
  },
  {
    "index": "T",
    "items": [
      {
        "regionName": "Tadschikistan",
        "regionCode": "TJ",
        "callingCode": "+992",
        "regionFlag": "ðŸ‡¹ðŸ‡¯",
        "index": "T",
        "syllables": "Tadschikistan"
      },
      {
        "regionCode": "TW",
        "regionName": "Taiwan",
        "regionFlag": "ðŸ‡¨ðŸ‡³",
        "callingCode": "+886",
        "index": "T",
        "syllables": "Taiwan"
      },
      {
        "regionName": "Tansania",
        "callingCode": "+255",
        "regionCode": "TZ",
        "regionFlag": "ðŸ‡¹ðŸ‡¿",
        "index": "T",
        "syllables": "Tansania"
      },
      {
        "callingCode": "+66",
        "regionCode": "TH",
        "regionFlag": "ðŸ‡¹ðŸ‡­",
        "regionName": "Thailand",
        "index": "T",
        "syllables": "Thailand"
      },
      {
        "regionCode": "TL",
        "regionName": "Timor-Leste",
        "callingCode": "+670",
        "regionFlag": "ðŸ‡¹ðŸ‡±",
        "index": "T",
        "syllables": "Timor-Leste"
      },
      {
        "regionCode": "TG",
        "regionFlag": "ðŸ‡¹ðŸ‡¬",
        "callingCode": "+228",
        "regionName": "Togo",
        "index": "T",
        "syllables": "Togo"
      },
      {
        "regionFlag": "ðŸ‡¹ðŸ‡°",
        "regionName": "Tokelau",
        "regionCode": "TK",
        "callingCode": "+690",
        "index": "T",
        "syllables": "Tokelau"
      },
      {
        "callingCode": "+676",
        "regionFlag": "ðŸ‡¹ðŸ‡´",
        "regionCode": "TO",
        "regionName": "Tonga",
        "index": "T",
        "syllables": "Tonga"
      },
      {
        "callingCode": "+1-868",
        "regionCode": "TT",
        "regionName": "Trinidad und Tobago",
        "regionFlag": "ðŸ‡¹ðŸ‡¹",
        "index": "T",
        "syllables": "Trinidad und Tobago"
      },
      {
        "regionFlag": "ðŸ‡¹ðŸ‡¦",
        "regionName": "Tristan da Cunha",
        "regionCode": "TA",
        "callingCode": "+290",
        "index": "T",
        "syllables": "Tristan da Cunha"
      },
      {
        "regionName": "Tschad",
        "regionFlag": "ðŸ‡¹ðŸ‡©",
        "callingCode": "+235",
        "regionCode": "TD",
        "index": "T",
        "syllables": "Tschad"
      },
      {
        "callingCode": "+420",
        "regionFlag": "ðŸ‡¨ðŸ‡¿",
        "regionCode": "CZ",
        "regionName": "Tschechien",
        "index": "T",
        "syllables": "Tschechien"
      },
      {
        "regionFlag": "ðŸ‡¹ðŸ‡³",
        "callingCode": "+216",
        "regionCode": "TN",
        "regionName": "Tunesien",
        "index": "T",
        "syllables": "Tunesien"
      },
      {
        "regionFlag": "ðŸ‡¹ðŸ‡²",
        "regionName": "Turkmenistan",
        "callingCode": "+993",
        "regionCode": "TM",
        "index": "T",
        "syllables": "Turkmenistan"
      },
      {
        "callingCode": "+1-649",
        "regionFlag": "ðŸ‡¹ðŸ‡¨",
        "regionCode": "TC",
        "regionName": "Turks- und Caicosinseln",
        "index": "T",
        "syllables": "Turks- und Caicosinseln"
      },
      {
        "regionName": "Tuvalu",
        "regionCode": "TV",
        "callingCode": "+688",
        "regionFlag": "ðŸ‡¹ðŸ‡»",
        "index": "T",
        "syllables": "Tuvalu"
      },
      {
        "regionName": "TÃ¼rkei",
        "regionCode": "TR",
        "regionFlag": "ðŸ‡¹ðŸ‡·",
        "callingCode": "+90",
        "index": "T",
        "syllables": "TÃ¼rkei"
      }
    ]
  },
  {
    "index": "U",
    "items": [
      {
        "regionFlag": "ðŸ‡ºðŸ‡¬",
        "regionCode": "UG",
        "callingCode": "+256",
        "regionName": "Uganda",
        "index": "U",
        "syllables": "Uganda"
      },
      {
        "regionName": "Ukraine",
        "callingCode": "+380",
        "regionCode": "UA",
        "regionFlag": "ðŸ‡ºðŸ‡¦",
        "index": "U",
        "syllables": "Ukraine"
      },
      {
        "regionCode": "HU",
        "regionName": "Ungarn",
        "regionFlag": "ðŸ‡­ðŸ‡º",
        "callingCode": "+36",
        "index": "U",
        "syllables": "Ungarn"
      },
      {
        "regionFlag": "ðŸ‡ºðŸ‡¾",
        "regionCode": "UY",
        "regionName": "Uruguay",
        "callingCode": "+598",
        "index": "U",
        "syllables": "Uruguay"
      },
      {
        "regionName": "Usbekistan",
        "callingCode": "+998",
        "regionFlag": "ðŸ‡ºðŸ‡¿",
        "regionCode": "UZ",
        "index": "U",
        "syllables": "Usbekistan"
      }
    ]
  },
  {
    "index": "V",
    "items": [
      {
        "callingCode": "+678",
        "regionName": "Vanuatu",
        "regionFlag": "ðŸ‡»ðŸ‡º",
        "regionCode": "VU",
        "index": "V",
        "syllables": "Vanuatu"
      },
      {
        "regionFlag": "ðŸ‡»ðŸ‡¦",
        "regionName": "Vatikanstadt",
        "callingCode": "+379",
        "regionCode": "VA",
        "index": "V",
        "syllables": "Vatikanstadt"
      },
      {
        "regionFlag": "ðŸ‡»ðŸ‡ª",
        "regionCode": "VE",
        "regionName": "Venezuela",
        "callingCode": "+58",
        "index": "V",
        "syllables": "Venezuela"
      },
      {
        "regionCode": "AE",
        "callingCode": "+971",
        "regionFlag": "ðŸ‡¦ðŸ‡ª",
        "regionName": "Vereinigte Arabische Emirate",
        "index": "V",
        "syllables": "Vereinigte Arabische Emirate"
      },
      {
        "callingCode": "+1",
        "regionName": "Vereinigte Staaten",
        "regionFlag": "ðŸ‡ºðŸ‡¸",
        "regionCode": "US",
        "index": "V",
        "syllables": "Vereinigte Staaten"
      },
      {
        "callingCode": "+44",
        "regionFlag": "ðŸ‡¬ðŸ‡§",
        "regionCode": "GB",
        "regionName": "Vereinigtes KÃ¶nigreich",
        "index": "V",
        "syllables": "Vereinigtes KÃ¶nigreich"
      },
      {
        "callingCode": "+84",
        "regionName": "Vietnam",
        "regionCode": "VN",
        "regionFlag": "ðŸ‡»ðŸ‡³",
        "index": "V",
        "syllables": "Vietnam"
      }
    ]
  },
  {
    "index": "W",
    "items": [
      {
        "callingCode": "+681",
        "regionFlag": "ðŸ‡¼ðŸ‡«",
        "regionCode": "WF",
        "regionName": "Wallis und Futuna",
        "index": "W",
        "syllables": "Wallis und Futuna"
      },
      {
        "regionCode": "CX",
        "regionName": "Weihnachtsinsel",
        "callingCode": "+61",
        "regionFlag": "ðŸ‡¨ðŸ‡½",
        "index": "W",
        "syllables": "Weihnachtsinsel"
      },
      {
        "regionName": "Westsahara",
        "regionFlag": "ðŸ‡ªðŸ‡­",
        "regionCode": "EH",
        "callingCode": "+212",
        "index": "W",
        "syllables": "Westsahara"
      }
    ]
  },
  {
    "index": "Z",
    "items": [
      {
        "callingCode": "+236",
        "regionCode": "CF",
        "regionFlag": "ðŸ‡¨ðŸ‡«",
        "regionName": "Zentralafrikanische Republik",
        "index": "Z",
        "syllables": "Zentralafrikanische Republik"
      },
      {
        "regionName": "Zypern",
        "regionCode": "CY",
        "callingCode": "+357",
        "regionFlag": "ðŸ‡¨ðŸ‡¾",
        "index": "Z",
        "syllables": "Zypern"
      }
    ]
  }
]