[
  {
    "index": "A",
    "items": [
      {
        "regionName": "é˜¿å°”å·´å°¼äºš",
        "regionCode": "AL",
        "callingCode": "+355",
        "regionFlag": "ğŸ‡¦ğŸ‡±",
        "index": "A",
        "syllables": "AERBANIYA"
      },
      {
        "regionCode": "DZ",
        "regionFlag": "ğŸ‡©ğŸ‡¿",
        "callingCode": "+213",
        "regionName": "é˜¿å°”åŠåˆ©äºš",
        "index": "A",
        "syllables": "AERJILIYA"
      },
      {
        "regionFlag": "ğŸ‡¦ğŸ‡«",
        "regionCode": "AF",
        "callingCode": "+93",
        "regionName": "é˜¿å¯Œæ±—",
        "index": "A",
        "syllables": "AFUHAN"
      },
      {
        "regionCode": "AR",
        "regionName": "é˜¿æ ¹å»·",
        "regionFlag": "ğŸ‡¦ğŸ‡·",
        "callingCode": "+54",
        "index": "A",
        "syllables": "AGENTING"
      },
      {
        "callingCode": "+353",
        "regionName": "çˆ±å°”å…°",
        "regionCode": "IE",
        "regionFlag": "ğŸ‡®ğŸ‡ª",
        "index": "A",
        "syllables": "AIERLAN"
      },
      {
        "regionFlag": "ğŸ‡ªğŸ‡¬",
        "regionCode": "EG",
        "regionName": "åŸƒåŠ",
        "callingCode": "+20",
        "index": "A",
        "syllables": "AIJI"
      },
      {
        "callingCode": "+251",
        "regionFlag": "ğŸ‡ªğŸ‡¹",
        "regionCode": "ET",
        "regionName": "åŸƒå¡ä¿„æ¯”äºš",
        "index": "A",
        "syllables": "AISAIEBIYA"
      },
      {
        "callingCode": "+372",
        "regionName": "çˆ±æ²™å°¼äºš",
        "regionCode": "EE",
        "regionFlag": "ğŸ‡ªğŸ‡ª",
        "index": "A",
        "syllables": "AISHANIYA"
      },
      {
        "regionCode": "AE",
        "callingCode": "+971",
        "regionFlag": "ğŸ‡¦ğŸ‡ª",
        "regionName": "é˜¿æ‹‰ä¼¯è”åˆé…‹é•¿å›½",
        "index": "A",
        "syllables": "ALABOLIANHEQIUCHANGGUO"
      },
      {
        "callingCode": "+297",
        "regionName": "é˜¿é²å·´",
        "regionCode": "AW",
        "regionFlag": "ğŸ‡¦ğŸ‡¼",
        "index": "A",
        "syllables": "ALUBA"
      },
      {
        "callingCode": "+968",
        "regionFlag": "ğŸ‡´ğŸ‡²",
        "regionName": "é˜¿æ›¼",
        "regionCode": "OM",
        "index": "A",
        "syllables": "AMAN"
      },
      {
        "regionCode": "AD",
        "regionFlag": "ğŸ‡¦ğŸ‡©",
        "regionName": "å®‰é“å°”",
        "callingCode": "+376",
        "index": "A",
        "syllables": "ANDAOER"
      },
      {
        "regionName": "å®‰å“¥æ‹‰",
        "regionCode": "AO",
        "callingCode": "+244",
        "regionFlag": "ğŸ‡¦ğŸ‡´",
        "index": "A",
        "syllables": "ANGELA"
      },
      {
        "callingCode": "+1-264",
        "regionCode": "AI",
        "regionFlag": "ğŸ‡¦ğŸ‡®",
        "regionName": "å®‰åœ­æ‹‰",
        "index": "A",
        "syllables": "ANGUILA"
      },
      {
        "regionCode": "AG",
        "regionName": "å®‰æç“œå’Œå·´å¸ƒè¾¾",
        "callingCode": "+1-268",
        "regionFlag": "ğŸ‡¦ğŸ‡¬",
        "index": "A",
        "syllables": "ANTIGUAHEBABUDA"
      },
      {
        "regionCode": "AU",
        "regionName": "æ¾³å¤§åˆ©äºš",
        "callingCode": "+61",
        "regionFlag": "ğŸ‡¦ğŸ‡º",
        "index": "A",
        "syllables": "AODALIYA"
      },
      {
        "regionCode": "AT",
        "regionFlag": "ğŸ‡¦ğŸ‡¹",
        "callingCode": "+43",
        "regionName": "å¥¥åœ°åˆ©",
        "index": "A",
        "syllables": "AODELI"
      },
      {
        "regionName": "å¥¥å…°ç¾¤å²›",
        "regionFlag": "ğŸ‡¦ğŸ‡½",
        "regionCode": "AX",
        "callingCode": "+358",
        "index": "A",
        "syllables": "AOLANQUNDAO"
      },
      {
        "callingCode": "+994",
        "regionFlag": "ğŸ‡¦ğŸ‡¿",
        "regionName": "é˜¿å¡æ‹œç–†",
        "regionCode": "AZ",
        "index": "A",
        "syllables": "ASAIBAIJIANG"
      },
      {
        "regionName": "Ascension Island",
        "callingCode": "+247",
        "regionCode": "AC",
        "regionFlag": "ğŸ‡¦ğŸ‡¨",
        "index": "A",
        "syllables": "Ascension Island"
      }
    ]
  },
  {
    "index": "B",
    "items": [
      {
        "regionCode": "BB",
        "regionFlag": "ğŸ‡§ğŸ‡§",
        "regionName": "å·´å·´å¤šæ–¯",
        "callingCode": "+1-246",
        "index": "B",
        "syllables": "BABADUOSI"
      },
      {
        "regionCode": "PG",
        "regionFlag": "ğŸ‡µğŸ‡¬",
        "regionName": "å·´å¸ƒäºšæ–°å‡ å†…äºš",
        "callingCode": "+675",
        "index": "B",
        "syllables": "BABUYAXINJINEIYA"
      },
      {
        "regionFlag": "ğŸ‡§ğŸ‡¸",
        "regionCode": "BS",
        "regionName": "å·´å“ˆé©¬",
        "callingCode": "+1-242",
        "index": "B",
        "syllables": "BAHAMA"
      },
      {
        "regionCode": "BY",
        "regionFlag": "ğŸ‡§ğŸ‡¾",
        "regionName": "ç™½ä¿„ç½—æ–¯",
        "callingCode": "+375",
        "index": "B",
        "syllables": "BAIELUOSI"
      },
      {
        "regionName": "ç™¾æ…•å¤§",
        "callingCode": "+1-441",
        "regionCode": "BM",
        "regionFlag": "ğŸ‡§ğŸ‡²",
        "index": "B",
        "syllables": "BAIMUDA"
      },
      {
        "callingCode": "+92",
        "regionCode": "PK",
        "regionFlag": "ğŸ‡µğŸ‡°",
        "regionName": "å·´åŸºæ–¯å¦",
        "index": "B",
        "syllables": "BAJISITAN"
      },
      {
        "regionName": "å·´æ‹‰åœ­",
        "regionFlag": "ğŸ‡µğŸ‡¾",
        "callingCode": "+595",
        "regionCode": "PY",
        "index": "B",
        "syllables": "BALAGUI"
      },
      {
        "callingCode": "+970",
        "regionCode": "PS",
        "regionFlag": "ğŸ‡µğŸ‡¸",
        "regionName": "å·´å‹’æ–¯å¦é¢†åœŸ",
        "index": "B",
        "syllables": "BALEISITANLINGTU"
      },
      {
        "regionName": "å·´æ—",
        "regionFlag": "ğŸ‡§ğŸ‡­",
        "callingCode": "+973",
        "regionCode": "BH",
        "index": "B",
        "syllables": "BALIN"
      },
      {
        "callingCode": "+507",
        "regionName": "å·´æ‹¿é©¬",
        "regionFlag": "ğŸ‡µğŸ‡¦",
        "regionCode": "PA",
        "index": "B",
        "syllables": "BANAMA"
      },
      {
        "regionName": "ä¿åŠ åˆ©äºš",
        "callingCode": "+359",
        "regionCode": "BG",
        "regionFlag": "ğŸ‡§ğŸ‡¬",
        "index": "B",
        "syllables": "BAOJIALIYA"
      },
      {
        "regionName": "å·´è¥¿",
        "regionCode": "BR",
        "callingCode": "+55",
        "regionFlag": "ğŸ‡§ğŸ‡·",
        "index": "B",
        "syllables": "BAXI"
      },
      {
        "regionName": "åŒ—é©¬é‡Œäºšçº³ç¾¤å²›",
        "regionCode": "MP",
        "regionFlag": "ğŸ‡²ğŸ‡µ",
        "callingCode": "+1-670",
        "index": "B",
        "syllables": "BEIMALIYANAQUNDAO"
      },
      {
        "regionCode": "MK",
        "callingCode": "+389",
        "regionName": "åŒ—é©¬å…¶é¡¿",
        "regionFlag": "ğŸ‡²ğŸ‡°",
        "index": "B",
        "syllables": "BEIMAQIDUN"
      },
      {
        "regionName": "è´å®",
        "regionFlag": "ğŸ‡§ğŸ‡¯",
        "regionCode": "BJ",
        "callingCode": "+229",
        "index": "B",
        "syllables": "BEINING"
      },
      {
        "callingCode": "+32",
        "regionCode": "BE",
        "regionName": "æ¯”åˆ©æ—¶",
        "regionFlag": "ğŸ‡§ğŸ‡ª",
        "index": "B",
        "syllables": "BILISHI"
      },
      {
        "regionCode": "IS",
        "regionFlag": "ğŸ‡®ğŸ‡¸",
        "regionName": "å†°å²›",
        "callingCode": "+354",
        "index": "B",
        "syllables": "BINGDAO"
      },
      {
        "regionFlag": "ğŸ‡§ğŸ‡¼",
        "regionName": "åšèŒ¨ç“¦çº³",
        "regionCode": "BW",
        "callingCode": "+267",
        "index": "B",
        "syllables": "BOCIWANA"
      },
      {
        "regionName": "æ³¢å¤šé»å„",
        "regionCode": "PR",
        "regionFlag": "ğŸ‡µğŸ‡·",
        "callingCode": "+1-939",
        "index": "B",
        "syllables": "BODUOLIGE"
      },
      {
        "regionCode": "PL",
        "regionFlag": "ğŸ‡µğŸ‡±",
        "callingCode": "+48",
        "regionName": "æ³¢å…°",
        "index": "B",
        "syllables": "BOLAN"
      },
      {
        "regionName": "ç»åˆ©ç»´äºš",
        "callingCode": "+591",
        "regionCode": "BO",
        "regionFlag": "ğŸ‡§ğŸ‡´",
        "index": "B",
        "syllables": "BOLIWEIYA"
      },
      {
        "regionCode": "BZ",
        "regionFlag": "ğŸ‡§ğŸ‡¿",
        "callingCode": "+501",
        "regionName": "ä¼¯åˆ©å…¹",
        "index": "B",
        "syllables": "BOLIZI"
      },
      {
        "regionCode": "BA",
        "callingCode": "+387",
        "regionFlag": "ğŸ‡§ğŸ‡¦",
        "regionName": "æ³¢æ–¯å°¼äºšå’Œé»‘å¡å“¥ç»´é‚£",
        "index": "B",
        "syllables": "BOSINIYAHEHEISAIGEWEINA"
      },
      {
        "regionCode": "BT",
        "regionName": "ä¸ä¸¹",
        "callingCode": "+975",
        "regionFlag": "ğŸ‡§ğŸ‡¹",
        "index": "B",
        "syllables": "BUDAN"
      },
      {
        "callingCode": "+226",
        "regionFlag": "ğŸ‡§ğŸ‡«",
        "regionName": "å¸ƒåŸºçº³æ³•ç´¢",
        "regionCode": "BF",
        "index": "B",
        "syllables": "BUJINAFASUO"
      },
      {
        "regionFlag": "ğŸ‡§ğŸ‡®",
        "regionName": "å¸ƒéš†è¿ª",
        "regionCode": "BI",
        "callingCode": "+257",
        "index": "B",
        "syllables": "BULONGDI"
      }
    ]
  },
  {
    "index": "C",
    "items": [
      {
        "regionCode": "KP",
        "regionFlag": "ğŸ‡°ğŸ‡µ",
        "callingCode": "+850",
        "regionName": "æœé²œ",
        "index": "C",
        "syllables": "CHAOXIAN"
      },
      {
        "regionCode": "GQ",
        "regionFlag": "ğŸ‡¬ğŸ‡¶",
        "callingCode": "+240",
        "regionName": "èµ¤é“å‡ å†…äºš",
        "index": "C",
        "syllables": "CHIDAOJINEIYA"
      }
    ]
  },
  {
    "index": "D",
    "items": [
      {
        "regionFlag": "ğŸ‡©ğŸ‡°",
        "regionCode": "DK",
        "regionName": "ä¸¹éº¦",
        "callingCode": "+45",
        "index": "D",
        "syllables": "DANMAI"
      },
      {
        "regionName": "å¾·å›½",
        "regionFlag": "ğŸ‡©ğŸ‡ª",
        "regionCode": "DE",
        "callingCode": "+49",
        "index": "D",
        "syllables": "DEGUO"
      },
      {
        "regionCode": "TL",
        "regionName": "ä¸œå¸æ±¶",
        "callingCode": "+670",
        "regionFlag": "ğŸ‡¹ğŸ‡±",
        "index": "D",
        "syllables": "DONGDIWEN"
      },
      {
        "regionCode": "TG",
        "regionFlag": "ğŸ‡¹ğŸ‡¬",
        "callingCode": "+228",
        "regionName": "å¤šå“¥",
        "index": "D",
        "syllables": "DUOGE"
      },
      {
        "regionFlag": "ğŸ‡©ğŸ‡´",
        "regionCode": "DO",
        "regionName": "å¤šç±³å°¼åŠ å…±å’Œå›½",
        "callingCode": "+1-849",
        "index": "D",
        "syllables": "DUOMINIJIAGONGHEGUO"
      },
      {
        "callingCode": "+1-767",
        "regionFlag": "ğŸ‡©ğŸ‡²",
        "regionName": "å¤šç±³å°¼å…‹",
        "regionCode": "DM",
        "index": "D",
        "syllables": "DUOMINIKE"
      }
    ]
  },
  {
    "index": "E",
    "items": [
      {
        "regionCode": "EC",
        "regionName": "å„ç“œå¤šå°”",
        "callingCode": "+593",
        "regionFlag": "ğŸ‡ªğŸ‡¨",
        "index": "E",
        "syllables": "EGUADUOER"
      },
      {
        "regionCode": "ER",
        "regionFlag": "ğŸ‡ªğŸ‡·",
        "callingCode": "+291",
        "regionName": "å„ç«‹ç‰¹é‡Œäºš",
        "index": "E",
        "syllables": "ELITELIYA"
      },
      {
        "regionFlag": "ğŸ‡·ğŸ‡º",
        "regionName": "ä¿„ç½—æ–¯",
        "callingCode": "+7",
        "regionCode": "RU",
        "index": "E",
        "syllables": "ELUOSI"
      }
    ]
  },
  {
    "index": "F",
    "items": [
      {
        "regionCode": "FR",
        "regionFlag": "ğŸ‡«ğŸ‡·",
        "regionName": "æ³•å›½",
        "callingCode": "+33",
        "index": "F",
        "syllables": "FAGUO"
      },
      {
        "regionCode": "FO",
        "regionName": "æ³•ç½—ç¾¤å²›",
        "regionFlag": "ğŸ‡«ğŸ‡´",
        "callingCode": "+298",
        "index": "F",
        "syllables": "FALUOQUNDAO"
      },
      {
        "regionFlag": "ğŸ‡»ğŸ‡¦",
        "regionName": "æ¢µè’‚å†ˆ",
        "callingCode": "+379",
        "regionCode": "VA",
        "index": "F",
        "syllables": "FANDIGANG"
      },
      {
        "callingCode": "+689",
        "regionFlag": "ğŸ‡µğŸ‡«",
        "regionName": "æ³•å±æ³¢åˆ©å°¼è¥¿äºš",
        "regionCode": "PF",
        "index": "F",
        "syllables": "FASHUBOLINIXIYA"
      },
      {
        "regionName": "æ³•å±åœ­äºšé‚£",
        "regionFlag": "ğŸ‡¬ğŸ‡«",
        "callingCode": "+594",
        "regionCode": "GF",
        "index": "F",
        "syllables": "FASHUGUIYANA"
      },
      {
        "regionCode": "MF",
        "regionFlag": "ğŸ‡²ğŸ‡«",
        "regionName": "æ³•å±åœ£é©¬ä¸",
        "callingCode": "+590",
        "index": "F",
        "syllables": "FASHUSHENGMADING"
      },
      {
        "regionCode": "FJ",
        "regionFlag": "ğŸ‡«ğŸ‡¯",
        "regionName": "æ–æµ",
        "callingCode": "+679",
        "index": "F",
        "syllables": "FEIJI"
      },
      {
        "regionName": "è²å¾‹å®¾",
        "regionFlag": "ğŸ‡µğŸ‡­",
        "callingCode": "+63",
        "regionCode": "PH",
        "index": "F",
        "syllables": "FEILVBIN"
      },
      {
        "regionFlag": "ğŸ‡«ğŸ‡®",
        "regionCode": "FI",
        "callingCode": "+358",
        "regionName": "èŠ¬å…°",
        "index": "F",
        "syllables": "FENLAN"
      },
      {
        "regionFlag": "ğŸ‡¨ğŸ‡»",
        "regionName": "ä½›å¾—è§’",
        "callingCode": "+238",
        "regionCode": "CV",
        "index": "F",
        "syllables": "FUDEJIAO"
      },
      {
        "regionName": "ç¦å…‹å…°ç¾¤å²›",
        "regionCode": "FK",
        "regionFlag": "ğŸ‡«ğŸ‡°",
        "callingCode": "+500",
        "index": "F",
        "syllables": "FUKELANQUNDAO"
      }
    ]
  },
  {
    "index": "G",
    "items": [
      {
        "regionCode": "GM",
        "callingCode": "+220",
        "regionFlag": "ğŸ‡¬ğŸ‡²",
        "regionName": "å†ˆæ¯”äºš",
        "index": "G",
        "syllables": "GANGBIYA"
      },
      {
        "callingCode": "+242",
        "regionName": "åˆšæœï¼ˆå¸ƒï¼‰",
        "regionCode": "CG",
        "regionFlag": "ğŸ‡¨ğŸ‡¬",
        "index": "G",
        "syllables": "GANGGUOï¼ˆBUï¼‰"
      },
      {
        "callingCode": "+243",
        "regionCode": "CD",
        "regionFlag": "ğŸ‡¨ğŸ‡©",
        "regionName": "åˆšæœï¼ˆé‡‘ï¼‰",
        "index": "G",
        "syllables": "GANGGUOï¼ˆJINï¼‰"
      },
      {
        "regionFlag": "ğŸ‡¬ğŸ‡±",
        "regionCode": "GL",
        "regionName": "æ ¼é™µå…°",
        "callingCode": "+299",
        "index": "G",
        "syllables": "GELINGLAN"
      },
      {
        "regionCode": "GD",
        "regionName": "æ ¼æ—çº³è¾¾",
        "callingCode": "+1-473",
        "regionFlag": "ğŸ‡¬ğŸ‡©",
        "index": "G",
        "syllables": "GELINNADA"
      },
      {
        "regionCode": "GE",
        "regionFlag": "ğŸ‡¬ğŸ‡ª",
        "callingCode": "+995",
        "regionName": "æ ¼é²å‰äºš",
        "index": "G",
        "syllables": "GELUJIYA"
      },
      {
        "regionName": "å“¥ä¼¦æ¯”äºš",
        "regionFlag": "ğŸ‡¨ğŸ‡´",
        "regionCode": "CO",
        "callingCode": "+57",
        "index": "G",
        "syllables": "GELUNBIYA"
      },
      {
        "callingCode": "+44",
        "regionName": "æ ¹è¥¿å²›",
        "regionCode": "GG",
        "regionFlag": "ğŸ‡¬ğŸ‡¬",
        "index": "G",
        "syllables": "GENXIDAO"
      },
      {
        "regionFlag": "ğŸ‡¨ğŸ‡·",
        "callingCode": "+506",
        "regionName": "å“¥æ–¯è¾¾é»åŠ ",
        "regionCode": "CR",
        "index": "G",
        "syllables": "GESIDALIJIA"
      },
      {
        "callingCode": "+590",
        "regionCode": "GP",
        "regionFlag": "ğŸ‡¬ğŸ‡µ",
        "regionName": "ç“œå¾·ç½—æ™®",
        "index": "G",
        "syllables": "GUADELUOPU"
      },
      {
        "regionCode": "GU",
        "callingCode": "+1-671",
        "regionName": "å…³å²›",
        "regionFlag": "ğŸ‡¬ğŸ‡º",
        "index": "G",
        "syllables": "GUANDAO"
      },
      {
        "regionName": "å¤å·´",
        "regionFlag": "ğŸ‡¨ğŸ‡º",
        "regionCode": "CU",
        "callingCode": "+53",
        "index": "G",
        "syllables": "GUBA"
      },
      {
        "callingCode": "+595",
        "regionName": "åœ­äºšé‚£",
        "regionCode": "GY",
        "regionFlag": "ğŸ‡¬ğŸ‡¾",
        "index": "G",
        "syllables": "GUIYANA"
      }
    ]
  },
  {
    "index": "H",
    "items": [
      {
        "regionFlag": "ğŸ‡­ğŸ‡¹",
        "regionCode": "HT",
        "regionName": "æµ·åœ°",
        "callingCode": "+509",
        "index": "H",
        "syllables": "HAIDE"
      },
      {
        "regionFlag": "ğŸ‡°ğŸ‡·",
        "callingCode": "+82",
        "regionName": "éŸ©å›½",
        "regionCode": "KR",
        "index": "H",
        "syllables": "HANGUO"
      },
      {
        "regionFlag": "ğŸ‡°ğŸ‡¿",
        "callingCode": "+7",
        "regionName": "å“ˆè¨å…‹æ–¯å¦",
        "regionCode": "KZ",
        "index": "H",
        "syllables": "HASAKESITAN"
      },
      {
        "callingCode": "+672",
        "regionFlag": "ğŸ‡­ğŸ‡²",
        "regionName": "èµ«å¾·å²›å’Œéº¦å…‹å”çº³ç¾¤å²›",
        "regionCode": "HM",
        "index": "H",
        "syllables": "HEDEDAOHEMAIKETANGNAQUNDAO"
      },
      {
        "regionCode": "ME",
        "regionName": "é»‘å±±",
        "regionFlag": "ğŸ‡²ğŸ‡ª",
        "callingCode": "+382",
        "index": "H",
        "syllables": "HEISHAN"
      },
      {
        "regionFlag": "ğŸ‡³ğŸ‡±",
        "regionCode": "NL",
        "regionName": "è·å…°",
        "callingCode": "+31",
        "index": "H",
        "syllables": "HELAN"
      },
      {
        "regionName": "è·å±åŠ å‹’æ¯”åŒº",
        "callingCode": "+599",
        "regionFlag": "ğŸ‡§ğŸ‡¶",
        "regionCode": "BQ",
        "index": "H",
        "syllables": "HESHUJIALEIBIQU"
      },
      {
        "regionFlag": "ğŸ‡¸ğŸ‡½",
        "regionName": "è·å±åœ£é©¬ä¸",
        "callingCode": "+1-721",
        "regionCode": "SX",
        "index": "H",
        "syllables": "HESHUSHENGMADING"
      },
      {
        "regionCode": "HN",
        "callingCode": "+504",
        "regionName": "æ´ªéƒ½æ‹‰æ–¯",
        "regionFlag": "ğŸ‡­ğŸ‡³",
        "index": "H",
        "syllables": "HONGDOULASI"
      }
    ]
  },
  {
    "index": "J",
    "items": [
      {
        "callingCode": "+233",
        "regionFlag": "ğŸ‡¬ğŸ‡­",
        "regionCode": "GH",
        "regionName": "åŠ çº³",
        "index": "J",
        "syllables": "JIANA"
      },
      {
        "callingCode": "+1",
        "regionCode": "CA",
        "regionName": "åŠ æ‹¿å¤§",
        "regionFlag": "ğŸ‡¨ğŸ‡¦",
        "index": "J",
        "syllables": "JIANADA"
      },
      {
        "regionFlag": "ğŸ‡°ğŸ‡­",
        "regionCode": "KH",
        "callingCode": "+855",
        "regionName": "æŸ¬åŸ”å¯¨",
        "index": "J",
        "syllables": "JIANBUZHAI"
      },
      {
        "regionFlag": "ğŸ‡¬ğŸ‡¦",
        "callingCode": "+241",
        "regionName": "åŠ è“¬",
        "regionCode": "GA",
        "index": "J",
        "syllables": "JIAPENG"
      },
      {
        "regionCode": "DJ",
        "callingCode": "+253",
        "regionName": "å‰å¸ƒæ",
        "regionFlag": "ğŸ‡©ğŸ‡¯",
        "index": "J",
        "syllables": "JIBUTI"
      },
      {
        "callingCode": "+420",
        "regionFlag": "ğŸ‡¨ğŸ‡¿",
        "regionCode": "CZ",
        "regionName": "æ·å…‹",
        "index": "J",
        "syllables": "JIEKE"
      },
      {
        "callingCode": "+996",
        "regionFlag": "ğŸ‡°ğŸ‡¬",
        "regionName": "å‰å°”å‰æ–¯æ–¯å¦",
        "regionCode": "KG",
        "index": "J",
        "syllables": "JIERJISISITAN"
      },
      {
        "regionCode": "KI",
        "regionName": "åŸºé‡Œå·´æ–¯",
        "callingCode": "+686",
        "regionFlag": "ğŸ‡°ğŸ‡®",
        "index": "J",
        "syllables": "JILIBASI"
      },
      {
        "regionName": "æ´¥å·´å¸ƒéŸ¦",
        "regionCode": "ZW",
        "regionFlag": "ğŸ‡¿ğŸ‡¼",
        "callingCode": "+263",
        "index": "J",
        "syllables": "JINBABUWEI"
      },
      {
        "regionName": "å‡ å†…äºš",
        "regionFlag": "ğŸ‡¬ğŸ‡³",
        "regionCode": "GN",
        "callingCode": "+224",
        "index": "J",
        "syllables": "JINEIYA"
      },
      {
        "regionCode": "GW",
        "regionName": "å‡ å†…äºšæ¯”ç»",
        "callingCode": "+245",
        "regionFlag": "ğŸ‡¬ğŸ‡¼",
        "index": "J",
        "syllables": "JINEIYABISHAO"
      }
    ]
  },
  {
    "index": "K",
    "items": [
      {
        "callingCode": "+345",
        "regionFlag": "ğŸ‡°ğŸ‡¾",
        "regionCode": "KY",
        "regionName": "å¼€æ›¼ç¾¤å²›",
        "index": "K",
        "syllables": "KAIMANQUNDAO"
      },
      {
        "callingCode": "+237",
        "regionFlag": "ğŸ‡¨ğŸ‡²",
        "regionCode": "CM",
        "regionName": "å–€éº¦éš†",
        "index": "K",
        "syllables": "KAMAILONG"
      },
      {
        "regionCode": "QA",
        "regionName": "å¡å¡”å°”",
        "regionFlag": "ğŸ‡¶ğŸ‡¦",
        "callingCode": "+974",
        "index": "K",
        "syllables": "KATAER"
      },
      {
        "regionCode": "CC",
        "regionFlag": "ğŸ‡¨ğŸ‡¨",
        "regionName": "ç§‘ç§‘æ–¯ï¼ˆåŸºæ—ï¼‰ç¾¤å²›",
        "callingCode": "+61",
        "index": "K",
        "syllables": "KEKESIï¼ˆJILINï¼‰QUNDAO"
      },
      {
        "regionCode": "HR",
        "regionFlag": "ğŸ‡­ğŸ‡·",
        "regionName": "å…‹ç½—åœ°äºš",
        "callingCode": "+385",
        "index": "K",
        "syllables": "KELUODEYA"
      },
      {
        "regionName": "ç§‘æ‘©ç½—",
        "callingCode": "+269",
        "regionFlag": "ğŸ‡°ğŸ‡²",
        "regionCode": "KM",
        "index": "K",
        "syllables": "KEMOLUO"
      },
      {
        "callingCode": "+254",
        "regionFlag": "ğŸ‡°ğŸ‡ª",
        "regionName": "è‚¯å°¼äºš",
        "regionCode": "KE",
        "index": "K",
        "syllables": "KENNIYA"
      },
      {
        "callingCode": "+225",
        "regionFlag": "ğŸ‡¨ğŸ‡®",
        "regionCode": "CI",
        "regionName": "ç§‘ç‰¹è¿ªç“¦",
        "index": "K",
        "syllables": "KETEDIWA"
      },
      {
        "callingCode": "+965",
        "regionCode": "KW",
        "regionFlag": "ğŸ‡°ğŸ‡¼",
        "regionName": "ç§‘å¨ç‰¹",
        "index": "K",
        "syllables": "KEWEITE"
      },
      {
        "regionFlag": "ğŸ‡¨ğŸ‡°",
        "regionCode": "CK",
        "regionName": "åº“å…‹ç¾¤å²›",
        "callingCode": "+682",
        "index": "K",
        "syllables": "KUKEQUNDAO"
      },
      {
        "regionFlag": "ğŸ‡¨ğŸ‡¼",
        "regionCode": "CW",
        "regionName": "åº“æ‹‰ç´¢",
        "callingCode": "+599 9",
        "index": "K",
        "syllables": "KULASUO"
      },
      {
        "regionFlag": "ğŸ‡½ğŸ‡°",
        "regionCode": "XK",
        "regionName": "Kosovo",
        "callingCode": "+383",
        "index": "K",
        "syllables": "Kosovo"
      }
    ]
  },
  {
    "index": "L",
    "items": [
      {
        "regionName": "è±ç´¢æ‰˜",
        "regionFlag": "ğŸ‡±ğŸ‡¸",
        "callingCode": "+266",
        "regionCode": "LS",
        "index": "L",
        "syllables": "LAISUOTUO"
      },
      {
        "regionName": "è€æŒ",
        "callingCode": "+856",
        "regionCode": "LA",
        "regionFlag": "ğŸ‡±ğŸ‡¦",
        "index": "L",
        "syllables": "LAOWO"
      },
      {
        "regionName": "æ‹‰è„±ç»´äºš",
        "regionFlag": "ğŸ‡±ğŸ‡»",
        "callingCode": "+371",
        "regionCode": "LV",
        "index": "L",
        "syllables": "LATUOWEIYA"
      },
      {
        "regionName": "é»å·´å«©",
        "callingCode": "+961",
        "regionFlag": "ğŸ‡±ğŸ‡§",
        "regionCode": "LB",
        "index": "L",
        "syllables": "LIBANEN"
      },
      {
        "regionName": "åˆ©æ¯”é‡Œäºš",
        "regionCode": "LR",
        "regionFlag": "ğŸ‡±ğŸ‡·",
        "callingCode": "+231",
        "index": "L",
        "syllables": "LIBILIYA"
      },
      {
        "callingCode": "+218",
        "regionFlag": "ğŸ‡±ğŸ‡¾",
        "regionCode": "LY",
        "regionName": "åˆ©æ¯”äºš",
        "index": "L",
        "syllables": "LIBIYA"
      },
      {
        "regionFlag": "ğŸ‡±ğŸ‡®",
        "regionName": "åˆ—æ”¯æ•¦å£«ç™»",
        "regionCode": "LI",
        "callingCode": "+423",
        "index": "L",
        "syllables": "LIEZHIDUNSHIDENG"
      },
      {
        "regionName": "ç«‹é™¶å®›",
        "regionCode": "LT",
        "callingCode": "+370",
        "regionFlag": "ğŸ‡±ğŸ‡¹",
        "index": "L",
        "syllables": "LITAOWAN"
      },
      {
        "regionFlag": "ğŸ‡·ğŸ‡ª",
        "regionName": "ç•™å°¼æ±ª",
        "regionCode": "RE",
        "callingCode": "+262",
        "index": "L",
        "syllables": "LIUNIWANG"
      },
      {
        "callingCode": "+40",
        "regionFlag": "ğŸ‡·ğŸ‡´",
        "regionName": "ç½—é©¬å°¼äºš",
        "regionCode": "RO",
        "index": "L",
        "syllables": "LUOMANIYA"
      },
      {
        "callingCode": "+352",
        "regionFlag": "ğŸ‡±ğŸ‡º",
        "regionName": "å¢æ£®å ¡",
        "regionCode": "LU",
        "index": "L",
        "syllables": "LUSENBAO"
      },
      {
        "regionFlag": "ğŸ‡·ğŸ‡¼",
        "regionName": "å¢æ—ºè¾¾",
        "callingCode": "+250",
        "regionCode": "RW",
        "index": "L",
        "syllables": "LUWANGDA"
      }
    ]
  },
  {
    "index": "M",
    "items": [
      {
        "regionName": "é©¬è¾¾åŠ æ–¯åŠ ",
        "regionFlag": "ğŸ‡²ğŸ‡¬",
        "regionCode": "MG",
        "callingCode": "+261",
        "index": "M",
        "syllables": "MADAJIASIJIA"
      },
      {
        "regionCode": "IM",
        "callingCode": "+44",
        "regionFlag": "ğŸ‡®ğŸ‡²",
        "regionName": "é©¬æ©å²›",
        "index": "M",
        "syllables": "MAENDAO"
      },
      {
        "regionName": "é©¬å°”ä»£å¤«",
        "callingCode": "+960",
        "regionCode": "MV",
        "regionFlag": "ğŸ‡²ğŸ‡»",
        "index": "M",
        "syllables": "MAERDAIFU"
      },
      {
        "regionFlag": "ğŸ‡²ğŸ‡¹",
        "regionName": "é©¬è€³ä»–",
        "regionCode": "MT",
        "callingCode": "+356",
        "index": "M",
        "syllables": "MAERTA"
      },
      {
        "regionName": "é©¬æ¥è¥¿äºš",
        "callingCode": "+60",
        "regionCode": "MY",
        "regionFlag": "ğŸ‡²ğŸ‡¾",
        "index": "M",
        "syllables": "MALAIXIYA"
      },
      {
        "callingCode": "+265",
        "regionFlag": "ğŸ‡²ğŸ‡¼",
        "regionCode": "MW",
        "regionName": "é©¬æ‹‰ç»´",
        "index": "M",
        "syllables": "MALAWEI"
      },
      {
        "callingCode": "+223",
        "regionCode": "ML",
        "regionFlag": "ğŸ‡²ğŸ‡±",
        "regionName": "é©¬é‡Œ",
        "index": "M",
        "syllables": "MALI"
      },
      {
        "regionName": "æ¯›é‡Œæ±‚æ–¯",
        "regionFlag": "ğŸ‡²ğŸ‡º",
        "callingCode": "+230",
        "regionCode": "MU",
        "index": "M",
        "syllables": "MAOLIQIUSI"
      },
      {
        "regionFlag": "ğŸ‡²ğŸ‡·",
        "callingCode": "+222",
        "regionCode": "MR",
        "regionName": "æ¯›é‡Œå¡”å°¼äºš",
        "index": "M",
        "syllables": "MAOLITANIYA"
      },
      {
        "regionName": "é©¬ç»å°”ç¾¤å²›",
        "regionCode": "MH",
        "regionFlag": "ğŸ‡²ğŸ‡­",
        "callingCode": "+692",
        "index": "M",
        "syllables": "MASHAOERQUNDAO"
      },
      {
        "regionFlag": "ğŸ‡²ğŸ‡¶",
        "regionName": "é©¬æå°¼å…‹",
        "callingCode": "+596",
        "regionCode": "MQ",
        "index": "M",
        "syllables": "MATINIKE"
      },
      {
        "callingCode": "+262",
        "regionName": "é©¬çº¦ç‰¹",
        "regionCode": "YT",
        "regionFlag": "ğŸ‡¾ğŸ‡¹",
        "index": "M",
        "syllables": "MAYUETE"
      },
      {
        "callingCode": "+1",
        "regionName": "ç¾å›½",
        "regionFlag": "ğŸ‡ºğŸ‡¸",
        "regionCode": "US",
        "index": "M",
        "syllables": "MEIGUO"
      },
      {
        "callingCode": "+1",
        "regionFlag": "ğŸ‡ºğŸ‡¸",
        "regionCode": "UM",
        "regionName": "ç¾å›½æœ¬åœŸå¤–å°å²›å±¿",
        "index": "M",
        "syllables": "MEIGUOBENTUWAIXIAODAOYU"
      },
      {
        "callingCode": "+1-684",
        "regionName": "ç¾å±è¨æ‘©äºš",
        "regionFlag": "ğŸ‡¦ğŸ‡¸",
        "regionCode": "AS",
        "index": "M",
        "syllables": "MEISHUSAMOYA"
      },
      {
        "regionCode": "VI",
        "regionFlag": "ğŸ‡»ğŸ‡®",
        "regionName": "ç¾å±ç»´å°”äº¬ç¾¤å²›",
        "callingCode": "+1-340",
        "index": "M",
        "syllables": "MEISHUWEIERJINGQUNDAO"
      },
      {
        "regionFlag": "ğŸ‡²ğŸ‡³",
        "callingCode": "+976",
        "regionName": "è’™å¤",
        "regionCode": "MN",
        "index": "M",
        "syllables": "MENGGU"
      },
      {
        "callingCode": "+880",
        "regionCode": "BD",
        "regionFlag": "ğŸ‡§ğŸ‡©",
        "regionName": "å­ŸåŠ æ‹‰å›½",
        "index": "M",
        "syllables": "MENGJIALAGUO"
      },
      {
        "regionName": "è’™ç‰¹å¡æ‹‰ç‰¹",
        "regionCode": "MS",
        "regionFlag": "ğŸ‡²ğŸ‡¸",
        "callingCode": "+1-664",
        "index": "M",
        "syllables": "MENGTESAILATE"
      },
      {
        "regionCode": "MM",
        "regionName": "ç¼…ç”¸",
        "callingCode": "+95",
        "regionFlag": "ğŸ‡²ğŸ‡²",
        "index": "M",
        "syllables": "MIANDIAN"
      },
      {
        "regionFlag": "ğŸ‡«ğŸ‡²",
        "regionName": "å¯†å…‹ç½—å°¼è¥¿äºš",
        "callingCode": "+691",
        "regionCode": "FM",
        "index": "M",
        "syllables": "MIKELUONIXIYA"
      },
      {
        "regionCode": "PE",
        "regionName": "ç§˜é²",
        "callingCode": "+51",
        "regionFlag": "ğŸ‡µğŸ‡ª",
        "index": "M",
        "syllables": "MILU"
      },
      {
        "regionFlag": "ğŸ‡²ğŸ‡©",
        "regionCode": "MD",
        "regionName": "æ‘©å°”å¤šç“¦",
        "callingCode": "+373",
        "index": "M",
        "syllables": "MOERDUOWA"
      },
      {
        "regionCode": "MA",
        "regionName": "æ‘©æ´›å“¥",
        "regionFlag": "ğŸ‡²ğŸ‡¦",
        "callingCode": "+212",
        "index": "M",
        "syllables": "MOLUOGE"
      },
      {
        "regionFlag": "ğŸ‡²ğŸ‡¨",
        "callingCode": "+377",
        "regionName": "æ‘©çº³å“¥",
        "regionCode": "MC",
        "index": "M",
        "syllables": "MONAGE"
      },
      {
        "regionCode": "MZ",
        "regionFlag": "ğŸ‡²ğŸ‡¿",
        "callingCode": "+258",
        "regionName": "è«æ¡‘æ¯”å…‹",
        "index": "M",
        "syllables": "MOSANGBIKE"
      },
      {
        "regionFlag": "ğŸ‡²ğŸ‡½",
        "regionCode": "MX",
        "regionName": "å¢¨è¥¿å“¥",
        "callingCode": "+52",
        "index": "M",
        "syllables": "MOXIGE"
      }
    ]
  },
  {
    "index": "N",
    "items": [
      {
        "regionFlag": "ğŸ‡³ğŸ‡¦",
        "regionName": "çº³ç±³æ¯”äºš",
        "callingCode": "+264",
        "regionCode": "NA",
        "index": "N",
        "syllables": "NAMIBIYA"
      },
      {
        "regionCode": "ZA",
        "regionFlag": "ğŸ‡¿ğŸ‡¦",
        "regionName": "å—é",
        "callingCode": "+27",
        "index": "N",
        "syllables": "NANFEI"
      },
      {
        "regionFlag": "ğŸ‡¦ğŸ‡¶",
        "regionName": "å—ææ´²",
        "callingCode": "+672",
        "regionCode": "AQ",
        "index": "N",
        "syllables": "NANJIZHOU"
      },
      {
        "regionFlag": "ğŸ‡¬ğŸ‡¸",
        "regionName": "å—ä¹”æ²»äºšå’Œå—æ¡‘å¨å¥‡ç¾¤å²›",
        "regionCode": "GS",
        "callingCode": "+500",
        "index": "N",
        "syllables": "NANQIAOZHIYAHENANSANGWEIQIQUNDAO"
      },
      {
        "regionFlag": "ğŸ‡¸ğŸ‡¸",
        "callingCode": "+211",
        "regionCode": "SS",
        "regionName": "å—è‹ä¸¹",
        "index": "N",
        "syllables": "NANSUDAN"
      },
      {
        "regionFlag": "ğŸ‡³ğŸ‡·",
        "regionCode": "NR",
        "regionName": "ç‘™é²",
        "callingCode": "+674",
        "index": "N",
        "syllables": "NAOLU"
      },
      {
        "regionName": "å°¼åŠ æ‹‰ç“œ",
        "callingCode": "+505",
        "regionCode": "NI",
        "regionFlag": "ğŸ‡³ğŸ‡®",
        "index": "N",
        "syllables": "NIJIALAGUA"
      },
      {
        "regionFlag": "ğŸ‡³ğŸ‡µ",
        "regionName": "å°¼æ³Šå°”",
        "callingCode": "+977",
        "regionCode": "NP",
        "index": "N",
        "syllables": "NIPOER"
      },
      {
        "callingCode": "+227",
        "regionName": "å°¼æ—¥å°”",
        "regionFlag": "ğŸ‡³ğŸ‡ª",
        "regionCode": "NE",
        "index": "N",
        "syllables": "NIRIER"
      },
      {
        "regionFlag": "ğŸ‡³ğŸ‡¬",
        "regionName": "å°¼æ—¥åˆ©äºš",
        "regionCode": "NG",
        "callingCode": "+234",
        "index": "N",
        "syllables": "NIRILIYA"
      },
      {
        "regionCode": "NU",
        "regionName": "çº½åŸƒ",
        "regionFlag": "ğŸ‡³ğŸ‡º",
        "callingCode": "+683",
        "index": "N",
        "syllables": "NIUAI"
      },
      {
        "regionFlag": "ğŸ‡³ğŸ‡«",
        "regionName": "è¯ºç¦å…‹å²›",
        "callingCode": "+672",
        "regionCode": "NF",
        "index": "N",
        "syllables": "NUOFUKEDAO"
      },
      {
        "callingCode": "+47",
        "regionCode": "NO",
        "regionFlag": "ğŸ‡³ğŸ‡´",
        "regionName": "æŒªå¨",
        "index": "N",
        "syllables": "NUOWEI"
      }
    ]
  },
  {
    "index": "P",
    "items": [
      {
        "regionName": "å¸•åŠ³",
        "callingCode": "+680",
        "regionFlag": "ğŸ‡µğŸ‡¼",
        "regionCode": "PW",
        "index": "P",
        "syllables": "PALAO"
      },
      {
        "regionName": "çš®ç‰¹å‡¯æ©ç¾¤å²›",
        "callingCode": "+872",
        "regionCode": "PN",
        "regionFlag": "ğŸ‡µğŸ‡³",
        "index": "P",
        "syllables": "PITEKAIENQUNDAO"
      },
      {
        "regionCode": "PT",
        "regionFlag": "ğŸ‡µğŸ‡¹",
        "callingCode": "+351",
        "regionName": "è‘¡è„ç‰™",
        "index": "P",
        "syllables": "PUTAOYA"
      }
    ]
  },
  {
    "index": "R",
    "items": [
      {
        "regionCode": "JP",
        "callingCode": "+81",
        "regionFlag": "ğŸ‡¯ğŸ‡µ",
        "regionName": "æ—¥æœ¬",
        "index": "R",
        "syllables": "RIBEN"
      },
      {
        "regionName": "ç‘å…¸",
        "regionFlag": "ğŸ‡¸ğŸ‡ª",
        "callingCode": "+46",
        "regionCode": "SE",
        "index": "R",
        "syllables": "RUIDIAN"
      },
      {
        "callingCode": "+41",
        "regionName": "ç‘å£«",
        "regionFlag": "ğŸ‡¨ğŸ‡­",
        "regionCode": "CH",
        "index": "R",
        "syllables": "RUISHI"
      }
    ]
  },
  {
    "index": "S",
    "items": [
      {
        "callingCode": "+503",
        "regionFlag": "ğŸ‡¸ğŸ‡»",
        "regionCode": "SV",
        "regionName": "è¨å°”ç“¦å¤š",
        "index": "S",
        "syllables": "SAERWADUO"
      },
      {
        "regionName": "å¡å°”ç»´äºš",
        "regionCode": "RS",
        "regionFlag": "ğŸ‡·ğŸ‡¸",
        "callingCode": "+381",
        "index": "S",
        "syllables": "SAIERWEIYA"
      },
      {
        "callingCode": "+232",
        "regionFlag": "ğŸ‡¸ğŸ‡±",
        "regionCode": "SL",
        "regionName": "å¡æ‹‰åˆ©æ˜‚",
        "index": "S",
        "syllables": "SAILALIANG"
      },
      {
        "callingCode": "+221",
        "regionCode": "SN",
        "regionName": "å¡å†…åŠ å°”",
        "regionFlag": "ğŸ‡¸ğŸ‡³",
        "index": "S",
        "syllables": "SAINEIJIAER"
      },
      {
        "regionName": "å¡æµ¦è·¯æ–¯",
        "regionCode": "CY",
        "callingCode": "+357",
        "regionFlag": "ğŸ‡¨ğŸ‡¾",
        "index": "S",
        "syllables": "SAIPULUSI"
      },
      {
        "regionCode": "SC",
        "regionFlag": "ğŸ‡¸ğŸ‡¨",
        "callingCode": "+248",
        "regionName": "å¡èˆŒå°”",
        "index": "S",
        "syllables": "SAISHEER"
      },
      {
        "regionCode": "WS",
        "regionName": "è¨æ‘©äºš",
        "regionFlag": "ğŸ‡¼ğŸ‡¸",
        "callingCode": "+685",
        "index": "S",
        "syllables": "SAMOYA"
      },
      {
        "regionName": "æ²™ç‰¹é˜¿æ‹‰ä¼¯",
        "regionCode": "SA",
        "regionFlag": "ğŸ‡¸ğŸ‡¦",
        "callingCode": "+966",
        "index": "S",
        "syllables": "SHATEALABO"
      },
      {
        "callingCode": "+590",
        "regionName": "åœ£å·´æ³°å‹’ç±³",
        "regionCode": "BL",
        "regionFlag": "ğŸ‡§ğŸ‡±",
        "index": "S",
        "syllables": "SHENGBATAILEIMI"
      },
      {
        "regionCode": "CX",
        "regionName": "åœ£è¯å²›",
        "callingCode": "+61",
        "regionFlag": "ğŸ‡¨ğŸ‡½",
        "index": "S",
        "syllables": "SHENGDANDAO"
      },
      {
        "regionName": "åœ£å¤šç¾å’Œæ™®æ—è¥¿æ¯”",
        "callingCode": "+239",
        "regionCode": "ST",
        "regionFlag": "ğŸ‡¸ğŸ‡¹",
        "index": "S",
        "syllables": "SHENGDUOMEIHEPULINXIBI"
      },
      {
        "regionFlag": "ğŸ‡¸ğŸ‡­",
        "callingCode": "+290",
        "regionCode": "SH",
        "regionName": "åœ£èµ«å‹’æ‹¿",
        "index": "S",
        "syllables": "SHENGHELEINA"
      },
      {
        "regionFlag": "ğŸ‡°ğŸ‡³",
        "callingCode": "+1-869",
        "regionCode": "KN",
        "regionName": "åœ£åŸºèŒ¨å’Œå°¼ç»´æ–¯",
        "index": "S",
        "syllables": "SHENGJICIHENIWEISI"
      },
      {
        "regionFlag": "ğŸ‡±ğŸ‡¨",
        "regionName": "åœ£å¢è¥¿äºš",
        "callingCode": "+1-758",
        "regionCode": "LC",
        "index": "S",
        "syllables": "SHENGLUXIYA"
      },
      {
        "regionCode": "SM",
        "regionFlag": "ğŸ‡¸ğŸ‡²",
        "callingCode": "+378",
        "regionName": "åœ£é©¬åŠ›è¯º",
        "index": "S",
        "syllables": "SHENGMALINUO"
      },
      {
        "regionName": "åœ£çš®åŸƒå°”å’Œå¯†å…‹éš†ç¾¤å²›",
        "regionFlag": "ğŸ‡µğŸ‡²",
        "regionCode": "PM",
        "callingCode": "+508",
        "index": "S",
        "syllables": "SHENGPIAIERHEMIKELONGQUNDAO"
      },
      {
        "regionCode": "VC",
        "regionName": "åœ£æ–‡æ£®ç‰¹å’Œæ ¼æ—çº³ä¸æ–¯",
        "callingCode": "+1-784",
        "regionFlag": "ğŸ‡»ğŸ‡¨",
        "index": "S",
        "syllables": "SHENGWENSENTEHEGELINNADINGSI"
      },
      {
        "regionFlag": "ğŸ‡±ğŸ‡°",
        "callingCode": "+94",
        "regionCode": "LK",
        "regionName": "æ–¯é‡Œå…°å¡",
        "index": "S",
        "syllables": "SILILANKA"
      },
      {
        "regionCode": "SK",
        "regionName": "æ–¯æ´›ä¼å…‹",
        "callingCode": "+421",
        "regionFlag": "ğŸ‡¸ğŸ‡°",
        "index": "S",
        "syllables": "SILUOFAKE"
      },
      {
        "regionName": "æ–¯æ´›æ–‡å°¼äºš",
        "regionFlag": "ğŸ‡¸ğŸ‡®",
        "regionCode": "SI",
        "callingCode": "+386",
        "index": "S",
        "syllables": "SILUOWENNIYA"
      },
      {
        "callingCode": "+47",
        "regionName": "æ–¯ç“¦å°”å·´å’Œæ‰¬é©¬å»¶",
        "regionCode": "SJ",
        "regionFlag": "ğŸ‡¸ğŸ‡¯",
        "index": "S",
        "syllables": "SIWAERBAHEYANGMAYAN"
      },
      {
        "regionCode": "SZ",
        "regionName": "æ–¯å¨å£«å…°",
        "regionFlag": "ğŸ‡¸ğŸ‡¿",
        "callingCode": "+268",
        "index": "S",
        "syllables": "SIWEISHILAN"
      },
      {
        "regionCode": "SD",
        "regionName": "è‹ä¸¹",
        "regionFlag": "ğŸ‡¸ğŸ‡©",
        "callingCode": "+249",
        "index": "S",
        "syllables": "SUDAN"
      },
      {
        "regionFlag": "ğŸ‡¸ğŸ‡·",
        "regionName": "è‹é‡Œå—",
        "callingCode": "+597",
        "regionCode": "SR",
        "index": "S",
        "syllables": "SULINAN"
      },
      {
        "regionCode": "SB",
        "regionName": "æ‰€ç½—é—¨ç¾¤å²›",
        "callingCode": "+677",
        "regionFlag": "ğŸ‡¸ğŸ‡§",
        "index": "S",
        "syllables": "SUOLUOMENQUNDAO"
      },
      {
        "regionCode": "SO",
        "regionName": "ç´¢é©¬é‡Œ",
        "regionFlag": "ğŸ‡¸ğŸ‡´",
        "callingCode": "+252",
        "index": "S",
        "syllables": "SUOMALI"
      }
    ]
  },
  {
    "index": "T",
    "items": [
      {
        "callingCode": "+66",
        "regionCode": "TH",
        "regionFlag": "ğŸ‡¹ğŸ‡­",
        "regionName": "æ³°å›½",
        "index": "T",
        "syllables": "TAIGUO"
      },
      {
        "regionCode": "TW",
        "regionName": "å°æ¹¾",
        "regionFlag": "ğŸ‡¨ğŸ‡³",
        "callingCode": "+886",
        "index": "T",
        "syllables": "TAIWAN"
      },
      {
        "regionName": "å¡”å‰å…‹æ–¯å¦",
        "regionCode": "TJ",
        "callingCode": "+992",
        "regionFlag": "ğŸ‡¹ğŸ‡¯",
        "index": "T",
        "syllables": "TAJIKESITAN"
      },
      {
        "callingCode": "+676",
        "regionFlag": "ğŸ‡¹ğŸ‡´",
        "regionCode": "TO",
        "regionName": "æ±¤åŠ ",
        "index": "T",
        "syllables": "TANGJIA"
      },
      {
        "regionName": "å¦æ¡‘å°¼äºš",
        "callingCode": "+255",
        "regionCode": "TZ",
        "regionFlag": "ğŸ‡¹ğŸ‡¿",
        "index": "T",
        "syllables": "TANSANGNIYA"
      },
      {
        "callingCode": "+1-649",
        "regionFlag": "ğŸ‡¹ğŸ‡¨",
        "regionCode": "TC",
        "regionName": "ç‰¹å…‹æ–¯å’Œå‡¯ç§‘æ–¯ç¾¤å²›",
        "index": "T",
        "syllables": "TEKESIHEKAIKESIQUNDAO"
      },
      {
        "callingCode": "+1-868",
        "regionCode": "TT",
        "regionName": "ç‰¹ç«‹å°¼è¾¾å’Œå¤šå·´å“¥",
        "regionFlag": "ğŸ‡¹ğŸ‡¹",
        "index": "T",
        "syllables": "TELINIDAHEDUOBAGE"
      },
      {
        "regionName": "åœŸè€³å…¶",
        "regionCode": "TR",
        "regionFlag": "ğŸ‡¹ğŸ‡·",
        "callingCode": "+90",
        "index": "T",
        "syllables": "TUERQI"
      },
      {
        "regionFlag": "ğŸ‡¹ğŸ‡²",
        "regionName": "åœŸåº“æ›¼æ–¯å¦",
        "callingCode": "+993",
        "regionCode": "TM",
        "index": "T",
        "syllables": "TUKUMANSITAN"
      },
      {
        "regionFlag": "ğŸ‡¹ğŸ‡³",
        "callingCode": "+216",
        "regionCode": "TN",
        "regionName": "çªå°¼æ–¯",
        "index": "T",
        "syllables": "TUNISI"
      },
      {
        "regionFlag": "ğŸ‡¹ğŸ‡°",
        "regionName": "æ‰˜å…‹åŠ³",
        "regionCode": "TK",
        "callingCode": "+690",
        "index": "T",
        "syllables": "TUOKELAO"
      },
      {
        "regionName": "å›¾ç“¦å¢",
        "regionCode": "TV",
        "callingCode": "+688",
        "regionFlag": "ğŸ‡¹ğŸ‡»",
        "index": "T",
        "syllables": "TUWALU"
      },
      {
        "regionFlag": "ğŸ‡¹ğŸ‡¦",
        "regionName": "Tristan da Cunha",
        "regionCode": "TA",
        "callingCode": "+290",
        "index": "T",
        "syllables": "Tristan da Cunha"
      }
    ]
  },
  {
    "index": "W",
    "items": [
      {
        "callingCode": "+681",
        "regionFlag": "ğŸ‡¼ğŸ‡«",
        "regionCode": "WF",
        "regionName": "ç“¦åˆ©æ–¯å’Œå¯Œå›¾çº³",
        "index": "W",
        "syllables": "WALISIHEFUTUNA"
      },
      {
        "callingCode": "+678",
        "regionName": "ç“¦åŠªé˜¿å›¾",
        "regionFlag": "ğŸ‡»ğŸ‡º",
        "regionCode": "VU",
        "index": "W",
        "syllables": "WANUATU"
      },
      {
        "regionCode": "GT",
        "regionFlag": "ğŸ‡¬ğŸ‡¹",
        "callingCode": "+502",
        "regionName": "å±åœ°é©¬æ‹‰",
        "index": "W",
        "syllables": "WEIDEMALA"
      },
      {
        "regionFlag": "ğŸ‡»ğŸ‡ª",
        "regionCode": "VE",
        "regionName": "å§”å†…ç‘æ‹‰",
        "callingCode": "+58",
        "index": "W",
        "syllables": "WEINEIRUILA"
      },
      {
        "regionName": "æ–‡è±",
        "regionCode": "BN",
        "regionFlag": "ğŸ‡§ğŸ‡³",
        "callingCode": "+673",
        "index": "W",
        "syllables": "WENLAI"
      },
      {
        "regionFlag": "ğŸ‡ºğŸ‡¬",
        "regionCode": "UG",
        "callingCode": "+256",
        "regionName": "ä¹Œå¹²è¾¾",
        "index": "W",
        "syllables": "WUGANDA"
      },
      {
        "regionName": "ä¹Œå…‹å…°",
        "callingCode": "+380",
        "regionCode": "UA",
        "regionFlag": "ğŸ‡ºğŸ‡¦",
        "index": "W",
        "syllables": "WUKELAN"
      },
      {
        "regionFlag": "ğŸ‡ºğŸ‡¾",
        "regionCode": "UY",
        "regionName": "ä¹Œæ‹‰åœ­",
        "callingCode": "+598",
        "index": "W",
        "syllables": "WULAGUI"
      },
      {
        "regionName": "ä¹Œå…¹åˆ«å…‹æ–¯å¦",
        "callingCode": "+998",
        "regionFlag": "ğŸ‡ºğŸ‡¿",
        "regionCode": "UZ",
        "index": "W",
        "syllables": "WUZIBIEKESITAN"
      }
    ]
  },
  {
    "index": "X",
    "items": [
      {
        "regionFlag": "ğŸ‡ªğŸ‡¸",
        "callingCode": "+34",
        "regionCode": "ES",
        "regionName": "è¥¿ç­ç‰™",
        "index": "X",
        "syllables": "XIBANYA"
      },
      {
        "callingCode": "+30",
        "regionCode": "GR",
        "regionFlag": "ğŸ‡¬ğŸ‡·",
        "regionName": "å¸Œè…Š",
        "index": "X",
        "syllables": "XILA"
      },
      {
        "callingCode": "+65",
        "regionFlag": "ğŸ‡¸ğŸ‡¬",
        "regionName": "æ–°åŠ å¡",
        "regionCode": "SG",
        "index": "X",
        "syllables": "XINJIAPO"
      },
      {
        "regionName": "æ–°å–€é‡Œå¤šå°¼äºš",
        "regionCode": "NC",
        "callingCode": "+687",
        "regionFlag": "ğŸ‡³ğŸ‡¨",
        "index": "X",
        "syllables": "XINKALIDUONIYA"
      },
      {
        "regionCode": "NZ",
        "regionFlag": "ğŸ‡³ğŸ‡¿",
        "regionName": "æ–°è¥¿å…°",
        "callingCode": "+64",
        "index": "X",
        "syllables": "XINXILAN"
      },
      {
        "regionCode": "HU",
        "regionName": "åŒˆç‰™åˆ©",
        "regionFlag": "ğŸ‡­ğŸ‡º",
        "callingCode": "+36",
        "index": "X",
        "syllables": "XIONGYALI"
      },
      {
        "regionName": "è¥¿æ’’å“ˆæ‹‰",
        "regionFlag": "ğŸ‡ªğŸ‡­",
        "regionCode": "EH",
        "callingCode": "+212",
        "index": "X",
        "syllables": "XISAHALA"
      },
      {
        "regionCode": "SY",
        "regionFlag": "ğŸ‡¸ğŸ‡¾",
        "regionName": "å™åˆ©äºš",
        "callingCode": "+963",
        "index": "X",
        "syllables": "XULIYA"
      }
    ]
  },
  {
    "index": "Y",
    "items": [
      {
        "callingCode": "+1-876",
        "regionFlag": "ğŸ‡¯ğŸ‡²",
        "regionCode": "JM",
        "regionName": "ç‰™ä¹°åŠ ",
        "index": "Y",
        "syllables": "YAMAIJIA"
      },
      {
        "regionCode": "AM",
        "regionFlag": "ğŸ‡¦ğŸ‡²",
        "regionName": "äºšç¾å°¼äºš",
        "callingCode": "+374",
        "index": "Y",
        "syllables": "YAMEINIYA"
      },
      {
        "regionName": "ä¹Ÿé—¨",
        "regionCode": "YE",
        "callingCode": "+967",
        "regionFlag": "ğŸ‡¾ğŸ‡ª",
        "index": "Y",
        "syllables": "YEMEN"
      },
      {
        "regionName": "æ„å¤§åˆ©",
        "callingCode": "+39",
        "regionCode": "IT",
        "regionFlag": "ğŸ‡®ğŸ‡¹",
        "index": "Y",
        "syllables": "YIDALI"
      },
      {
        "callingCode": "+964",
        "regionCode": "IQ",
        "regionFlag": "ğŸ‡®ğŸ‡¶",
        "regionName": "ä¼Šæ‹‰å…‹",
        "index": "Y",
        "syllables": "YILAKE"
      },
      {
        "regionFlag": "ğŸ‡®ğŸ‡·",
        "callingCode": "+98",
        "regionCode": "IR",
        "regionName": "ä¼Šæœ—",
        "index": "Y",
        "syllables": "YILANG"
      },
      {
        "regionCode": "IN",
        "regionFlag": "ğŸ‡®ğŸ‡³",
        "regionName": "å°åº¦",
        "callingCode": "+91",
        "index": "Y",
        "syllables": "YINDU"
      },
      {
        "regionCode": "ID",
        "regionFlag": "ğŸ‡®ğŸ‡©",
        "callingCode": "+62",
        "regionName": "å°åº¦å°¼è¥¿äºš",
        "index": "Y",
        "syllables": "YINDUNIXIYA"
      },
      {
        "callingCode": "+44",
        "regionFlag": "ğŸ‡¬ğŸ‡§",
        "regionCode": "GB",
        "regionName": "è‹±å›½",
        "index": "Y",
        "syllables": "YINGGUO"
      },
      {
        "callingCode": "+1-284",
        "regionName": "è‹±å±ç»´å°”äº¬ç¾¤å²›",
        "regionCode": "VG",
        "regionFlag": "ğŸ‡»ğŸ‡¬",
        "index": "Y",
        "syllables": "YINGSHUWEIERJINGQUNDAO"
      },
      {
        "regionFlag": "ğŸ‡®ğŸ‡´",
        "regionCode": "IO",
        "callingCode": "+246",
        "regionName": "è‹±å±å°åº¦æ´‹é¢†åœ°",
        "index": "Y",
        "syllables": "YINGSHUYINDUYANGLINGDE"
      },
      {
        "regionName": "ä»¥è‰²åˆ—",
        "regionFlag": "ğŸ‡®ğŸ‡±",
        "callingCode": "+972",
        "regionCode": "IL",
        "index": "Y",
        "syllables": "YISELIE"
      },
      {
        "regionName": "çº¦æ—¦",
        "regionFlag": "ğŸ‡¯ğŸ‡´",
        "regionCode": "JO",
        "callingCode": "+962",
        "index": "Y",
        "syllables": "YUEDAN"
      },
      {
        "callingCode": "+84",
        "regionName": "è¶Šå—",
        "regionCode": "VN",
        "regionFlag": "ğŸ‡»ğŸ‡³",
        "index": "Y",
        "syllables": "YUENAN"
      }
    ]
  },
  {
    "index": "Z",
    "items": [
      {
        "callingCode": "+260",
        "regionFlag": "ğŸ‡¿ğŸ‡²",
        "regionCode": "ZM",
        "regionName": "èµæ¯”äºš",
        "index": "Z",
        "syllables": "ZANBIYA"
      },
      {
        "regionName": "æ³½è¥¿å²›",
        "regionCode": "JE",
        "regionFlag": "ğŸ‡¯ğŸ‡ª",
        "callingCode": "+44",
        "index": "Z",
        "syllables": "ZEXIDAO"
      },
      {
        "regionName": "ä¹å¾—",
        "regionFlag": "ğŸ‡¹ğŸ‡©",
        "callingCode": "+235",
        "regionCode": "TD",
        "index": "Z",
        "syllables": "ZHADE"
      },
      {
        "regionName": "ç›´å¸ƒç½—é™€",
        "regionCode": "GI",
        "regionFlag": "ğŸ‡¬ğŸ‡®",
        "callingCode": "+350",
        "index": "Z",
        "syllables": "ZHIBULUOTUO"
      },
      {
        "regionName": "æ™ºåˆ©",
        "regionCode": "CL",
        "callingCode": "+56",
        "regionFlag": "ğŸ‡¨ğŸ‡±",
        "index": "Z",
        "syllables": "ZHILI"
      },
      {
        "callingCode": "+236",
        "regionCode": "CF",
        "regionFlag": "ğŸ‡¨ğŸ‡«",
        "regionName": "ä¸­éå…±å’Œå›½",
        "index": "Z",
        "syllables": "ZHONGFEIGONGHEGUO"
      },
      {
        "regionFlag": "ğŸ‡¨ğŸ‡³",
        "callingCode": "+86",
        "regionName": "ä¸­å›½",
        "regionCode": "CN",
        "index": "Z",
        "syllables": "ZHONGGUO"
      },
      {
        "regionFlag": "ğŸ‡²ğŸ‡´",
        "regionCode": "MO",
        "callingCode": "+853",
        "regionName": "ä¸­å›½æ¾³é—¨ç‰¹åˆ«è¡Œæ”¿åŒº",
        "index": "Z",
        "syllables": "ZHONGGUOAOMENTEBIEXINGZHENGQU"
      },
      {
        "regionCode": "HK",
        "regionName": "ä¸­å›½é¦™æ¸¯ç‰¹åˆ«è¡Œæ”¿åŒº",
        "regionFlag": "ğŸ‡­ğŸ‡°",
        "callingCode": "+852",
        "index": "Z",
        "syllables": "ZHONGGUOXIANGGANGTEBIEXINGZHENGQU"
      }
    ]
  }
]