[
  {
    "index": "A",
    "items": [
      {
        "regionName": "Ascension Island",
        "callingCode": "+247",
        "regionCode": "AC",
        "regionFlag": "ğŸ‡¦ğŸ‡¨",
        "index": "A",
        "syllables": "Ascension Island"
      }
    ]
  },
  {
    "index": "K",
    "items": [
      {
        "regionFlag": "ğŸ‡½ğŸ‡°",
        "regionCode": "XK",
        "regionName": "Kosovo",
        "callingCode": "+383",
        "index": "K",
        "syllables": "Kosovo"
      }
    ]
  },
  {
    "index": "T",
    "items": [
      {
        "regionFlag": "ğŸ‡¹ğŸ‡¦",
        "regionName": "Tristan da Cunha",
        "regionCode": "TA",
        "callingCode": "+290",
        "index": "T",
        "syllables": "Tristan da Cunha"
      }
    ]
  },
  {
    "index": "ã„±",
    "items": [
      {
        "callingCode": "+233",
        "regionFlag": "ğŸ‡¬ğŸ‡­",
        "regionCode": "GH",
        "regionName": "ê°€ë‚˜",
        "index": "ã„±",
        "syllables": "ã„±ã…ã„´ã…"
      },
      {
        "regionCode": "GM",
        "callingCode": "+220",
        "regionFlag": "ğŸ‡¬ğŸ‡²",
        "regionName": "ê°ë¹„ì•„",
        "index": "ã„±",
        "syllables": "ã„±ã…ã…ã…‚ã…£ã…‡ã…"
      },
      {
        "regionFlag": "ğŸ‡¬ğŸ‡¦",
        "callingCode": "+241",
        "regionName": "ê°€ë´‰",
        "regionCode": "GA",
        "index": "ã„±",
        "syllables": "ã„±ã…ã…‚ã…—ã…‡"
      },
      {
        "callingCode": "+595",
        "regionName": "ê°€ì´ì•„ë‚˜",
        "regionCode": "GY",
        "regionFlag": "ğŸ‡¬ğŸ‡¾",
        "index": "ã„±",
        "syllables": "ã„±ã…ã…‡ã…£ã…‡ã…ã„´ã…"
      },
      {
        "callingCode": "+44",
        "regionName": "ê±´ì§€",
        "regionCode": "GG",
        "regionFlag": "ğŸ‡¬ğŸ‡¬",
        "index": "ã„±",
        "syllables": "ã„±ã…“ã„´ã…ˆã…£"
      },
      {
        "callingCode": "+590",
        "regionCode": "GP",
        "regionFlag": "ğŸ‡¬ğŸ‡µ",
        "regionName": "ê³¼ë“¤ë£¨í”„",
        "index": "ã„±",
        "syllables": "ã„±ã…—ã…ã„·ã…¡ã„¹ã„¹ã…œã…ã…¡"
      },
      {
        "regionCode": "GU",
        "callingCode": "+1-671",
        "regionName": "ê´Œ",
        "regionFlag": "ğŸ‡¬ğŸ‡º",
        "index": "ã„±",
        "syllables": "ã„±ã…—ã…ã…"
      },
      {
        "regionCode": "GT",
        "regionFlag": "ğŸ‡¬ğŸ‡¹",
        "callingCode": "+502",
        "regionName": "ê³¼í…Œë§ë¼",
        "index": "ã„±",
        "syllables": "ã„±ã…—ã…ã…Œã…”ã…ã…ã„¹ã„¹ã…"
      },
      {
        "regionCode": "GD",
        "regionName": "ê·¸ë ˆë‚˜ë‹¤",
        "callingCode": "+1-473",
        "regionFlag": "ğŸ‡¬ğŸ‡©",
        "index": "ã„±",
        "syllables": "ã„±ã…¡ã„¹ã…”ã„´ã…ã„·ã…"
      },
      {
        "regionFlag": "ğŸ‡¬ğŸ‡±",
        "regionCode": "GL",
        "regionName": "ê·¸ë¦°ë€ë“œ",
        "callingCode": "+299",
        "index": "ã„±",
        "syllables": "ã„±ã…¡ã„¹ã…£ã„´ã„¹ã…ã„´ã„·ã…¡"
      },
      {
        "callingCode": "+30",
        "regionCode": "GR",
        "regionFlag": "ğŸ‡¬ğŸ‡·",
        "regionName": "ê·¸ë¦¬ìŠ¤",
        "index": "ã„±",
        "syllables": "ã„±ã…¡ã„¹ã…£ã……ã…¡"
      },
      {
        "regionName": "ê¸°ë‹ˆ",
        "regionFlag": "ğŸ‡¬ğŸ‡³",
        "regionCode": "GN",
        "callingCode": "+224",
        "index": "ã„±",
        "syllables": "ã„±ã…£ã„´ã…£"
      },
      {
        "regionCode": "GW",
        "regionName": "ê¸°ë‹ˆë¹„ì‚¬ìš°",
        "callingCode": "+245",
        "regionFlag": "ğŸ‡¬ğŸ‡¼",
        "index": "ã„±",
        "syllables": "ã„±ã…£ã„´ã…£ã…‚ã…£ã……ã…ã…‡ã…œ"
      }
    ]
  },
  {
    "index": "ã„´",
    "items": [
      {
        "regionFlag": "ğŸ‡¦ğŸ‡¶",
        "regionName": "ë‚¨ê·¹ ëŒ€ë¥™",
        "callingCode": "+672",
        "regionCode": "AQ",
        "index": "ã„´",
        "syllables": "ã„´ã…ã…ã„±ã…¡ã„± ã„·ã…ã„¹ã… ã„±"
      },
      {
        "regionFlag": "ğŸ‡¸ğŸ‡¸",
        "callingCode": "+211",
        "regionCode": "SS",
        "regionName": "ë‚¨ìˆ˜ë‹¨",
        "index": "ã„´",
        "syllables": "ã„´ã…ã…ã……ã…œã„·ã…ã„´"
      },
      {
        "regionCode": "ZA",
        "regionFlag": "ğŸ‡¿ğŸ‡¦",
        "regionName": "ë‚¨ì•„í”„ë¦¬ì¹´",
        "callingCode": "+27",
        "index": "ã„´",
        "syllables": "ã„´ã…ã…ã…‡ã…ã…ã…¡ã„¹ã…£ã…‹ã…"
      },
      {
        "regionFlag": "ğŸ‡³ğŸ‡¦",
        "regionName": "ë‚˜ë¯¸ë¹„ì•„",
        "callingCode": "+264",
        "regionCode": "NA",
        "index": "ã„´",
        "syllables": "ã„´ã…ã…ã…£ã…‚ã…£ã…‡ã…"
      },
      {
        "regionFlag": "ğŸ‡³ğŸ‡·",
        "regionCode": "NR",
        "regionName": "ë‚˜ìš°ë£¨",
        "callingCode": "+674",
        "index": "ã„´",
        "syllables": "ã„´ã…ã…‡ã…œã„¹ã…œ"
      },
      {
        "regionFlag": "ğŸ‡³ğŸ‡¬",
        "regionName": "ë‚˜ì´ì§€ë¦¬ì•„",
        "regionCode": "NG",
        "callingCode": "+234",
        "index": "ã„´",
        "syllables": "ã„´ã…ã…‡ã…£ã…ˆã…£ã„¹ã…£ã…‡ã…"
      },
      {
        "regionFlag": "ğŸ‡³ğŸ‡±",
        "regionCode": "NL",
        "regionName": "ë„¤ëœë€ë“œ",
        "callingCode": "+31",
        "index": "ã„´",
        "syllables": "ã„´ã…”ã„·ã…“ã„¹ã„¹ã…ã„´ã„·ã…¡"
      },
      {
        "regionName": "ë„¤ëœë€ë“œë ¹ ì¹´ë¦¬ë¸Œ",
        "callingCode": "+599",
        "regionFlag": "ğŸ‡§ğŸ‡¶",
        "regionCode": "BQ",
        "index": "ã„´",
        "syllables": "ã„´ã…”ã„·ã…“ã„¹ã„¹ã…ã„´ã„·ã…¡ã„¹ã…•ã…‡ ã…‹ã…ã„¹ã…£ã…‚ã…¡"
      },
      {
        "regionFlag": "ğŸ‡³ğŸ‡µ",
        "regionName": "ë„¤íŒ”",
        "callingCode": "+977",
        "regionCode": "NP",
        "index": "ã„´",
        "syllables": "ã„´ã…”ã…ã…ã„¹"
      },
      {
        "callingCode": "+47",
        "regionCode": "NO",
        "regionFlag": "ğŸ‡³ğŸ‡´",
        "regionName": "ë…¸ë¥´ì›¨ì´",
        "index": "ã„´",
        "syllables": "ã„´ã…—ã„¹ã…¡ã…‡ã…œã…”ã…‡ã…£"
      },
      {
        "regionFlag": "ğŸ‡³ğŸ‡«",
        "regionName": "ë…¸í½ì„¬",
        "callingCode": "+672",
        "regionCode": "NF",
        "index": "ã„´",
        "syllables": "ã„´ã…—ã…ã…“ã„±ã……ã…“ã…"
      },
      {
        "regionCode": "NZ",
        "regionFlag": "ğŸ‡³ğŸ‡¿",
        "regionName": "ë‰´ì§ˆëœë“œ",
        "callingCode": "+64",
        "index": "ã„´",
        "syllables": "ã„´ã… ã…ˆã…£ã„¹ã„¹ã…ã„´ã„·ã…¡"
      },
      {
        "regionName": "ë‰´ì¹¼ë ˆë„ë‹ˆì•„",
        "regionCode": "NC",
        "callingCode": "+687",
        "regionFlag": "ğŸ‡³ğŸ‡¨",
        "index": "ã„´",
        "syllables": "ã„´ã… ã…‹ã…ã„¹ã„¹ã…”ã„·ã…—ã„´ã…£ã…‡ã…"
      },
      {
        "regionCode": "NU",
        "regionName": "ë‹ˆìš°ì—",
        "regionFlag": "ğŸ‡³ğŸ‡º",
        "callingCode": "+683",
        "index": "ã„´",
        "syllables": "ã„´ã…£ã…‡ã…œã…‡ã…”"
      },
      {
        "callingCode": "+227",
        "regionName": "ë‹ˆì œë¥´",
        "regionFlag": "ğŸ‡³ğŸ‡ª",
        "regionCode": "NE",
        "index": "ã„´",
        "syllables": "ã„´ã…£ã…ˆã…”ã„¹ã…¡"
      },
      {
        "regionName": "ë‹ˆì¹´ë¼ê³¼",
        "callingCode": "+505",
        "regionCode": "NI",
        "regionFlag": "ğŸ‡³ğŸ‡®",
        "index": "ã„´",
        "syllables": "ã„´ã…£ã…‹ã…ã„¹ã…ã„±ã…—ã…"
      }
    ]
  },
  {
    "index": "ã„·",
    "items": [
      {
        "regionCode": "TW",
        "regionName": "ëŒ€ë§Œ",
        "regionFlag": "ğŸ‡¨ğŸ‡³",
        "callingCode": "+886",
        "index": "ã„·",
        "syllables": "ã„·ã…ã…ã…ã„´"
      },
      {
        "regionFlag": "ğŸ‡°ğŸ‡·",
        "callingCode": "+82",
        "regionName": "ëŒ€í•œë¯¼êµ­",
        "regionCode": "KR",
        "index": "ã„·",
        "syllables": "ã„·ã…ã…ã…ã„´ã…ã…£ã„´ã„±ã…œã„±"
      },
      {
        "regionFlag": "ğŸ‡©ğŸ‡°",
        "regionCode": "DK",
        "regionName": "ë´ë§ˆí¬",
        "callingCode": "+45",
        "index": "ã„·",
        "syllables": "ã„·ã…”ã„´ã…ã…ã…‹ã…¡"
      },
      {
        "regionName": "ë…ì¼",
        "regionFlag": "ğŸ‡©ğŸ‡ª",
        "regionCode": "DE",
        "callingCode": "+49",
        "index": "ã„·",
        "syllables": "ã„·ã…—ã„±ã…‡ã…£ã„¹"
      },
      {
        "callingCode": "+1-767",
        "regionFlag": "ğŸ‡©ğŸ‡²",
        "regionName": "ë„ë¯¸ë‹ˆì¹´",
        "regionCode": "DM",
        "index": "ã„·",
        "syllables": "ã„·ã…—ã…ã…£ã„´ã…£ã…‹ã…"
      },
      {
        "regionFlag": "ğŸ‡©ğŸ‡´",
        "regionCode": "DO",
        "regionName": "ë„ë¯¸ë‹ˆì¹´ ê³µí™”êµ­",
        "callingCode": "+1-849",
        "index": "ã„·",
        "syllables": "ã„·ã…—ã…ã…£ã„´ã…£ã…‹ã… ã„±ã…—ã…‡ã…ã…—ã…ã„±ã…œã„±"
      },
      {
        "regionCode": "TL",
        "regionName": "ë™í‹°ëª¨ë¥´",
        "callingCode": "+670",
        "regionFlag": "ğŸ‡¹ğŸ‡±",
        "index": "ã„·",
        "syllables": "ã„·ã…—ã…‡ã…Œã…£ã…ã…—ã„¹ã…¡"
      }
    ]
  },
  {
    "index": "ã„¹",
    "items": [
      {
        "regionName": "ë¼ì˜¤ìŠ¤",
        "callingCode": "+856",
        "regionCode": "LA",
        "regionFlag": "ğŸ‡±ğŸ‡¦",
        "index": "ã„¹",
        "syllables": "ã„¹ã…ã…‡ã…—ã……ã…¡"
      },
      {
        "regionName": "ë¼ì´ë² ë¦¬ì•„",
        "regionCode": "LR",
        "regionFlag": "ğŸ‡±ğŸ‡·",
        "callingCode": "+231",
        "index": "ã„¹",
        "syllables": "ã„¹ã…ã…‡ã…£ã…‚ã…”ã„¹ã…£ã…‡ã…"
      },
      {
        "regionName": "ë¼íŠ¸ë¹„ì•„",
        "regionFlag": "ğŸ‡±ğŸ‡»",
        "callingCode": "+371",
        "regionCode": "LV",
        "index": "ã„¹",
        "syllables": "ã„¹ã…ã…Œã…¡ã…‚ã…£ã…‡ã…"
      },
      {
        "regionFlag": "ğŸ‡·ğŸ‡º",
        "regionName": "ëŸ¬ì‹œì•„",
        "callingCode": "+7",
        "regionCode": "RU",
        "index": "ã„¹",
        "syllables": "ã„¹ã…“ã……ã…£ã…‡ã…"
      },
      {
        "regionName": "ë ˆë°”ë…¼",
        "callingCode": "+961",
        "regionFlag": "ğŸ‡±ğŸ‡§",
        "regionCode": "LB",
        "index": "ã„¹",
        "syllables": "ã„¹ã…”ã…‚ã…ã„´ã…—ã„´"
      },
      {
        "regionName": "ë ˆì†Œí† ",
        "regionFlag": "ğŸ‡±ğŸ‡¸",
        "callingCode": "+266",
        "regionCode": "LS",
        "index": "ã„¹",
        "syllables": "ã„¹ã…”ã……ã…—ã…Œã…—"
      },
      {
        "callingCode": "+352",
        "regionFlag": "ğŸ‡±ğŸ‡º",
        "regionName": "ë£©ì…ˆë¶€ë¥´í¬",
        "regionCode": "LU",
        "index": "ã„¹",
        "syllables": "ã„¹ã…œã„±ã……ã…”ã…ã…‚ã…œã„¹ã…¡ã…‹ã…¡"
      },
      {
        "callingCode": "+40",
        "regionFlag": "ğŸ‡·ğŸ‡´",
        "regionName": "ë£¨ë§ˆë‹ˆì•„",
        "regionCode": "RO",
        "index": "ã„¹",
        "syllables": "ã„¹ã…œã…ã…ã„´ã…£ã…‡ã…"
      },
      {
        "regionFlag": "ğŸ‡·ğŸ‡¼",
        "regionName": "ë¥´ì™„ë‹¤",
        "callingCode": "+250",
        "regionCode": "RW",
        "index": "ã„¹",
        "syllables": "ã„¹ã…¡ã…‡ã…—ã…ã„´ã„·ã…"
      },
      {
        "callingCode": "+218",
        "regionFlag": "ğŸ‡±ğŸ‡¾",
        "regionCode": "LY",
        "regionName": "ë¦¬ë¹„ì•„",
        "index": "ã„¹",
        "syllables": "ã„¹ã…£ã…‚ã…£ã…‡ã…"
      },
      {
        "regionFlag": "ğŸ‡·ğŸ‡ª",
        "regionName": "ë¦¬ìœ ë‹ˆì˜¨",
        "regionCode": "RE",
        "callingCode": "+262",
        "index": "ã„¹",
        "syllables": "ã„¹ã…£ã…‡ã… ã„´ã…£ã…‡ã…—ã„´"
      },
      {
        "regionName": "ë¦¬íˆ¬ì•„ë‹ˆì•„",
        "regionCode": "LT",
        "callingCode": "+370",
        "regionFlag": "ğŸ‡±ğŸ‡¹",
        "index": "ã„¹",
        "syllables": "ã„¹ã…£ã…Œã…œã…‡ã…ã„´ã…£ã…‡ã…"
      },
      {
        "regionFlag": "ğŸ‡±ğŸ‡®",
        "regionName": "ë¦¬íˆí…ìŠˆíƒ€ì¸",
        "regionCode": "LI",
        "callingCode": "+423",
        "index": "ã„¹",
        "syllables": "ã„¹ã…£ã…ã…£ã…Œã…”ã„´ã……ã… ã…Œã…ã…‡ã…£ã„´"
      }
    ]
  },
  {
    "index": "ã…",
    "items": [
      {
        "regionName": "ë§ˆë‹¤ê°€ìŠ¤ì¹´ë¥´",
        "regionFlag": "ğŸ‡²ğŸ‡¬",
        "regionCode": "MG",
        "callingCode": "+261",
        "index": "ã…",
        "syllables": "ã…ã…ã„·ã…ã„±ã…ã……ã…¡ã…‹ã…ã„¹ã…¡"
      },
      {
        "callingCode": "+265",
        "regionFlag": "ğŸ‡²ğŸ‡¼",
        "regionCode": "MW",
        "regionName": "ë§ë¼ìœ„",
        "index": "ã…",
        "syllables": "ã…ã…ã„¹ã„¹ã…ã…‡ã…œã…£"
      },
      {
        "regionName": "ë§ë ˆì´ì‹œì•„",
        "callingCode": "+60",
        "regionCode": "MY",
        "regionFlag": "ğŸ‡²ğŸ‡¾",
        "index": "ã…",
        "syllables": "ã…ã…ã„¹ã„¹ã…”ã…‡ã…£ã……ã…£ã…‡ã…"
      },
      {
        "callingCode": "+223",
        "regionCode": "ML",
        "regionFlag": "ğŸ‡²ğŸ‡±",
        "regionName": "ë§ë¦¬",
        "index": "ã…",
        "syllables": "ã…ã…ã„¹ã„¹ã…£"
      },
      {
        "regionFlag": "ğŸ‡²ğŸ‡¶",
        "regionName": "ë§ˆë¥´í‹°ë‹ˆí¬",
        "callingCode": "+596",
        "regionCode": "MQ",
        "index": "ã…",
        "syllables": "ã…ã…ã„¹ã…¡ã…Œã…£ã„´ã…£ã…‹ã…¡"
      },
      {
        "regionName": "ë§ˆì…œ ì œë„",
        "regionCode": "MH",
        "regionFlag": "ğŸ‡²ğŸ‡­",
        "callingCode": "+692",
        "index": "ã…",
        "syllables": "ã…ã…ã……ã…•ã„¹ ã…ˆã…”ã„·ã…—"
      },
      {
        "callingCode": "+262",
        "regionName": "ë§ˆìš”íŠ¸",
        "regionCode": "YT",
        "regionFlag": "ğŸ‡¾ğŸ‡¹",
        "index": "ã…",
        "syllables": "ã…ã…ã…‡ã…›ã…Œã…¡"
      },
      {
        "regionFlag": "ğŸ‡²ğŸ‡´",
        "regionCode": "MO",
        "callingCode": "+853",
        "regionName": "ë§ˆì¹´ì˜¤(ì¤‘êµ­ íŠ¹ë³„í–‰ì •êµ¬)",
        "index": "ã…",
        "syllables": "ã…ã…ã…‹ã…ã…‡ã…—(ã…ˆã…œã…‡ã„±ã…œã„± ã…Œã…¡ã„±ã…‚ã…•ã„¹ã…ã…ã…‡ã…ˆã…“ã…‡ã„±ã…œ)"
      },
      {
        "regionCode": "IM",
        "callingCode": "+44",
        "regionFlag": "ğŸ‡®ğŸ‡²",
        "regionName": "ë§¨ ì„¬",
        "index": "ã…",
        "syllables": "ã…ã…ã„´ ã……ã…“ã…"
      },
      {
        "regionFlag": "ğŸ‡²ğŸ‡½",
        "regionCode": "MX",
        "regionName": "ë©•ì‹œì½”",
        "callingCode": "+52",
        "index": "ã…",
        "syllables": "ã…ã…”ã„±ã……ã…£ã…‹ã…—"
      },
      {
        "regionCode": "ME",
        "regionName": "ëª¬í…Œë„¤ê·¸ë¡œ",
        "regionFlag": "ğŸ‡²ğŸ‡ª",
        "callingCode": "+382",
        "index": "ã…",
        "syllables": "ã…ã…—ã„´ã…Œã…”ã„´ã…”ã„±ã…¡ã„¹ã…—"
      },
      {
        "regionName": "ëª¬íŠ¸ì„¸ë¼íŠ¸",
        "regionCode": "MS",
        "regionFlag": "ğŸ‡²ğŸ‡¸",
        "callingCode": "+1-664",
        "index": "ã…",
        "syllables": "ã…ã…—ã„´ã…Œã…¡ã……ã…”ã„¹ã…ã…Œã…¡"
      },
      {
        "regionFlag": "ğŸ‡²ğŸ‡¨",
        "callingCode": "+377",
        "regionName": "ëª¨ë‚˜ì½”",
        "regionCode": "MC",
        "index": "ã…",
        "syllables": "ã…ã…—ã„´ã…ã…‹ã…—"
      },
      {
        "regionFlag": "ğŸ‡²ğŸ‡©",
        "regionCode": "MD",
        "regionName": "ëª°ë„ë°”",
        "callingCode": "+373",
        "index": "ã…",
        "syllables": "ã…ã…—ã„¹ã„·ã…—ã…‚ã…"
      },
      {
        "regionName": "ëª°ë””ë¸Œ",
        "callingCode": "+960",
        "regionCode": "MV",
        "regionFlag": "ğŸ‡²ğŸ‡»",
        "index": "ã…",
        "syllables": "ã…ã…—ã„¹ã„·ã…£ã…‚ã…¡"
      },
      {
        "regionFlag": "ğŸ‡²ğŸ‡¹",
        "regionName": "ëª°íƒ€",
        "regionCode": "MT",
        "callingCode": "+356",
        "index": "ã…",
        "syllables": "ã…ã…—ã„¹ã…Œã…"
      },
      {
        "regionCode": "MA",
        "regionName": "ëª¨ë¡œì½”",
        "regionFlag": "ğŸ‡²ğŸ‡¦",
        "callingCode": "+212",
        "index": "ã…",
        "syllables": "ã…ã…—ã„¹ã…—ã…‹ã…—"
      },
      {
        "regionName": "ëª¨ë¦¬ì…”ìŠ¤",
        "regionFlag": "ğŸ‡²ğŸ‡º",
        "callingCode": "+230",
        "regionCode": "MU",
        "index": "ã…",
        "syllables": "ã…ã…—ã„¹ã…£ã……ã…•ã……ã…¡"
      },
      {
        "regionFlag": "ğŸ‡²ğŸ‡·",
        "callingCode": "+222",
        "regionCode": "MR",
        "regionName": "ëª¨ë¦¬íƒ€ë‹ˆ",
        "index": "ã…",
        "syllables": "ã…ã…—ã„¹ã…£ã…Œã…ã„´ã…£"
      },
      {
        "regionFlag": "ğŸ‡²ğŸ‡³",
        "callingCode": "+976",
        "regionName": "ëª½ê³¨",
        "regionCode": "MN",
        "index": "ã…",
        "syllables": "ã…ã…—ã…‡ã„±ã…—ã„¹"
      },
      {
        "regionCode": "MZ",
        "regionFlag": "ğŸ‡²ğŸ‡¿",
        "callingCode": "+258",
        "regionName": "ëª¨ì ë¹„í¬",
        "index": "ã…",
        "syllables": "ã…ã…—ã…ˆã…ã…ã…‚ã…£ã…‹ã…¡"
      },
      {
        "callingCode": "+1",
        "regionName": "ë¯¸êµ­",
        "regionFlag": "ğŸ‡ºğŸ‡¸",
        "regionCode": "US",
        "index": "ã…",
        "syllables": "ã…ã…£ã„±ã…œã„±"
      },
      {
        "regionCode": "VI",
        "regionFlag": "ğŸ‡»ğŸ‡®",
        "regionName": "ë¯¸êµ­ë ¹ ë²„ì§„ì•„ì¼ëœë“œ",
        "callingCode": "+1-340",
        "index": "ã…",
        "syllables": "ã…ã…£ã„±ã…œã„±ã„¹ã…•ã…‡ ã…‚ã…“ã…ˆã…£ã„´ã…‡ã…ã…‡ã…£ã„¹ã„¹ã…ã„´ã„·ã…¡"
      },
      {
        "callingCode": "+1",
        "regionFlag": "ğŸ‡ºğŸ‡¸",
        "regionCode": "UM",
        "regionName": "ë¯¸êµ­ë ¹ í•´ì™¸ ì œë„",
        "index": "ã…",
        "syllables": "ã…ã…£ã„±ã…œã„±ã„¹ã…•ã…‡ ã…ã…ã…‡ã…—ã…£ ã…ˆã…”ã„·ã…—"
      },
      {
        "regionCode": "MM",
        "regionName": "ë¯¸ì–€ë§ˆ",
        "callingCode": "+95",
        "regionFlag": "ğŸ‡²ğŸ‡²",
        "index": "ã…",
        "syllables": "ã…ã…£ã…‡ã…‘ã„´ã…ã…"
      },
      {
        "regionFlag": "ğŸ‡«ğŸ‡²",
        "regionName": "ë¯¸í¬ë¡œë„¤ì‹œì•„",
        "callingCode": "+691",
        "regionCode": "FM",
        "index": "ã…",
        "syllables": "ã…ã…£ã…‹ã…¡ã„¹ã…—ã„´ã…”ã……ã…£ã…‡ã…"
      }
    ]
  },
  {
    "index": "ã…‚",
    "items": [
      {
        "callingCode": "+678",
        "regionName": "ë°”ëˆ„ì•„íˆ¬",
        "regionFlag": "ğŸ‡»ğŸ‡º",
        "regionCode": "VU",
        "index": "ã…‚",
        "syllables": "ã…‚ã…ã„´ã…œã…‡ã…ã…Œã…œ"
      },
      {
        "regionName": "ë°”ë ˆì¸",
        "regionFlag": "ğŸ‡§ğŸ‡­",
        "callingCode": "+973",
        "regionCode": "BH",
        "index": "ã…‚",
        "syllables": "ã…‚ã…ã„¹ã…”ã…‡ã…£ã„´"
      },
      {
        "regionCode": "BB",
        "regionFlag": "ğŸ‡§ğŸ‡§",
        "regionName": "ë°”ë² ì´ë„ìŠ¤",
        "callingCode": "+1-246",
        "index": "ã…‚",
        "syllables": "ã…‚ã…ã…‚ã…”ã…‡ã…£ã„·ã…—ã……ã…¡"
      },
      {
        "callingCode": "+880",
        "regionCode": "BD",
        "regionFlag": "ğŸ‡§ğŸ‡©",
        "regionName": "ë°©ê¸€ë¼ë°ì‹œ",
        "index": "ã…‚",
        "syllables": "ã…‚ã…ã…‡ã„±ã…¡ã„¹ã„¹ã…ã„·ã…”ã……ã…£"
      },
      {
        "regionFlag": "ğŸ‡»ğŸ‡¦",
        "regionName": "ë°”í‹°ì¹¸ ì‹œêµ­",
        "callingCode": "+379",
        "regionCode": "VA",
        "index": "ã…‚",
        "syllables": "ã…‚ã…ã…Œã…£ã…‹ã…ã„´ ã……ã…£ã„±ã…œã„±"
      },
      {
        "regionFlag": "ğŸ‡§ğŸ‡¸",
        "regionCode": "BS",
        "regionName": "ë°”í•˜ë§ˆ",
        "callingCode": "+1-242",
        "index": "ã…‚",
        "syllables": "ã…‚ã…ã…ã…ã…ã…"
      },
      {
        "regionName": "ë²„ë®¤ë‹¤",
        "callingCode": "+1-441",
        "regionCode": "BM",
        "regionFlag": "ğŸ‡§ğŸ‡²",
        "index": "ã…‚",
        "syllables": "ã…‚ã…“ã…ã… ã„·ã…"
      },
      {
        "regionName": "ë² ëƒ‰",
        "regionFlag": "ğŸ‡§ğŸ‡¯",
        "regionCode": "BJ",
        "callingCode": "+229",
        "index": "ã…‚",
        "syllables": "ã…‚ã…”ã„´ã…ã…‡"
      },
      {
        "regionFlag": "ğŸ‡»ğŸ‡ª",
        "regionCode": "VE",
        "regionName": "ë² ë„¤ìˆ˜ì—˜ë¼",
        "callingCode": "+58",
        "index": "ã…‚",
        "syllables": "ã…‚ã…”ã„´ã…”ã……ã…œã…‡ã…”ã„¹ã„¹ã…"
      },
      {
        "callingCode": "+32",
        "regionCode": "BE",
        "regionName": "ë²¨ê¸°ì—",
        "regionFlag": "ğŸ‡§ğŸ‡ª",
        "index": "ã…‚",
        "syllables": "ã…‚ã…”ã„¹ã„±ã…£ã…‡ã…”"
      },
      {
        "regionCode": "BY",
        "regionFlag": "ğŸ‡§ğŸ‡¾",
        "regionName": "ë²¨ë¼ë£¨ìŠ¤",
        "callingCode": "+375",
        "index": "ã…‚",
        "syllables": "ã…‚ã…”ã„¹ã„¹ã…ã„¹ã…œã……ã…¡"
      },
      {
        "regionCode": "BZ",
        "regionFlag": "ğŸ‡§ğŸ‡¿",
        "callingCode": "+501",
        "regionName": "ë²¨ë¦¬ì¦ˆ",
        "index": "ã…‚",
        "syllables": "ã…‚ã…”ã„¹ã„¹ã…£ã…ˆã…¡"
      },
      {
        "callingCode": "+84",
        "regionName": "ë² íŠ¸ë‚¨",
        "regionCode": "VN",
        "regionFlag": "ğŸ‡»ğŸ‡³",
        "index": "ã…‚",
        "syllables": "ã…‚ã…”ã…Œã…¡ã„´ã…ã…"
      },
      {
        "regionName": "ë³¼ë¦¬ë¹„ì•„",
        "callingCode": "+591",
        "regionCode": "BO",
        "regionFlag": "ğŸ‡§ğŸ‡´",
        "index": "ã…‚",
        "syllables": "ã…‚ã…—ã„¹ã„¹ã…£ã…‚ã…£ã…‡ã…"
      },
      {
        "regionCode": "BA",
        "callingCode": "+387",
        "regionFlag": "ğŸ‡§ğŸ‡¦",
        "regionName": "ë³´ìŠ¤ë‹ˆì•„ í—¤ë¥´ì²´ê³ ë¹„ë‚˜",
        "index": "ã…‚",
        "syllables": "ã…‚ã…—ã……ã…¡ã„´ã…£ã…‡ã… ã…ã…”ã„¹ã…¡ã…Šã…”ã„±ã…—ã…‚ã…£ã„´ã…"
      },
      {
        "regionFlag": "ğŸ‡§ğŸ‡¼",
        "regionName": "ë³´ì¸ ì™€ë‚˜",
        "regionCode": "BW",
        "callingCode": "+267",
        "index": "ã…‚",
        "syllables": "ã…‚ã…—ã…Šã…¡ã…‡ã…—ã…ã„´ã…"
      },
      {
        "regionName": "ë¶ë§ˆë¦¬ì•„ë‚˜ì œë„",
        "regionCode": "MP",
        "regionFlag": "ğŸ‡²ğŸ‡µ",
        "callingCode": "+1-670",
        "index": "ã…‚",
        "syllables": "ã…‚ã…œã„±ã…ã…ã„¹ã…£ã…‡ã…ã„´ã…ã…ˆã…”ã„·ã…—"
      },
      {
        "regionCode": "MK",
        "callingCode": "+389",
        "regionName": "ë¶ë§ˆì¼€ë„ë‹ˆì•„",
        "regionFlag": "ğŸ‡²ğŸ‡°",
        "index": "ã…‚",
        "syllables": "ã…‚ã…œã„±ã…ã…ã…‹ã…”ã„·ã…—ã„´ã…£ã…‡ã…"
      },
      {
        "regionCode": "KP",
        "regionFlag": "ğŸ‡°ğŸ‡µ",
        "callingCode": "+850",
        "regionName": "ë¶í•œ",
        "index": "ã…‚",
        "syllables": "ã…‚ã…œã„±ã…ã…ã„´"
      },
      {
        "regionName": "ë¶ˆê°€ë¦¬ì•„",
        "callingCode": "+359",
        "regionCode": "BG",
        "regionFlag": "ğŸ‡§ğŸ‡¬",
        "index": "ã…‚",
        "syllables": "ã…‚ã…œã„¹ã„±ã…ã„¹ã…£ã…‡ã…"
      },
      {
        "regionFlag": "ğŸ‡§ğŸ‡®",
        "regionName": "ë¶€ë£¬ë””",
        "regionCode": "BI",
        "callingCode": "+257",
        "index": "ã…‚",
        "syllables": "ã…‚ã…œã„¹ã…œã„´ã„·ã…£"
      },
      {
        "callingCode": "+226",
        "regionFlag": "ğŸ‡§ğŸ‡«",
        "regionName": "ë¶€ë¥´í‚¤ë‚˜íŒŒì†Œ",
        "regionCode": "BF",
        "index": "ã…‚",
        "syllables": "ã…‚ã…œã„¹ã…¡ã…‹ã…£ã„´ã…ã…ã…ã……ã…—"
      },
      {
        "regionCode": "BT",
        "regionName": "ë¶€íƒ„",
        "callingCode": "+975",
        "regionFlag": "ğŸ‡§ğŸ‡¹",
        "index": "ã…‚",
        "syllables": "ã…‚ã…œã…Œã…ã„´"
      },
      {
        "regionName": "ë¸Œë¼ì§ˆ",
        "regionCode": "BR",
        "callingCode": "+55",
        "regionFlag": "ğŸ‡§ğŸ‡·",
        "index": "ã…‚",
        "syllables": "ã…‚ã…¡ã„¹ã…ã…ˆã…£ã„¹"
      },
      {
        "regionName": "ë¸Œë£¨ë‚˜ì´",
        "regionCode": "BN",
        "regionFlag": "ğŸ‡§ğŸ‡³",
        "callingCode": "+673",
        "index": "ã…‚",
        "syllables": "ã…‚ã…¡ã„¹ã…œã„´ã…ã…‡ã…£"
      }
    ]
  },
  {
    "index": "ã……",
    "items": [
      {
        "regionCode": "SM",
        "regionFlag": "ğŸ‡¸ğŸ‡²",
        "callingCode": "+378",
        "regionName": "ì‚°ë§ˆë¦¬ë…¸",
        "index": "ã……",
        "syllables": "ã……ã…ã„´ã…ã…ã„¹ã…£ã„´ã…—"
      },
      {
        "regionCode": "WS",
        "regionName": "ì‚¬ëª¨ì•„",
        "regionFlag": "ğŸ‡¼ğŸ‡¸",
        "callingCode": "+685",
        "index": "ã……",
        "syllables": "ã……ã…ã…ã…—ã…‡ã…"
      },
      {
        "regionName": "ìƒíˆ¬ë©” í”„ë¦°ì‹œí˜",
        "callingCode": "+239",
        "regionCode": "ST",
        "regionFlag": "ğŸ‡¸ğŸ‡¹",
        "index": "ã……",
        "syllables": "ã……ã…ã…‡ã…Œã…œã…ã…” ã…ã…¡ã„¹ã…£ã„´ã……ã…£ã…ã…”"
      },
      {
        "regionName": "ì‚¬ìš°ë””ì•„ë¼ë¹„ì•„",
        "regionCode": "SA",
        "regionFlag": "ğŸ‡¸ğŸ‡¦",
        "callingCode": "+966",
        "index": "ã……",
        "syllables": "ã……ã…ã…‡ã…œã„·ã…£ã…‡ã…ã„¹ã…ã…‚ã…£ã…‡ã…"
      },
      {
        "regionFlag": "ğŸ‡¬ğŸ‡¸",
        "regionName": "ì‚¬ìš°ìŠ¤ì¡°ì§€ì•„ ì‚¬ìš°ìŠ¤ìƒŒë“œìœ„ì¹˜ ì œë„",
        "regionCode": "GS",
        "callingCode": "+500",
        "index": "ã……",
        "syllables": "ã……ã…ã…‡ã…œã……ã…¡ã…ˆã…—ã…ˆã…£ã…‡ã… ã……ã…ã…‡ã…œã……ã…¡ã……ã…ã„´ã„·ã…¡ã…‡ã…œã…£ã…Šã…£ ã…ˆã…”ã„·ã…—"
      },
      {
        "regionCode": "MF",
        "regionFlag": "ğŸ‡²ğŸ‡«",
        "regionName": "ìƒë§ˆë¥´íƒ±",
        "callingCode": "+590",
        "index": "ã……",
        "syllables": "ã……ã…ã…‡ã…ã…ã„¹ã…¡ã…Œã…ã…‡"
      },
      {
        "callingCode": "+590",
        "regionName": "ìƒë°”ë¥´í…”ë ˆë¯¸",
        "regionCode": "BL",
        "regionFlag": "ğŸ‡§ğŸ‡±",
        "index": "ã……",
        "syllables": "ã……ã…ã…‡ã…‚ã…ã„¹ã…¡ã…Œã…”ã„¹ã„¹ã…”ã…ã…£"
      },
      {
        "regionName": "ìƒí”¼ì—ë¥´ ë¯¸í´ë¡±",
        "regionFlag": "ğŸ‡µğŸ‡²",
        "regionCode": "PM",
        "callingCode": "+508",
        "index": "ã……",
        "syllables": "ã……ã…ã…‡ã…ã…£ã…‡ã…”ã„¹ã…¡ ã…ã…£ã…‹ã…¡ã„¹ã„¹ã…—ã…‡"
      },
      {
        "regionName": "ì„œì‚¬í•˜ë¼",
        "regionFlag": "ğŸ‡ªğŸ‡­",
        "regionCode": "EH",
        "callingCode": "+212",
        "index": "ã……",
        "syllables": "ã……ã…“ã……ã…ã…ã…ã„¹ã…"
      },
      {
        "callingCode": "+221",
        "regionCode": "SN",
        "regionName": "ì„¸ë„¤ê°ˆ",
        "regionFlag": "ğŸ‡¸ğŸ‡³",
        "index": "ã……",
        "syllables": "ã……ã…”ã„´ã…”ã„±ã…ã„¹"
      },
      {
        "regionName": "ì„¸ë¥´ë¹„ì•„",
        "regionCode": "RS",
        "regionFlag": "ğŸ‡·ğŸ‡¸",
        "callingCode": "+381",
        "index": "ã……",
        "syllables": "ã……ã…”ã„¹ã…¡ã…‚ã…£ã…‡ã…"
      },
      {
        "regionFlag": "ğŸ‡±ğŸ‡¨",
        "regionName": "ì„¸ì¸íŠ¸ë£¨ì‹œì•„",
        "callingCode": "+1-758",
        "regionCode": "LC",
        "index": "ã……",
        "syllables": "ã……ã…”ã…‡ã…£ã„´ã…Œã…¡ã„¹ã…œã……ã…£ã…‡ã…"
      },
      {
        "regionCode": "VC",
        "regionName": "ì„¸ì¸íŠ¸ë¹ˆì„¼íŠ¸ê·¸ë ˆë‚˜ë”˜",
        "callingCode": "+1-784",
        "regionFlag": "ğŸ‡»ğŸ‡¨",
        "index": "ã……",
        "syllables": "ã……ã…”ã…‡ã…£ã„´ã…Œã…¡ã…‚ã…£ã„´ã……ã…”ã„´ã…Œã…¡ã„±ã…¡ã„¹ã…”ã„´ã…ã„·ã…£ã„´"
      },
      {
        "regionFlag": "ğŸ‡°ğŸ‡³",
        "callingCode": "+1-869",
        "regionCode": "KN",
        "regionName": "ì„¸ì¸íŠ¸í‚¤ì¸  ë„¤ë¹„ìŠ¤",
        "index": "ã……",
        "syllables": "ã……ã…”ã…‡ã…£ã„´ã…Œã…¡ã…‹ã…£ã…Šã…¡ ã„´ã…”ã…‚ã…£ã……ã…¡"
      },
      {
        "regionFlag": "ğŸ‡¸ğŸ‡­",
        "callingCode": "+290",
        "regionCode": "SH",
        "regionName": "ì„¸ì¸íŠ¸í—¬ë ˆë‚˜",
        "index": "ã……",
        "syllables": "ã……ã…”ã…‡ã…£ã„´ã…Œã…¡ã…ã…”ã„¹ã„¹ã…”ã„´ã…"
      },
      {
        "regionCode": "SC",
        "regionFlag": "ğŸ‡¸ğŸ‡¨",
        "callingCode": "+248",
        "regionName": "ì„¸ì´ì…¸",
        "index": "ã……",
        "syllables": "ã……ã…”ã…‡ã…£ã……ã…–ã„¹"
      },
      {
        "regionCode": "SB",
        "regionName": "ì†”ë¡œëª¬ ì œë„",
        "callingCode": "+677",
        "regionFlag": "ğŸ‡¸ğŸ‡§",
        "index": "ã……",
        "syllables": "ã……ã…—ã„¹ã„¹ã…—ã…ã…—ã„´ ã…ˆã…”ã„·ã…—"
      },
      {
        "regionCode": "SO",
        "regionName": "ì†Œë§ë¦¬ì•„",
        "regionFlag": "ğŸ‡¸ğŸ‡´",
        "callingCode": "+252",
        "index": "ã……",
        "syllables": "ã……ã…—ã…ã…ã„¹ã„¹ã…£ã…‡ã…"
      },
      {
        "regionCode": "SD",
        "regionName": "ìˆ˜ë‹¨",
        "regionFlag": "ğŸ‡¸ğŸ‡©",
        "callingCode": "+249",
        "index": "ã……",
        "syllables": "ã……ã…œã„·ã…ã„´"
      },
      {
        "regionFlag": "ğŸ‡¸ğŸ‡·",
        "regionName": "ìˆ˜ë¦¬ë‚¨",
        "callingCode": "+597",
        "regionCode": "SR",
        "index": "ã……",
        "syllables": "ã……ã…œã„¹ã…£ã„´ã…ã…"
      },
      {
        "regionCode": "SK",
        "regionName": "ìŠ¬ë¡œë°”í‚¤ì•„",
        "callingCode": "+421",
        "regionFlag": "ğŸ‡¸ğŸ‡°",
        "index": "ã……",
        "syllables": "ã……ã…¡ã„¹ã„¹ã…—ã…‚ã…ã…‹ã…£ã…‡ã…"
      },
      {
        "regionName": "ìŠ¬ë¡œë² ë‹ˆì•„",
        "regionFlag": "ğŸ‡¸ğŸ‡®",
        "regionCode": "SI",
        "callingCode": "+386",
        "index": "ã……",
        "syllables": "ã……ã…¡ã„¹ã„¹ã…—ã…‚ã…”ã„´ã…£ã…‡ã…"
      },
      {
        "regionFlag": "ğŸ‡±ğŸ‡°",
        "callingCode": "+94",
        "regionCode": "LK",
        "regionName": "ìŠ¤ë¦¬ë‘ì¹´",
        "index": "ã……",
        "syllables": "ã……ã…¡ã„¹ã…£ã„¹ã…ã…‡ã…‹ã…"
      },
      {
        "callingCode": "+47",
        "regionName": "ìŠ¤ë°œë°”ë¥´ì œë„-ì–€ë§ˆì›¬ì„¬",
        "regionCode": "SJ",
        "regionFlag": "ğŸ‡¸ğŸ‡¯",
        "index": "ã……",
        "syllables": "ã……ã…¡ã…‚ã…ã„¹ã…‚ã…ã„¹ã…¡ã…ˆã…”ã„·ã…—-ã…‡ã…‘ã„´ã…ã…ã…‡ã…œã…”ã„´ã……ã…“ã…"
      },
      {
        "regionName": "ìŠ¤ì›¨ë´",
        "regionFlag": "ğŸ‡¸ğŸ‡ª",
        "callingCode": "+46",
        "regionCode": "SE",
        "index": "ã……",
        "syllables": "ã……ã…¡ã…‡ã…œã…”ã„·ã…”ã„´"
      },
      {
        "callingCode": "+41",
        "regionName": "ìŠ¤ìœ„ìŠ¤",
        "regionFlag": "ğŸ‡¨ğŸ‡­",
        "regionCode": "CH",
        "index": "ã……",
        "syllables": "ã……ã…¡ã…‡ã…œã…£ã……ã…¡"
      },
      {
        "regionFlag": "ğŸ‡ªğŸ‡¸",
        "callingCode": "+34",
        "regionCode": "ES",
        "regionName": "ìŠ¤í˜ì¸",
        "index": "ã……",
        "syllables": "ã……ã…¡ã…ã…”ã…‡ã…£ã„´"
      },
      {
        "regionFlag": "ğŸ‡¸ğŸ‡½",
        "regionName": "ì‹ íŠ¸ë§ˆë¥´í„´",
        "callingCode": "+1-721",
        "regionCode": "SX",
        "index": "ã……",
        "syllables": "ã……ã…£ã„´ã…Œã…¡ã…ã…ã„¹ã…¡ã…Œã…“ã„´"
      },
      {
        "regionCode": "SY",
        "regionFlag": "ğŸ‡¸ğŸ‡¾",
        "regionName": "ì‹œë¦¬ì•„",
        "callingCode": "+963",
        "index": "ã……",
        "syllables": "ã……ã…£ã„¹ã…£ã…‡ã…"
      },
      {
        "callingCode": "+65",
        "regionFlag": "ğŸ‡¸ğŸ‡¬",
        "regionName": "ì‹±ê°€í¬ë¥´",
        "regionCode": "SG",
        "index": "ã……",
        "syllables": "ã……ã…£ã…‡ã„±ã…ã…ã…—ã„¹ã…¡"
      },
      {
        "callingCode": "+232",
        "regionFlag": "ğŸ‡¸ğŸ‡±",
        "regionCode": "SL",
        "regionName": "ì‹œì—ë¼ë¦¬ì˜¨",
        "index": "ã……",
        "syllables": "ã……ã…£ã…‡ã…”ã„¹ã…ã„¹ã…£ã…‡ã…—ã„´"
      }
    ]
  },
  {
    "index": "ã…‡",
    "items": [
      {
        "regionCode": "AD",
        "regionFlag": "ğŸ‡¦ğŸ‡©",
        "regionName": "ì•ˆë„ë¼",
        "callingCode": "+376",
        "index": "ã…‡",
        "syllables": "ã…‡ã…ã„´ã„·ã…—ã„¹ã…"
      },
      {
        "regionName": "ì•Œë°”ë‹ˆì•„",
        "regionCode": "AL",
        "callingCode": "+355",
        "regionFlag": "ğŸ‡¦ğŸ‡±",
        "index": "ã…‡",
        "syllables": "ã…‡ã…ã„¹ã…‚ã…ã„´ã…£ã…‡ã…"
      },
      {
        "regionCode": "DZ",
        "regionFlag": "ğŸ‡©ğŸ‡¿",
        "callingCode": "+213",
        "regionName": "ì•Œì œë¦¬",
        "index": "ã…‡",
        "syllables": "ã…‡ã…ã„¹ã…ˆã…”ã„¹ã…£"
      },
      {
        "regionCode": "AE",
        "callingCode": "+971",
        "regionFlag": "ğŸ‡¦ğŸ‡ª",
        "regionName": "ì•„ëì—ë¯¸ë¦¬íŠ¸",
        "index": "ã…‡",
        "syllables": "ã…‡ã…ã„¹ã…ã…‚ã…‡ã…”ã…ã…£ã„¹ã…£ã…Œã…¡"
      },
      {
        "callingCode": "+297",
        "regionName": "ì•„ë£¨ë°”",
        "regionCode": "AW",
        "regionFlag": "ğŸ‡¦ğŸ‡¼",
        "index": "ã…‡",
        "syllables": "ã…‡ã…ã„¹ã…œã…‚ã…"
      },
      {
        "regionCode": "AM",
        "regionFlag": "ğŸ‡¦ğŸ‡²",
        "regionName": "ì•„ë¥´ë©”ë‹ˆì•„",
        "callingCode": "+374",
        "index": "ã…‡",
        "syllables": "ã…‡ã…ã„¹ã…¡ã…ã…”ã„´ã…£ã…‡ã…"
      },
      {
        "regionCode": "AR",
        "regionName": "ì•„ë¥´í—¨í‹°ë‚˜",
        "regionFlag": "ğŸ‡¦ğŸ‡·",
        "callingCode": "+54",
        "index": "ã…‡",
        "syllables": "ã…‡ã…ã„¹ã…¡ã…ã…”ã„´ã…Œã…£ã„´ã…"
      },
      {
        "callingCode": "+1-684",
        "regionName": "ì•„ë©”ë¦¬ì¹¸ ì‚¬ëª¨ì•„",
        "regionFlag": "ğŸ‡¦ğŸ‡¸",
        "regionCode": "AS",
        "index": "ã…‡",
        "syllables": "ã…‡ã…ã…ã…”ã„¹ã…£ã…‹ã…ã„´ ã……ã…ã…ã…—ã…‡ã…"
      },
      {
        "regionName": "ì•™ê³¨ë¼",
        "regionCode": "AO",
        "callingCode": "+244",
        "regionFlag": "ğŸ‡¦ğŸ‡´",
        "index": "ã…‡",
        "syllables": "ã…‡ã…ã…‡ã„±ã…—ã„¹ã„¹ã…"
      },
      {
        "callingCode": "+353",
        "regionName": "ì•„ì¼ëœë“œ",
        "regionCode": "IE",
        "regionFlag": "ğŸ‡®ğŸ‡ª",
        "index": "ã…‡",
        "syllables": "ã…‡ã…ã…‡ã…£ã„¹ã„¹ã…ã„´ã„·ã…¡"
      },
      {
        "regionCode": "IS",
        "regionFlag": "ğŸ‡®ğŸ‡¸",
        "regionName": "ì•„ì´ìŠ¬ë€ë“œ",
        "callingCode": "+354",
        "index": "ã…‡",
        "syllables": "ã…‡ã…ã…‡ã…£ã……ã…¡ã„¹ã„¹ã…ã„´ã„·ã…¡"
      },
      {
        "regionFlag": "ğŸ‡­ğŸ‡¹",
        "regionCode": "HT",
        "regionName": "ì•„ì´í‹°",
        "callingCode": "+509",
        "index": "ã…‡",
        "syllables": "ã…‡ã…ã…‡ã…£ã…Œã…£"
      },
      {
        "callingCode": "+994",
        "regionFlag": "ğŸ‡¦ğŸ‡¿",
        "regionName": "ì•„ì œë¥´ë°”ì´ì”",
        "regionCode": "AZ",
        "index": "ã…‡",
        "syllables": "ã…‡ã…ã…ˆã…”ã„¹ã…¡ã…‚ã…ã…‡ã…£ã…ˆã…ã„´"
      },
      {
        "regionFlag": "ğŸ‡¦ğŸ‡«",
        "regionCode": "AF",
        "callingCode": "+93",
        "regionName": "ì•„í”„ê°€ë‹ˆìŠ¤íƒ„",
        "index": "ã…‡",
        "syllables": "ã…‡ã…ã…ã…¡ã„±ã…ã„´ã…£ã……ã…¡ã…Œã…ã„´"
      },
      {
        "regionCode": "AG",
        "regionName": "ì•¤í‹°ê°€ ë°”ë¶€ë‹¤",
        "callingCode": "+1-268",
        "regionFlag": "ğŸ‡¦ğŸ‡¬",
        "index": "ã…‡",
        "syllables": "ã…‡ã…ã„´ã…Œã…£ã„±ã… ã…‚ã…ã…‚ã…œã„·ã…"
      },
      {
        "callingCode": "+1-264",
        "regionCode": "AI",
        "regionFlag": "ğŸ‡¦ğŸ‡®",
        "regionName": "ì•µê·ˆë¼",
        "index": "ã…‡",
        "syllables": "ã…‡ã…ã…‡ã„±ã…œã…£ã„¹ã„¹ã…"
      },
      {
        "callingCode": "+503",
        "regionFlag": "ğŸ‡¸ğŸ‡»",
        "regionCode": "SV",
        "regionName": "ì—˜ì‚´ë°”ë„ë¥´",
        "index": "ã…‡",
        "syllables": "ã…‡ã…”ã„¹ã……ã…ã„¹ã…‚ã…ã„·ã…—ã„¹ã…¡"
      },
      {
        "regionCode": "ER",
        "regionFlag": "ğŸ‡ªğŸ‡·",
        "callingCode": "+291",
        "regionName": "ì—ë¦¬íŠ¸ë¦¬ì•„",
        "index": "ã…‡",
        "syllables": "ã…‡ã…”ã„¹ã…£ã…Œã…¡ã„¹ã…£ã…‡ã…"
      },
      {
        "regionCode": "SZ",
        "regionName": "ì—ìŠ¤ì™€í‹°ë‹ˆ",
        "regionFlag": "ğŸ‡¸ğŸ‡¿",
        "callingCode": "+268",
        "index": "ã…‡",
        "syllables": "ã…‡ã…”ã……ã…¡ã…‡ã…—ã…ã…Œã…£ã„´ã…£"
      },
      {
        "callingCode": "+372",
        "regionName": "ì—ìŠ¤í† ë‹ˆì•„",
        "regionCode": "EE",
        "regionFlag": "ğŸ‡ªğŸ‡ª",
        "index": "ã…‡",
        "syllables": "ã…‡ã…”ã……ã…¡ã…Œã…—ã„´ã…£ã…‡ã…"
      },
      {
        "regionCode": "EC",
        "regionName": "ì—ì½°ë„ë¥´",
        "callingCode": "+593",
        "regionFlag": "ğŸ‡ªğŸ‡¨",
        "index": "ã…‡",
        "syllables": "ã…‡ã…”ã…‹ã…—ã…ã„·ã…—ã„¹ã…¡"
      },
      {
        "callingCode": "+251",
        "regionFlag": "ğŸ‡ªğŸ‡¹",
        "regionCode": "ET",
        "regionName": "ì—í‹°ì˜¤í”¼ì•„",
        "index": "ã…‡",
        "syllables": "ã…‡ã…”ã…Œã…£ã…‡ã…—ã…ã…£ã…‡ã…"
      },
      {
        "callingCode": "+44",
        "regionFlag": "ğŸ‡¬ğŸ‡§",
        "regionCode": "GB",
        "regionName": "ì˜êµ­",
        "index": "ã…‡",
        "syllables": "ã…‡ã…•ã…‡ã„±ã…œã„±"
      },
      {
        "callingCode": "+1-284",
        "regionName": "ì˜êµ­ë ¹ ë²„ì§„ì•„ì¼ëœë“œ",
        "regionCode": "VG",
        "regionFlag": "ğŸ‡»ğŸ‡¬",
        "index": "ã…‡",
        "syllables": "ã…‡ã…•ã…‡ã„±ã…œã„±ã„¹ã…•ã…‡ ã…‚ã…“ã…ˆã…£ã„´ã…‡ã…ã…‡ã…£ã„¹ã„¹ã…ã„´ã„·ã…¡"
      },
      {
        "regionFlag": "ğŸ‡®ğŸ‡´",
        "regionCode": "IO",
        "callingCode": "+246",
        "regionName": "ì˜êµ­ë ¹ ì¸ë„ì–‘ ì‹ë¯¼ì§€",
        "index": "ã…‡",
        "syllables": "ã…‡ã…•ã…‡ã„±ã…œã„±ã„¹ã…•ã…‡ ã…‡ã…£ã„´ã„·ã…—ã…‡ã…‘ã…‡ ã……ã…£ã„±ã…ã…£ã„´ã…ˆã…£"
      },
      {
        "regionName": "ì˜ˆë©˜",
        "regionCode": "YE",
        "callingCode": "+967",
        "regionFlag": "ğŸ‡¾ğŸ‡ª",
        "index": "ã…‡",
        "syllables": "ã…‡ã…–ã…ã…”ã„´"
      },
      {
        "regionCode": "HN",
        "callingCode": "+504",
        "regionName": "ì˜¨ë‘ë¼ìŠ¤",
        "regionFlag": "ğŸ‡­ğŸ‡³",
        "index": "ã…‡",
        "syllables": "ã…‡ã…—ã„´ã„·ã…œã„¹ã…ã……ã…¡"
      },
      {
        "regionName": "ì˜¬ë€ë“œ ì œë„",
        "regionFlag": "ğŸ‡¦ğŸ‡½",
        "regionCode": "AX",
        "callingCode": "+358",
        "index": "ã…‡",
        "syllables": "ã…‡ã…—ã„¹ã„¹ã…ã„´ã„·ã…¡ ã…ˆã…”ã„·ã…—"
      },
      {
        "callingCode": "+968",
        "regionFlag": "ğŸ‡´ğŸ‡²",
        "regionName": "ì˜¤ë§Œ",
        "regionCode": "OM",
        "index": "ã…‡",
        "syllables": "ã…‡ã…—ã…ã…ã„´"
      },
      {
        "regionCode": "AU",
        "regionName": "ì˜¤ìŠ¤íŠ¸ë ˆì¼ë¦¬ì•„",
        "callingCode": "+61",
        "regionFlag": "ğŸ‡¦ğŸ‡º",
        "index": "ã…‡",
        "syllables": "ã…‡ã…—ã……ã…¡ã…Œã…¡ã„¹ã…”ã…‡ã…£ã„¹ã„¹ã…£ã…‡ã…"
      },
      {
        "regionCode": "AT",
        "regionFlag": "ğŸ‡¦ğŸ‡¹",
        "callingCode": "+43",
        "regionName": "ì˜¤ìŠ¤íŠ¸ë¦¬ì•„",
        "index": "ã…‡",
        "syllables": "ã…‡ã…—ã……ã…¡ã…Œã…¡ã„¹ã…£ã…‡ã…"
      },
      {
        "callingCode": "+681",
        "regionFlag": "ğŸ‡¼ğŸ‡«",
        "regionCode": "WF",
        "regionName": "ì™ˆë¦¬ìŠ¤-í‘¸íˆ¬ë‚˜ ì œë„",
        "index": "ã…‡",
        "syllables": "ã…‡ã…—ã…ã„¹ã„¹ã…£ã……ã…¡-ã…ã…œã…Œã…œã„´ã… ã…ˆã…”ã„·ã…—"
      },
      {
        "regionName": "ìš”ë¥´ë‹¨",
        "regionFlag": "ğŸ‡¯ğŸ‡´",
        "regionCode": "JO",
        "callingCode": "+962",
        "index": "ã…‡",
        "syllables": "ã…‡ã…›ã„¹ã…¡ã„·ã…ã„´"
      },
      {
        "regionFlag": "ğŸ‡ºğŸ‡¬",
        "regionCode": "UG",
        "callingCode": "+256",
        "regionName": "ìš°ê°„ë‹¤",
        "index": "ã…‡",
        "syllables": "ã…‡ã…œã„±ã…ã„´ã„·ã…"
      },
      {
        "regionFlag": "ğŸ‡ºğŸ‡¾",
        "regionCode": "UY",
        "regionName": "ìš°ë£¨ê³¼ì´",
        "callingCode": "+598",
        "index": "ã…‡",
        "syllables": "ã…‡ã…œã„¹ã…œã„±ã…—ã…ã…‡ã…£"
      },
      {
        "regionName": "ìš°ì¦ˆë² í‚¤ìŠ¤íƒ„",
        "callingCode": "+998",
        "regionFlag": "ğŸ‡ºğŸ‡¿",
        "regionCode": "UZ",
        "index": "ã…‡",
        "syllables": "ã…‡ã…œã…ˆã…¡ã…‚ã…”ã…‹ã…£ã……ã…¡ã…Œã…ã„´"
      },
      {
        "regionName": "ìš°í¬ë¼ì´ë‚˜",
        "callingCode": "+380",
        "regionCode": "UA",
        "regionFlag": "ğŸ‡ºğŸ‡¦",
        "index": "ã…‡",
        "syllables": "ã…‡ã…œã…‹ã…¡ã„¹ã…ã…‡ã…£ã„´ã…"
      },
      {
        "regionCode": "IN",
        "regionFlag": "ğŸ‡®ğŸ‡³",
        "regionName": "ì¸ë„",
        "callingCode": "+91",
        "index": "ã…‡",
        "syllables": "ã…‡ã…£ã„´ã„·ã…—"
      },
      {
        "regionCode": "ID",
        "regionFlag": "ğŸ‡®ğŸ‡©",
        "callingCode": "+62",
        "regionName": "ì¸ë„ë„¤ì‹œì•„",
        "index": "ã…‡",
        "syllables": "ã…‡ã…£ã„´ã„·ã…—ã„´ã…”ã……ã…£ã…‡ã…"
      },
      {
        "regionCode": "JP",
        "callingCode": "+81",
        "regionFlag": "ğŸ‡¯ğŸ‡µ",
        "regionName": "ì¼ë³¸",
        "index": "ã…‡",
        "syllables": "ã…‡ã…£ã„¹ã…‚ã…—ã„´"
      },
      {
        "regionFlag": "ğŸ‡®ğŸ‡·",
        "callingCode": "+98",
        "regionCode": "IR",
        "regionName": "ì´ë€",
        "index": "ã…‡",
        "syllables": "ã…‡ã…£ã„¹ã…ã„´"
      },
      {
        "callingCode": "+964",
        "regionCode": "IQ",
        "regionFlag": "ğŸ‡®ğŸ‡¶",
        "regionName": "ì´ë¼í¬",
        "index": "ã…‡",
        "syllables": "ã…‡ã…£ã„¹ã…ã…‹ã…¡"
      },
      {
        "regionName": "ì´ìŠ¤ë¼ì—˜",
        "regionFlag": "ğŸ‡®ğŸ‡±",
        "callingCode": "+972",
        "regionCode": "IL",
        "index": "ã…‡",
        "syllables": "ã…‡ã…£ã……ã…¡ã„¹ã…ã…‡ã…”ã„¹"
      },
      {
        "regionFlag": "ğŸ‡ªğŸ‡¬",
        "regionCode": "EG",
        "regionName": "ì´ì§‘íŠ¸",
        "callingCode": "+20",
        "index": "ã…‡",
        "syllables": "ã…‡ã…£ã…ˆã…£ã…‚ã…Œã…¡"
      },
      {
        "regionName": "ì´íƒˆë¦¬ì•„",
        "callingCode": "+39",
        "regionCode": "IT",
        "regionFlag": "ğŸ‡®ğŸ‡¹",
        "index": "ã…‡",
        "syllables": "ã…‡ã…£ã…Œã…ã„¹ã„¹ã…£ã…‡ã…"
      }
    ]
  },
  {
    "index": "ã…ˆ",
    "items": [
      {
        "callingCode": "+260",
        "regionFlag": "ğŸ‡¿ğŸ‡²",
        "regionCode": "ZM",
        "regionName": "ì ë¹„ì•„",
        "index": "ã…ˆ",
        "syllables": "ã…ˆã…ã…ã…‚ã…£ã…‡ã…"
      },
      {
        "callingCode": "+1-876",
        "regionFlag": "ğŸ‡¯ğŸ‡²",
        "regionCode": "JM",
        "regionName": "ìë©”ì´ì¹´",
        "index": "ã…ˆ",
        "syllables": "ã…ˆã…ã…ã…”ã…‡ã…£ã…‹ã…"
      },
      {
        "regionCode": "GQ",
        "regionFlag": "ğŸ‡¬ğŸ‡¶",
        "callingCode": "+240",
        "regionName": "ì ë„ ê¸°ë‹ˆ",
        "index": "ã…ˆ",
        "syllables": "ã…ˆã…“ã„±ã„·ã…— ã„±ã…£ã„´ã…£"
      },
      {
        "regionName": "ì €ì§€",
        "regionCode": "JE",
        "regionFlag": "ğŸ‡¯ğŸ‡ª",
        "callingCode": "+44",
        "index": "ã…ˆ",
        "syllables": "ã…ˆã…“ã…ˆã…£"
      },
      {
        "regionCode": "GE",
        "regionFlag": "ğŸ‡¬ğŸ‡ª",
        "callingCode": "+995",
        "regionName": "ì¡°ì§€ì•„",
        "index": "ã…ˆ",
        "syllables": "ã…ˆã…—ã…ˆã…£ã…‡ã…"
      },
      {
        "regionFlag": "ğŸ‡¨ğŸ‡³",
        "callingCode": "+86",
        "regionName": "ì¤‘êµ­",
        "regionCode": "CN",
        "index": "ã…ˆ",
        "syllables": "ã…ˆã…œã…‡ã„±ã…œã„±"
      },
      {
        "callingCode": "+236",
        "regionCode": "CF",
        "regionFlag": "ğŸ‡¨ğŸ‡«",
        "regionName": "ì¤‘ì•™ ì•„í”„ë¦¬ì¹´ ê³µí™”êµ­",
        "index": "ã…ˆ",
        "syllables": "ã…ˆã…œã…‡ã…‡ã…ã…‡ ã…‡ã…ã…ã…¡ã„¹ã…£ã…‹ã… ã„±ã…—ã…‡ã…ã…—ã…ã„±ã…œã„±"
      },
      {
        "regionName": "ì§ë°”ë¸Œì›¨",
        "regionCode": "ZW",
        "regionFlag": "ğŸ‡¿ğŸ‡¼",
        "callingCode": "+263",
        "index": "ã…ˆ",
        "syllables": "ã…ˆã…£ã…ã…‚ã…ã…‚ã…¡ã…‡ã…œã…”"
      },
      {
        "regionCode": "DJ",
        "callingCode": "+253",
        "regionName": "ì§€ë¶€í‹°",
        "regionFlag": "ğŸ‡©ğŸ‡¯",
        "index": "ã…ˆ",
        "syllables": "ã…ˆã…£ã…‚ã…œã…Œã…£"
      },
      {
        "regionName": "ì§€ë¸Œë¡¤í„°",
        "regionCode": "GI",
        "regionFlag": "ğŸ‡¬ğŸ‡®",
        "callingCode": "+350",
        "index": "ã…ˆ",
        "syllables": "ã…ˆã…£ã…‚ã…¡ã„¹ã…—ã„¹ã…Œã…“"
      }
    ]
  },
  {
    "index": "ã…Š",
    "items": [
      {
        "regionName": "ì°¨ë“œ",
        "regionFlag": "ğŸ‡¹ğŸ‡©",
        "callingCode": "+235",
        "regionCode": "TD",
        "index": "ã…Š",
        "syllables": "ã…Šã…ã„·ã…¡"
      },
      {
        "callingCode": "+420",
        "regionFlag": "ğŸ‡¨ğŸ‡¿",
        "regionCode": "CZ",
        "regionName": "ì²´ì½”",
        "index": "ã…Š",
        "syllables": "ã…Šã…”ã…‹ã…—"
      },
      {
        "regionName": "ì¹ ë ˆ",
        "regionCode": "CL",
        "callingCode": "+56",
        "regionFlag": "ğŸ‡¨ğŸ‡±",
        "index": "ã…Š",
        "syllables": "ã…Šã…£ã„¹ã„¹ã…”"
      }
    ]
  },
  {
    "index": "ã…‹",
    "items": [
      {
        "regionFlag": "ğŸ‡°ğŸ‡­",
        "regionCode": "KH",
        "callingCode": "+855",
        "regionName": "ìº„ë³´ë””ì•„",
        "index": "ã…‹",
        "syllables": "ã…‹ã…ã…ã…‚ã…—ã„·ã…£ã…‡ã…"
      },
      {
        "callingCode": "+237",
        "regionFlag": "ğŸ‡¨ğŸ‡²",
        "regionCode": "CM",
        "regionName": "ì¹´ë©”ë£¬",
        "index": "ã…‹",
        "syllables": "ã…‹ã…ã…ã…”ã„¹ã…œã„´"
      },
      {
        "regionFlag": "ğŸ‡¨ğŸ‡»",
        "regionName": "ì¹´ë³´ë² ë¥´ë°",
        "callingCode": "+238",
        "regionCode": "CV",
        "index": "ã…‹",
        "syllables": "ã…‹ã…ã…‚ã…—ã…‚ã…”ã„¹ã…¡ã„·ã…”"
      },
      {
        "regionFlag": "ğŸ‡°ğŸ‡¿",
        "callingCode": "+7",
        "regionName": "ì¹´ìíìŠ¤íƒ„",
        "regionCode": "KZ",
        "index": "ã…‹",
        "syllables": "ã…‹ã…ã…ˆã…ã…ã…¡ã……ã…¡ã…Œã…ã„´"
      },
      {
        "regionCode": "QA",
        "regionName": "ì¹´íƒ€ë¥´",
        "regionFlag": "ğŸ‡¶ğŸ‡¦",
        "callingCode": "+974",
        "index": "ã…‹",
        "syllables": "ã…‹ã…ã…Œã…ã„¹ã…¡"
      },
      {
        "callingCode": "+1",
        "regionCode": "CA",
        "regionName": "ìºë‚˜ë‹¤",
        "regionFlag": "ğŸ‡¨ğŸ‡¦",
        "index": "ã…‹",
        "syllables": "ã…‹ã…ã„´ã…ã„·ã…"
      },
      {
        "callingCode": "+254",
        "regionFlag": "ğŸ‡°ğŸ‡ª",
        "regionName": "ì¼€ëƒ",
        "regionCode": "KE",
        "index": "ã…‹",
        "syllables": "ã…‹ã…”ã„´ã…‘"
      },
      {
        "callingCode": "+345",
        "regionFlag": "ğŸ‡°ğŸ‡¾",
        "regionCode": "KY",
        "regionName": "ì¼€ì´ë§¨ ì œë„",
        "index": "ã…‹",
        "syllables": "ã…‹ã…”ã…‡ã…£ã…ã…ã„´ ã…ˆã…”ã„·ã…—"
      },
      {
        "regionName": "ì½œë¡¬ë¹„ì•„",
        "regionFlag": "ğŸ‡¨ğŸ‡´",
        "regionCode": "CO",
        "callingCode": "+57",
        "index": "ã…‹",
        "syllables": "ã…‹ã…—ã„¹ã„¹ã…—ã…ã…‚ã…£ã…‡ã…"
      },
      {
        "regionName": "ì½”ëª¨ë¡œ",
        "callingCode": "+269",
        "regionFlag": "ğŸ‡°ğŸ‡²",
        "regionCode": "KM",
        "index": "ã…‹",
        "syllables": "ã…‹ã…—ã…ã…—ã„¹ã…—"
      },
      {
        "regionFlag": "ğŸ‡¨ğŸ‡·",
        "callingCode": "+506",
        "regionName": "ì½”ìŠ¤íƒ€ë¦¬ì¹´",
        "regionCode": "CR",
        "index": "ã…‹",
        "syllables": "ã…‹ã…—ã……ã…¡ã…Œã…ã„¹ã…£ã…‹ã…"
      },
      {
        "callingCode": "+242",
        "regionName": "ì½©ê³ -ë¸Œë¼ìë¹Œ",
        "regionCode": "CG",
        "regionFlag": "ğŸ‡¨ğŸ‡¬",
        "index": "ã…‹",
        "syllables": "ã…‹ã…—ã…‡ã„±ã…—-ã…‚ã…¡ã„¹ã…ã…ˆã…ã…‚ã…£ã„¹"
      },
      {
        "callingCode": "+243",
        "regionCode": "CD",
        "regionFlag": "ğŸ‡¨ğŸ‡©",
        "regionName": "ì½©ê³ -í‚¨ìƒ¤ì‚¬",
        "index": "ã…‹",
        "syllables": "ã…‹ã…—ã…‡ã„±ã…—-ã…‹ã…£ã„´ã……ã…‘ã……ã…"
      },
      {
        "regionCode": "CC",
        "regionFlag": "ğŸ‡¨ğŸ‡¨",
        "regionName": "ì½”ì½”ìŠ¤ ì œë„",
        "callingCode": "+61",
        "index": "ã…‹",
        "syllables": "ã…‹ã…—ã…‹ã…—ã……ã…¡ ã…ˆã…”ã„·ã…—"
      },
      {
        "callingCode": "+225",
        "regionFlag": "ğŸ‡¨ğŸ‡®",
        "regionCode": "CI",
        "regionName": "ì½”íŠ¸ë””ë¶€ì•„ë¥´",
        "index": "ã…‹",
        "syllables": "ã…‹ã…—ã…Œã…¡ã„·ã…£ã…‚ã…œã…‡ã…ã„¹ã…¡"
      },
      {
        "regionFlag": "ğŸ‡¨ğŸ‡°",
        "regionCode": "CK",
        "regionName": "ì¿¡ ì œë„",
        "callingCode": "+682",
        "index": "ã…‹",
        "syllables": "ã…‹ã…œã„± ã…ˆã…”ã„·ã…—"
      },
      {
        "regionName": "ì¿ ë°”",
        "regionFlag": "ğŸ‡¨ğŸ‡º",
        "regionCode": "CU",
        "callingCode": "+53",
        "index": "ã…‹",
        "syllables": "ã…‹ã…œã…‚ã…"
      },
      {
        "callingCode": "+965",
        "regionCode": "KW",
        "regionFlag": "ğŸ‡°ğŸ‡¼",
        "regionName": "ì¿ ì›¨ì´íŠ¸",
        "index": "ã…‹",
        "syllables": "ã…‹ã…œã…‡ã…œã…”ã…‡ã…£ã…Œã…¡"
      },
      {
        "regionFlag": "ğŸ‡¨ğŸ‡¼",
        "regionCode": "CW",
        "regionName": "í€´ë¼ì†Œ",
        "callingCode": "+599 9",
        "index": "ã…‹",
        "syllables": "ã…‹ã…œã…£ã„¹ã…ã……ã…—"
      },
      {
        "regionCode": "HR",
        "regionFlag": "ğŸ‡­ğŸ‡·",
        "regionName": "í¬ë¡œì•„í‹°ì•„",
        "callingCode": "+385",
        "index": "ã…‹",
        "syllables": "ã…‹ã…¡ã„¹ã…—ã…‡ã…ã…Œã…£ã…‡ã…"
      },
      {
        "regionCode": "CX",
        "regionName": "í¬ë¦¬ìŠ¤ë§ˆìŠ¤ì„¬",
        "callingCode": "+61",
        "regionFlag": "ğŸ‡¨ğŸ‡½",
        "index": "ã…‹",
        "syllables": "ã…‹ã…¡ã„¹ã…£ã……ã…¡ã…ã…ã……ã…¡ã……ã…“ã…"
      },
      {
        "callingCode": "+996",
        "regionFlag": "ğŸ‡°ğŸ‡¬",
        "regionName": "í‚¤ë¥´ê¸°ìŠ¤ìŠ¤íƒ„",
        "regionCode": "KG",
        "index": "ã…‹",
        "syllables": "ã…‹ã…£ã„¹ã…¡ã„±ã…£ã……ã…¡ã……ã…¡ã…Œã…ã„´"
      },
      {
        "regionCode": "KI",
        "regionName": "í‚¤ë¦¬ë°”ì‹œ",
        "callingCode": "+686",
        "regionFlag": "ğŸ‡°ğŸ‡®",
        "index": "ã…‹",
        "syllables": "ã…‹ã…£ã„¹ã…£ã…‚ã…ã……ã…£"
      },
      {
        "regionName": "í‚¤í”„ë¡œìŠ¤",
        "regionCode": "CY",
        "callingCode": "+357",
        "regionFlag": "ğŸ‡¨ğŸ‡¾",
        "index": "ã…‹",
        "syllables": "ã…‹ã…£ã…ã…¡ã„¹ã…—ã……ã…¡"
      }
    ]
  },
  {
    "index": "ã…Œ",
    "items": [
      {
        "regionName": "íƒ„ìë‹ˆì•„",
        "callingCode": "+255",
        "regionCode": "TZ",
        "regionFlag": "ğŸ‡¹ğŸ‡¿",
        "index": "ã…Œ",
        "syllables": "ã…Œã…ã„´ã…ˆã…ã„´ã…£ã…‡ã…"
      },
      {
        "regionName": "íƒ€ì§€í‚¤ìŠ¤íƒ„",
        "regionCode": "TJ",
        "callingCode": "+992",
        "regionFlag": "ğŸ‡¹ğŸ‡¯",
        "index": "ã…Œ",
        "syllables": "ã…Œã…ã…ˆã…£ã…‹ã…£ã……ã…¡ã…Œã…ã„´"
      },
      {
        "callingCode": "+66",
        "regionCode": "TH",
        "regionFlag": "ğŸ‡¹ğŸ‡­",
        "regionName": "íƒœêµ­",
        "index": "ã…Œ",
        "syllables": "ã…Œã…ã„±ã…œã„±"
      },
      {
        "callingCode": "+1-649",
        "regionFlag": "ğŸ‡¹ğŸ‡¨",
        "regionCode": "TC",
        "regionName": "í„°í¬ìŠ¤ ì¼€ì´ì»¤ìŠ¤ ì œë„",
        "index": "ã…Œ",
        "syllables": "ã…Œã…“ã…‹ã…¡ã……ã…¡ ã…‹ã…”ã…‡ã…£ã…‹ã…“ã……ã…¡ ã…ˆã…”ã„·ã…—"
      },
      {
        "regionName": "í„°í‚¤",
        "regionCode": "TR",
        "regionFlag": "ğŸ‡¹ğŸ‡·",
        "callingCode": "+90",
        "index": "ã…Œ",
        "syllables": "ã…Œã…“ã…‹ã…£"
      },
      {
        "regionCode": "TG",
        "regionFlag": "ğŸ‡¹ğŸ‡¬",
        "callingCode": "+228",
        "regionName": "í† ê³ ",
        "index": "ã…Œ",
        "syllables": "ã…Œã…—ã„±ã…—"
      },
      {
        "callingCode": "+676",
        "regionFlag": "ğŸ‡¹ğŸ‡´",
        "regionCode": "TO",
        "regionName": "í†µê°€",
        "index": "ã…Œ",
        "syllables": "ã…Œã…—ã…‡ã„±ã…"
      },
      {
        "regionFlag": "ğŸ‡¹ğŸ‡°",
        "regionName": "í† ì¼ˆë¼ìš°",
        "regionCode": "TK",
        "callingCode": "+690",
        "index": "ã…Œ",
        "syllables": "ã…Œã…—ã…‹ã…”ã„¹ã„¹ã…ã…‡ã…œ"
      },
      {
        "regionFlag": "ğŸ‡¹ğŸ‡²",
        "regionName": "íˆ¬ë¥´í¬ë©”ë‹ˆìŠ¤íƒ„",
        "callingCode": "+993",
        "regionCode": "TM",
        "index": "ã…Œ",
        "syllables": "ã…Œã…œã„¹ã…¡ã…‹ã…¡ã…ã…”ã„´ã…£ã……ã…¡ã…Œã…ã„´"
      },
      {
        "regionName": "íˆ¬ë°œë£¨",
        "regionCode": "TV",
        "callingCode": "+688",
        "regionFlag": "ğŸ‡¹ğŸ‡»",
        "index": "ã…Œ",
        "syllables": "ã…Œã…œã…‚ã…ã„¹ã„¹ã…œ"
      },
      {
        "regionFlag": "ğŸ‡¹ğŸ‡³",
        "callingCode": "+216",
        "regionCode": "TN",
        "regionName": "íŠ€ë‹ˆì§€",
        "index": "ã…Œ",
        "syllables": "ã…Œã…œã…£ã„´ã…£ã…ˆã…£"
      },
      {
        "callingCode": "+1-868",
        "regionCode": "TT",
        "regionName": "íŠ¸ë¦¬ë‹ˆë‹¤ë“œ í† ë°”ê³ ",
        "regionFlag": "ğŸ‡¹ğŸ‡¹",
        "index": "ã…Œ",
        "syllables": "ã…Œã…¡ã„¹ã…£ã„´ã…£ã„·ã…ã„·ã…¡ ã…Œã…—ã…‚ã…ã„±ã…—"
      }
    ]
  },
  {
    "index": "ã…",
    "items": [
      {
        "callingCode": "+507",
        "regionName": "íŒŒë‚˜ë§ˆ",
        "regionFlag": "ğŸ‡µğŸ‡¦",
        "regionCode": "PA",
        "index": "ã…",
        "syllables": "ã…ã…ã„´ã…ã…ã…"
      },
      {
        "regionName": "íŒ”ë¼ìš°",
        "callingCode": "+680",
        "regionFlag": "ğŸ‡µğŸ‡¼",
        "regionCode": "PW",
        "index": "ã…",
        "syllables": "ã…ã…ã„¹ã„¹ã…ã…‡ã…œ"
      },
      {
        "callingCode": "+970",
        "regionCode": "PS",
        "regionFlag": "ğŸ‡µğŸ‡¸",
        "regionName": "íŒ”ë ˆìŠ¤íƒ€ì¸ ì§€êµ¬",
        "index": "ã…",
        "syllables": "ã…ã…ã„¹ã„¹ã…”ã……ã…¡ã…Œã…ã…‡ã…£ã„´ ã…ˆã…£ã„±ã…œ"
      },
      {
        "regionName": "íŒŒë¼ê³¼ì´",
        "regionFlag": "ğŸ‡µğŸ‡¾",
        "callingCode": "+595",
        "regionCode": "PY",
        "index": "ã…",
        "syllables": "ã…ã…ã„¹ã…ã„±ã…—ã…ã…‡ã…£"
      },
      {
        "callingCode": "+92",
        "regionCode": "PK",
        "regionFlag": "ğŸ‡µğŸ‡°",
        "regionName": "íŒŒí‚¤ìŠ¤íƒ„",
        "index": "ã…",
        "syllables": "ã…ã…ã…‹ã…£ã……ã…¡ã…Œã…ã„´"
      },
      {
        "regionCode": "PG",
        "regionFlag": "ğŸ‡µğŸ‡¬",
        "regionName": "íŒŒí‘¸ì•„ë‰´ê¸°ë‹ˆ",
        "callingCode": "+675",
        "index": "ã…",
        "syllables": "ã…ã…ã…ã…œã…‡ã…ã„´ã… ã„±ã…£ã„´ã…£"
      },
      {
        "regionCode": "FO",
        "regionName": "í˜ë¡œ ì œë„",
        "regionFlag": "ğŸ‡«ğŸ‡´",
        "callingCode": "+298",
        "index": "ã…",
        "syllables": "ã…ã…”ã„¹ã…— ã…ˆã…”ã„·ã…—"
      },
      {
        "regionCode": "PE",
        "regionName": "í˜ë£¨",
        "callingCode": "+51",
        "regionFlag": "ğŸ‡µğŸ‡ª",
        "index": "ã…",
        "syllables": "ã…ã…”ã„¹ã…œ"
      },
      {
        "regionCode": "PL",
        "regionFlag": "ğŸ‡µğŸ‡±",
        "callingCode": "+48",
        "regionName": "í´ë€ë“œ",
        "index": "ã…",
        "syllables": "ã…ã…—ã„¹ã„¹ã…ã„´ã„·ã…¡"
      },
      {
        "regionCode": "PT",
        "regionFlag": "ğŸ‡µğŸ‡¹",
        "callingCode": "+351",
        "regionName": "í¬ë¥´íˆ¬ê°ˆ",
        "index": "ã…",
        "syllables": "ã…ã…—ã„¹ã…¡ã…Œã…œã„±ã…ã„¹"
      },
      {
        "regionName": "í¬í´ëœë“œ ì œë„",
        "regionCode": "FK",
        "regionFlag": "ğŸ‡«ğŸ‡°",
        "callingCode": "+500",
        "index": "ã…",
        "syllables": "ã…ã…—ã…‹ã…¡ã„¹ã„¹ã…ã„´ã„·ã…¡ ã…ˆã…”ã„·ã…—"
      },
      {
        "regionName": "í‘¸ì—ë¥´í† ë¦¬ì½”",
        "regionCode": "PR",
        "regionFlag": "ğŸ‡µğŸ‡·",
        "callingCode": "+1-939",
        "index": "ã…",
        "syllables": "ã…ã…œã…‡ã…”ã„¹ã…¡ã…Œã…—ã„¹ã…£ã…‹ã…—"
      },
      {
        "regionCode": "FR",
        "regionFlag": "ğŸ‡«ğŸ‡·",
        "regionName": "í”„ë‘ìŠ¤",
        "callingCode": "+33",
        "index": "ã…",
        "syllables": "ã…ã…¡ã„¹ã…ã…‡ã……ã…¡"
      },
      {
        "regionName": "í”„ë‘ìŠ¤ë ¹ ê¸°ì•„ë‚˜",
        "regionFlag": "ğŸ‡¬ğŸ‡«",
        "callingCode": "+594",
        "regionCode": "GF",
        "index": "ã…",
        "syllables": "ã…ã…¡ã„¹ã…ã…‡ã……ã…¡ã„¹ã…•ã…‡ ã„±ã…£ã…‡ã…ã„´ã…"
      },
      {
        "callingCode": "+689",
        "regionFlag": "ğŸ‡µğŸ‡«",
        "regionName": "í”„ë‘ìŠ¤ë ¹ í´ë¦¬ë„¤ì‹œì•„",
        "regionCode": "PF",
        "index": "ã…",
        "syllables": "ã…ã…¡ã„¹ã…ã…‡ã……ã…¡ã„¹ã…•ã…‡ ã…ã…—ã„¹ã„¹ã…£ã„´ã…”ã……ã…£ã…‡ã…"
      },
      {
        "regionFlag": "ğŸ‡«ğŸ‡®",
        "regionCode": "FI",
        "callingCode": "+358",
        "regionName": "í•€ë€ë“œ",
        "index": "ã…",
        "syllables": "ã…ã…£ã„´ã„¹ã…ã„´ã„·ã…¡"
      },
      {
        "regionName": "í•„ë¦¬í•€",
        "regionFlag": "ğŸ‡µğŸ‡­",
        "callingCode": "+63",
        "regionCode": "PH",
        "index": "ã…",
        "syllables": "ã…ã…£ã„¹ã„¹ã…£ã…ã…£ã„´"
      },
      {
        "regionName": "í•ì¼€ì–¸ ì„¬",
        "callingCode": "+872",
        "regionCode": "PN",
        "regionFlag": "ğŸ‡µğŸ‡³",
        "index": "ã…",
        "syllables": "ã…ã…£ã……ã…‹ã…”ã…‡ã…“ã„´ ã……ã…“ã…"
      },
      {
        "regionCode": "FJ",
        "regionFlag": "ğŸ‡«ğŸ‡¯",
        "regionName": "í”¼ì§€",
        "callingCode": "+679",
        "index": "ã…",
        "syllables": "ã…ã…£ã…ˆã…£"
      }
    ]
  },
  {
    "index": "ã…",
    "items": [
      {
        "callingCode": "+672",
        "regionFlag": "ğŸ‡­ğŸ‡²",
        "regionName": "í—ˆë“œ ë§¥ë„ë„ë“œ ì œë„",
        "regionCode": "HM",
        "index": "ã…",
        "syllables": "ã…ã…“ã„·ã…¡ ã…ã…ã„±ã„·ã…—ã„´ã…“ã„¹ã„·ã…¡ ã…ˆã…”ã„·ã…—"
      },
      {
        "regionCode": "HU",
        "regionName": "í—ê°€ë¦¬",
        "regionFlag": "ğŸ‡­ğŸ‡º",
        "callingCode": "+36",
        "index": "ã…",
        "syllables": "ã…ã…“ã…‡ã„±ã…ã„¹ã…£"
      },
      {
        "regionCode": "HK",
        "regionName": "í™ì½©(ì¤‘êµ­ íŠ¹ë³„í–‰ì •êµ¬)",
        "regionFlag": "ğŸ‡­ğŸ‡°",
        "callingCode": "+852",
        "index": "ã…",
        "syllables": "ã…ã…—ã…‡ã…‹ã…—ã…‡(ã…ˆã…œã…‡ã„±ã…œã„± ã…Œã…¡ã„±ã…‚ã…•ã„¹ã…ã…ã…‡ã…ˆã…“ã…‡ã„±ã…œ)"
      }
    ]
  }
]