[
  {
    "index": "A",
    "items": [
      {
        "regionFlag": "ğŸ‡¦ğŸ‡«",
        "regionCode": "AF",
        "callingCode": "+93",
        "regionName": "AfganistÃ¡n"
      },
      {
        "regionName": "Albania",
        "regionCode": "AL",
        "callingCode": "+355",
        "regionFlag": "ğŸ‡¦ğŸ‡±"
      },
      {
        "regionName": "Alemania",
        "regionFlag": "ğŸ‡©ğŸ‡ª",
        "regionCode": "DE",
        "callingCode": "+49"
      },
      {
        "regionCode": "AD",
        "regionFlag": "ğŸ‡¦ğŸ‡©",
        "regionName": "Andorra",
        "callingCode": "+376"
      },
      {
        "regionName": "Angola",
        "regionCode": "AO",
        "callingCode": "+244",
        "regionFlag": "ğŸ‡¦ğŸ‡´"
      },
      {
        "callingCode": "+1-264",
        "regionCode": "AI",
        "regionFlag": "ğŸ‡¦ğŸ‡®",
        "regionName": "Anguila"
      },
      {
        "regionCode": "AG",
        "regionName": "Antigua y Barbuda",
        "callingCode": "+1-268",
        "regionFlag": "ğŸ‡¦ğŸ‡¬"
      },
      {
        "regionFlag": "ğŸ‡¦ğŸ‡¶",
        "regionName": "AntÃ¡rtida",
        "callingCode": "+672",
        "regionCode": "AQ"
      },
      {
        "regionName": "Arabia SaudÃ­",
        "regionCode": "SA",
        "regionFlag": "ğŸ‡¸ğŸ‡¦",
        "callingCode": "+966"
      },
      {
        "regionCode": "DZ",
        "regionFlag": "ğŸ‡©ğŸ‡¿",
        "callingCode": "+213",
        "regionName": "Argelia"
      },
      {
        "regionCode": "AR",
        "regionName": "Argentina",
        "regionFlag": "ğŸ‡¦ğŸ‡·",
        "callingCode": "+54"
      },
      {
        "regionCode": "AM",
        "regionFlag": "ğŸ‡¦ğŸ‡²",
        "regionName": "Armenia",
        "callingCode": "+374"
      },
      {
        "callingCode": "+297",
        "regionName": "Aruba",
        "regionCode": "AW",
        "regionFlag": "ğŸ‡¦ğŸ‡¼"
      },
      {
        "regionName": "Ascension Island",
        "callingCode": "+247",
        "regionCode": "AC",
        "regionFlag": "ğŸ‡¦ğŸ‡¨"
      },
      {
        "regionCode": "AU",
        "regionName": "Australia",
        "callingCode": "+61",
        "regionFlag": "ğŸ‡¦ğŸ‡º"
      },
      {
        "regionCode": "AT",
        "regionFlag": "ğŸ‡¦ğŸ‡¹",
        "callingCode": "+43",
        "regionName": "Austria"
      },
      {
        "callingCode": "+994",
        "regionFlag": "ğŸ‡¦ğŸ‡¿",
        "regionName": "AzerbaiyÃ¡n",
        "regionCode": "AZ"
      }
    ]
  },
  {
    "index": "B",
    "items": [
      {
        "regionFlag": "ğŸ‡§ğŸ‡¸",
        "regionCode": "BS",
        "regionName": "Bahamas",
        "callingCode": "+1-242"
      },
      {
        "callingCode": "+880",
        "regionCode": "BD",
        "regionFlag": "ğŸ‡§ğŸ‡©",
        "regionName": "BangladÃ©s"
      },
      {
        "regionCode": "BB",
        "regionFlag": "ğŸ‡§ğŸ‡§",
        "regionName": "Barbados",
        "callingCode": "+1-246"
      },
      {
        "regionName": "BarÃ©in",
        "regionFlag": "ğŸ‡§ğŸ‡­",
        "callingCode": "+973",
        "regionCode": "BH"
      },
      {
        "regionCode": "BZ",
        "regionFlag": "ğŸ‡§ğŸ‡¿",
        "callingCode": "+501",
        "regionName": "Belice"
      },
      {
        "regionName": "BenÃ­n",
        "regionFlag": "ğŸ‡§ğŸ‡¯",
        "regionCode": "BJ",
        "callingCode": "+229"
      },
      {
        "regionName": "Bermudas",
        "callingCode": "+1-441",
        "regionCode": "BM",
        "regionFlag": "ğŸ‡§ğŸ‡²"
      },
      {
        "regionCode": "BY",
        "regionFlag": "ğŸ‡§ğŸ‡¾",
        "regionName": "Bielorrusia",
        "callingCode": "+375"
      },
      {
        "regionName": "Bolivia",
        "callingCode": "+591",
        "regionCode": "BO",
        "regionFlag": "ğŸ‡§ğŸ‡´"
      },
      {
        "regionCode": "BA",
        "callingCode": "+387",
        "regionFlag": "ğŸ‡§ğŸ‡¦",
        "regionName": "Bosnia y Herzegovina"
      },
      {
        "regionFlag": "ğŸ‡§ğŸ‡¼",
        "regionName": "Botsuana",
        "regionCode": "BW",
        "callingCode": "+267"
      },
      {
        "regionName": "Brasil",
        "regionCode": "BR",
        "callingCode": "+55",
        "regionFlag": "ğŸ‡§ğŸ‡·"
      },
      {
        "regionName": "BrunÃ©i",
        "regionCode": "BN",
        "regionFlag": "ğŸ‡§ğŸ‡³",
        "callingCode": "+673"
      },
      {
        "regionName": "Bulgaria",
        "callingCode": "+359",
        "regionCode": "BG",
        "regionFlag": "ğŸ‡§ğŸ‡¬"
      },
      {
        "callingCode": "+226",
        "regionFlag": "ğŸ‡§ğŸ‡«",
        "regionName": "Burkina Faso",
        "regionCode": "BF"
      },
      {
        "regionFlag": "ğŸ‡§ğŸ‡®",
        "regionName": "Burundi",
        "regionCode": "BI",
        "callingCode": "+257"
      },
      {
        "regionCode": "BT",
        "regionName": "ButÃ¡n",
        "callingCode": "+975",
        "regionFlag": "ğŸ‡§ğŸ‡¹"
      },
      {
        "callingCode": "+32",
        "regionCode": "BE",
        "regionName": "BÃ©lgica",
        "regionFlag": "ğŸ‡§ğŸ‡ª"
      }
    ]
  },
  {
    "index": "C",
    "items": [
      {
        "regionFlag": "ğŸ‡¨ğŸ‡»",
        "regionName": "Cabo Verde",
        "callingCode": "+238",
        "regionCode": "CV"
      },
      {
        "regionFlag": "ğŸ‡°ğŸ‡­",
        "regionCode": "KH",
        "callingCode": "+855",
        "regionName": "Camboya"
      },
      {
        "callingCode": "+237",
        "regionFlag": "ğŸ‡¨ğŸ‡²",
        "regionCode": "CM",
        "regionName": "CamerÃºn"
      },
      {
        "callingCode": "+1",
        "regionCode": "CA",
        "regionName": "CanadÃ¡",
        "regionFlag": "ğŸ‡¨ğŸ‡¦"
      },
      {
        "regionName": "Caribe neerlandÃ©s",
        "callingCode": "+599",
        "regionFlag": "ğŸ‡§ğŸ‡¶",
        "regionCode": "BQ"
      },
      {
        "regionCode": "QA",
        "regionName": "Catar",
        "regionFlag": "ğŸ‡¶ğŸ‡¦",
        "callingCode": "+974"
      },
      {
        "regionName": "Chad",
        "regionFlag": "ğŸ‡¹ğŸ‡©",
        "callingCode": "+235",
        "regionCode": "TD"
      },
      {
        "callingCode": "+420",
        "regionFlag": "ğŸ‡¨ğŸ‡¿",
        "regionCode": "CZ",
        "regionName": "Chequia"
      },
      {
        "regionName": "Chile",
        "regionCode": "CL",
        "callingCode": "+56",
        "regionFlag": "ğŸ‡¨ğŸ‡±"
      },
      {
        "regionFlag": "ğŸ‡¨ğŸ‡³",
        "callingCode": "+86",
        "regionName": "China",
        "regionCode": "CN"
      },
      {
        "regionName": "Chipre",
        "regionCode": "CY",
        "callingCode": "+357",
        "regionFlag": "ğŸ‡¨ğŸ‡¾"
      },
      {
        "regionFlag": "ğŸ‡»ğŸ‡¦",
        "regionName": "Ciudad del Vaticano",
        "callingCode": "+379",
        "regionCode": "VA"
      },
      {
        "regionName": "Colombia",
        "regionFlag": "ğŸ‡¨ğŸ‡´",
        "regionCode": "CO",
        "callingCode": "+57"
      },
      {
        "regionName": "Comoras",
        "callingCode": "+269",
        "regionFlag": "ğŸ‡°ğŸ‡²",
        "regionCode": "KM"
      },
      {
        "callingCode": "+242",
        "regionName": "Congo",
        "regionCode": "CG",
        "regionFlag": "ğŸ‡¨ğŸ‡¬"
      },
      {
        "regionCode": "KP",
        "regionFlag": "ğŸ‡°ğŸ‡µ",
        "callingCode": "+850",
        "regionName": "Corea del Norte"
      },
      {
        "regionFlag": "ğŸ‡°ğŸ‡·",
        "callingCode": "+82",
        "regionName": "Corea del Sur",
        "regionCode": "KR"
      },
      {
        "regionFlag": "ğŸ‡¨ğŸ‡·",
        "callingCode": "+506",
        "regionName": "Costa Rica",
        "regionCode": "CR"
      },
      {
        "regionCode": "HR",
        "regionFlag": "ğŸ‡­ğŸ‡·",
        "regionName": "Croacia",
        "callingCode": "+385"
      },
      {
        "regionName": "Cuba",
        "regionFlag": "ğŸ‡¨ğŸ‡º",
        "regionCode": "CU",
        "callingCode": "+53"
      },
      {
        "regionFlag": "ğŸ‡¨ğŸ‡¼",
        "regionCode": "CW",
        "regionName": "Curazao",
        "callingCode": "+599 9"
      },
      {
        "callingCode": "+225",
        "regionFlag": "ğŸ‡¨ğŸ‡®",
        "regionCode": "CI",
        "regionName": "CÃ´te dâ€™Ivoire"
      }
    ]
  },
  {
    "index": "D",
    "items": [
      {
        "regionFlag": "ğŸ‡©ğŸ‡°",
        "regionCode": "DK",
        "regionName": "Dinamarca",
        "callingCode": "+45"
      },
      {
        "callingCode": "+1-767",
        "regionFlag": "ğŸ‡©ğŸ‡²",
        "regionName": "Dominica",
        "regionCode": "DM"
      }
    ]
  },
  {
    "index": "E",
    "items": [
      {
        "regionCode": "EC",
        "regionName": "Ecuador",
        "callingCode": "+593",
        "regionFlag": "ğŸ‡ªğŸ‡¨"
      },
      {
        "regionFlag": "ğŸ‡ªğŸ‡¬",
        "regionCode": "EG",
        "regionName": "Egipto",
        "callingCode": "+20"
      },
      {
        "callingCode": "+503",
        "regionFlag": "ğŸ‡¸ğŸ‡»",
        "regionCode": "SV",
        "regionName": "El Salvador"
      },
      {
        "regionCode": "AE",
        "callingCode": "+971",
        "regionFlag": "ğŸ‡¦ğŸ‡ª",
        "regionName": "Emiratos Ãrabes Unidos"
      },
      {
        "regionCode": "ER",
        "regionFlag": "ğŸ‡ªğŸ‡·",
        "callingCode": "+291",
        "regionName": "Eritrea"
      },
      {
        "regionCode": "SK",
        "regionName": "Eslovaquia",
        "callingCode": "+421",
        "regionFlag": "ğŸ‡¸ğŸ‡°"
      },
      {
        "regionName": "Eslovenia",
        "regionFlag": "ğŸ‡¸ğŸ‡®",
        "regionCode": "SI",
        "callingCode": "+386"
      },
      {
        "regionFlag": "ğŸ‡ªğŸ‡¸",
        "callingCode": "+34",
        "regionCode": "ES",
        "regionName": "EspaÃ±a"
      },
      {
        "callingCode": "+1",
        "regionName": "Estados Unidos",
        "regionFlag": "ğŸ‡ºğŸ‡¸",
        "regionCode": "US"
      },
      {
        "callingCode": "+372",
        "regionName": "Estonia",
        "regionCode": "EE",
        "regionFlag": "ğŸ‡ªğŸ‡ª"
      },
      {
        "regionCode": "SZ",
        "regionName": "Esuatini",
        "regionFlag": "ğŸ‡¸ğŸ‡¿",
        "callingCode": "+268"
      },
      {
        "callingCode": "+251",
        "regionFlag": "ğŸ‡ªğŸ‡¹",
        "regionCode": "ET",
        "regionName": "EtiopÃ­a"
      }
    ]
  },
  {
    "index": "F",
    "items": [
      {
        "regionName": "Filipinas",
        "regionFlag": "ğŸ‡µğŸ‡­",
        "callingCode": "+63",
        "regionCode": "PH"
      },
      {
        "regionFlag": "ğŸ‡«ğŸ‡®",
        "regionCode": "FI",
        "callingCode": "+358",
        "regionName": "Finlandia"
      },
      {
        "regionCode": "FJ",
        "regionFlag": "ğŸ‡«ğŸ‡¯",
        "regionName": "Fiyi",
        "callingCode": "+679"
      },
      {
        "regionCode": "FR",
        "regionFlag": "ğŸ‡«ğŸ‡·",
        "regionName": "Francia",
        "callingCode": "+33"
      }
    ]
  },
  {
    "index": "G",
    "items": [
      {
        "regionFlag": "ğŸ‡¬ğŸ‡¦",
        "callingCode": "+241",
        "regionName": "GabÃ³n",
        "regionCode": "GA"
      },
      {
        "regionCode": "GM",
        "callingCode": "+220",
        "regionFlag": "ğŸ‡¬ğŸ‡²",
        "regionName": "Gambia"
      },
      {
        "regionCode": "GE",
        "regionFlag": "ğŸ‡¬ğŸ‡ª",
        "callingCode": "+995",
        "regionName": "Georgia"
      },
      {
        "callingCode": "+233",
        "regionFlag": "ğŸ‡¬ğŸ‡­",
        "regionCode": "GH",
        "regionName": "Ghana"
      },
      {
        "regionName": "Gibraltar",
        "regionCode": "GI",
        "regionFlag": "ğŸ‡¬ğŸ‡®",
        "callingCode": "+350"
      },
      {
        "regionCode": "GD",
        "regionName": "Granada",
        "callingCode": "+1-473",
        "regionFlag": "ğŸ‡¬ğŸ‡©"
      },
      {
        "callingCode": "+30",
        "regionCode": "GR",
        "regionFlag": "ğŸ‡¬ğŸ‡·",
        "regionName": "Grecia"
      },
      {
        "regionFlag": "ğŸ‡¬ğŸ‡±",
        "regionCode": "GL",
        "regionName": "Groenlandia",
        "callingCode": "+299"
      },
      {
        "callingCode": "+590",
        "regionCode": "GP",
        "regionFlag": "ğŸ‡¬ğŸ‡µ",
        "regionName": "Guadalupe"
      },
      {
        "regionCode": "GU",
        "callingCode": "+1-671",
        "regionName": "Guam",
        "regionFlag": "ğŸ‡¬ğŸ‡º"
      },
      {
        "regionCode": "GT",
        "regionFlag": "ğŸ‡¬ğŸ‡¹",
        "callingCode": "+502",
        "regionName": "Guatemala"
      },
      {
        "regionName": "Guayana Francesa",
        "regionFlag": "ğŸ‡¬ğŸ‡«",
        "callingCode": "+594",
        "regionCode": "GF"
      },
      {
        "callingCode": "+44",
        "regionName": "Guernsey",
        "regionCode": "GG",
        "regionFlag": "ğŸ‡¬ğŸ‡¬"
      },
      {
        "regionName": "Guinea",
        "regionFlag": "ğŸ‡¬ğŸ‡³",
        "regionCode": "GN",
        "callingCode": "+224"
      },
      {
        "regionCode": "GQ",
        "regionFlag": "ğŸ‡¬ğŸ‡¶",
        "callingCode": "+240",
        "regionName": "Guinea Ecuatorial"
      },
      {
        "regionCode": "GW",
        "regionName": "Guinea-BisÃ¡u",
        "callingCode": "+245",
        "regionFlag": "ğŸ‡¬ğŸ‡¼"
      },
      {
        "callingCode": "+595",
        "regionName": "Guyana",
        "regionCode": "GY",
        "regionFlag": "ğŸ‡¬ğŸ‡¾"
      }
    ]
  },
  {
    "index": "H",
    "items": [
      {
        "regionFlag": "ğŸ‡­ğŸ‡¹",
        "regionCode": "HT",
        "regionName": "HaitÃ­",
        "callingCode": "+509"
      },
      {
        "regionCode": "HN",
        "callingCode": "+504",
        "regionName": "Honduras",
        "regionFlag": "ğŸ‡­ğŸ‡³"
      },
      {
        "regionCode": "HU",
        "regionName": "HungrÃ­a",
        "regionFlag": "ğŸ‡­ğŸ‡º",
        "callingCode": "+36"
      }
    ]
  },
  {
    "index": "I",
    "items": [
      {
        "regionCode": "IN",
        "regionFlag": "ğŸ‡®ğŸ‡³",
        "regionName": "India",
        "callingCode": "+91"
      },
      {
        "regionCode": "ID",
        "regionFlag": "ğŸ‡®ğŸ‡©",
        "callingCode": "+62",
        "regionName": "Indonesia"
      },
      {
        "callingCode": "+964",
        "regionCode": "IQ",
        "regionFlag": "ğŸ‡®ğŸ‡¶",
        "regionName": "Irak"
      },
      {
        "callingCode": "+353",
        "regionName": "Irlanda",
        "regionCode": "IE",
        "regionFlag": "ğŸ‡®ğŸ‡ª"
      },
      {
        "regionFlag": "ğŸ‡®ğŸ‡·",
        "callingCode": "+98",
        "regionCode": "IR",
        "regionName": "IrÃ¡n"
      },
      {
        "regionFlag": "ğŸ‡³ğŸ‡«",
        "regionName": "Isla Norfolk",
        "callingCode": "+672",
        "regionCode": "NF"
      },
      {
        "regionCode": "IM",
        "callingCode": "+44",
        "regionFlag": "ğŸ‡®ğŸ‡²",
        "regionName": "Isla de Man"
      },
      {
        "regionCode": "CX",
        "regionName": "Isla de Navidad",
        "callingCode": "+61",
        "regionFlag": "ğŸ‡¨ğŸ‡½"
      },
      {
        "regionCode": "IS",
        "regionFlag": "ğŸ‡®ğŸ‡¸",
        "regionName": "Islandia",
        "callingCode": "+354"
      },
      {
        "callingCode": "+345",
        "regionFlag": "ğŸ‡°ğŸ‡¾",
        "regionCode": "KY",
        "regionName": "Islas CaimÃ¡n"
      },
      {
        "regionCode": "CC",
        "regionFlag": "ğŸ‡¨ğŸ‡¨",
        "regionName": "Islas Cocos",
        "callingCode": "+61"
      },
      {
        "regionFlag": "ğŸ‡¨ğŸ‡°",
        "regionCode": "CK",
        "regionName": "Islas Cook",
        "callingCode": "+682"
      },
      {
        "regionCode": "FO",
        "regionName": "Islas Feroe",
        "regionFlag": "ğŸ‡«ğŸ‡´",
        "callingCode": "+298"
      },
      {
        "regionFlag": "ğŸ‡¬ğŸ‡¸",
        "regionName": "Islas Georgia del Sur y Sandwich del Sur",
        "regionCode": "GS",
        "callingCode": "+500"
      },
      {
        "callingCode": "+672",
        "regionFlag": "ğŸ‡­ğŸ‡²",
        "regionName": "Islas Heard y McDonald",
        "regionCode": "HM"
      },
      {
        "regionName": "Islas Malvinas",
        "regionCode": "FK",
        "regionFlag": "ğŸ‡«ğŸ‡°",
        "callingCode": "+500"
      },
      {
        "regionName": "Islas Marianas del Norte",
        "regionCode": "MP",
        "regionFlag": "ğŸ‡²ğŸ‡µ",
        "callingCode": "+1-670"
      },
      {
        "regionName": "Islas Marshall",
        "regionCode": "MH",
        "regionFlag": "ğŸ‡²ğŸ‡­",
        "callingCode": "+692"
      },
      {
        "regionName": "Islas Pitcairn",
        "callingCode": "+872",
        "regionCode": "PN",
        "regionFlag": "ğŸ‡µğŸ‡³"
      },
      {
        "regionCode": "SB",
        "regionName": "Islas SalomÃ³n",
        "callingCode": "+677",
        "regionFlag": "ğŸ‡¸ğŸ‡§"
      },
      {
        "callingCode": "+1-649",
        "regionFlag": "ğŸ‡¹ğŸ‡¨",
        "regionCode": "TC",
        "regionName": "Islas Turcas y Caicos"
      },
      {
        "callingCode": "+1-284",
        "regionName": "Islas VÃ­rgenes BritÃ¡nicas",
        "regionCode": "VG",
        "regionFlag": "ğŸ‡»ğŸ‡¬"
      },
      {
        "regionCode": "VI",
        "regionFlag": "ğŸ‡»ğŸ‡®",
        "regionName": "Islas VÃ­rgenes de EE. UU.",
        "callingCode": "+1-340"
      },
      {
        "callingCode": "+1",
        "regionFlag": "ğŸ‡ºğŸ‡¸",
        "regionCode": "UM",
        "regionName": "Islas menores alejadas de EE. UU."
      },
      {
        "regionName": "Islas Ã…land",
        "regionFlag": "ğŸ‡¦ğŸ‡½",
        "regionCode": "AX",
        "callingCode": "+358"
      },
      {
        "regionName": "Israel",
        "regionFlag": "ğŸ‡®ğŸ‡±",
        "callingCode": "+972",
        "regionCode": "IL"
      },
      {
        "regionName": "Italia",
        "callingCode": "+39",
        "regionCode": "IT",
        "regionFlag": "ğŸ‡®ğŸ‡¹"
      }
    ]
  },
  {
    "index": "J",
    "items": [
      {
        "callingCode": "+1-876",
        "regionFlag": "ğŸ‡¯ğŸ‡²",
        "regionCode": "JM",
        "regionName": "Jamaica"
      },
      {
        "regionCode": "JP",
        "callingCode": "+81",
        "regionFlag": "ğŸ‡¯ğŸ‡µ",
        "regionName": "JapÃ³n"
      },
      {
        "regionName": "Jersey",
        "regionCode": "JE",
        "regionFlag": "ğŸ‡¯ğŸ‡ª",
        "callingCode": "+44"
      },
      {
        "regionName": "Jordania",
        "regionFlag": "ğŸ‡¯ğŸ‡´",
        "regionCode": "JO",
        "callingCode": "+962"
      }
    ]
  },
  {
    "index": "K",
    "items": [
      {
        "regionFlag": "ğŸ‡°ğŸ‡¿",
        "callingCode": "+7",
        "regionName": "KazajistÃ¡n",
        "regionCode": "KZ"
      },
      {
        "callingCode": "+254",
        "regionFlag": "ğŸ‡°ğŸ‡ª",
        "regionName": "Kenia",
        "regionCode": "KE"
      },
      {
        "callingCode": "+996",
        "regionFlag": "ğŸ‡°ğŸ‡¬",
        "regionName": "KirguistÃ¡n",
        "regionCode": "KG"
      },
      {
        "regionCode": "KI",
        "regionName": "Kiribati",
        "callingCode": "+686",
        "regionFlag": "ğŸ‡°ğŸ‡®"
      },
      {
        "regionFlag": "ğŸ‡½ğŸ‡°",
        "regionCode": "XK",
        "regionName": "Kosovo",
        "callingCode": "+383"
      },
      {
        "callingCode": "+965",
        "regionCode": "KW",
        "regionFlag": "ğŸ‡°ğŸ‡¼",
        "regionName": "Kuwait"
      }
    ]
  },
  {
    "index": "L",
    "items": [
      {
        "regionName": "Laos",
        "callingCode": "+856",
        "regionCode": "LA",
        "regionFlag": "ğŸ‡±ğŸ‡¦"
      },
      {
        "regionName": "Lesoto",
        "regionFlag": "ğŸ‡±ğŸ‡¸",
        "callingCode": "+266",
        "regionCode": "LS"
      },
      {
        "regionName": "Letonia",
        "regionFlag": "ğŸ‡±ğŸ‡»",
        "callingCode": "+371",
        "regionCode": "LV"
      },
      {
        "regionName": "Liberia",
        "regionCode": "LR",
        "regionFlag": "ğŸ‡±ğŸ‡·",
        "callingCode": "+231"
      },
      {
        "callingCode": "+218",
        "regionFlag": "ğŸ‡±ğŸ‡¾",
        "regionCode": "LY",
        "regionName": "Libia"
      },
      {
        "regionFlag": "ğŸ‡±ğŸ‡®",
        "regionName": "Liechtenstein",
        "regionCode": "LI",
        "callingCode": "+423"
      },
      {
        "regionName": "Lituania",
        "regionCode": "LT",
        "callingCode": "+370",
        "regionFlag": "ğŸ‡±ğŸ‡¹"
      },
      {
        "callingCode": "+352",
        "regionFlag": "ğŸ‡±ğŸ‡º",
        "regionName": "Luxemburgo",
        "regionCode": "LU"
      },
      {
        "regionName": "LÃ­bano",
        "callingCode": "+961",
        "regionFlag": "ğŸ‡±ğŸ‡§",
        "regionCode": "LB"
      }
    ]
  },
  {
    "index": "M",
    "items": [
      {
        "regionCode": "MK",
        "callingCode": "+389",
        "regionName": "Macedonia del Norte",
        "regionFlag": "ğŸ‡²ğŸ‡°"
      },
      {
        "regionName": "Madagascar",
        "regionFlag": "ğŸ‡²ğŸ‡¬",
        "regionCode": "MG",
        "callingCode": "+261"
      },
      {
        "regionName": "Malasia",
        "callingCode": "+60",
        "regionCode": "MY",
        "regionFlag": "ğŸ‡²ğŸ‡¾"
      },
      {
        "callingCode": "+265",
        "regionFlag": "ğŸ‡²ğŸ‡¼",
        "regionCode": "MW",
        "regionName": "Malaui"
      },
      {
        "regionName": "Maldivas",
        "callingCode": "+960",
        "regionCode": "MV",
        "regionFlag": "ğŸ‡²ğŸ‡»"
      },
      {
        "callingCode": "+223",
        "regionCode": "ML",
        "regionFlag": "ğŸ‡²ğŸ‡±",
        "regionName": "Mali"
      },
      {
        "regionFlag": "ğŸ‡²ğŸ‡¹",
        "regionName": "Malta",
        "regionCode": "MT",
        "callingCode": "+356"
      },
      {
        "regionCode": "MA",
        "regionName": "Marruecos",
        "regionFlag": "ğŸ‡²ğŸ‡¦",
        "callingCode": "+212"
      },
      {
        "regionFlag": "ğŸ‡²ğŸ‡¶",
        "regionName": "Martinica",
        "callingCode": "+596",
        "regionCode": "MQ"
      },
      {
        "regionName": "Mauricio",
        "regionFlag": "ğŸ‡²ğŸ‡º",
        "callingCode": "+230",
        "regionCode": "MU"
      },
      {
        "regionFlag": "ğŸ‡²ğŸ‡·",
        "callingCode": "+222",
        "regionCode": "MR",
        "regionName": "Mauritania"
      },
      {
        "callingCode": "+262",
        "regionName": "Mayotte",
        "regionCode": "YT",
        "regionFlag": "ğŸ‡¾ğŸ‡¹"
      },
      {
        "regionFlag": "ğŸ‡«ğŸ‡²",
        "regionName": "Micronesia",
        "callingCode": "+691",
        "regionCode": "FM"
      },
      {
        "regionFlag": "ğŸ‡²ğŸ‡©",
        "regionCode": "MD",
        "regionName": "Moldavia",
        "callingCode": "+373"
      },
      {
        "regionFlag": "ğŸ‡²ğŸ‡³",
        "callingCode": "+976",
        "regionName": "Mongolia",
        "regionCode": "MN"
      },
      {
        "regionCode": "ME",
        "regionName": "Montenegro",
        "regionFlag": "ğŸ‡²ğŸ‡ª",
        "callingCode": "+382"
      },
      {
        "regionName": "Montserrat",
        "regionCode": "MS",
        "regionFlag": "ğŸ‡²ğŸ‡¸",
        "callingCode": "+1-664"
      },
      {
        "regionCode": "MZ",
        "regionFlag": "ğŸ‡²ğŸ‡¿",
        "callingCode": "+258",
        "regionName": "Mozambique"
      },
      {
        "regionCode": "MM",
        "regionName": "Myanmar (Birmania)",
        "callingCode": "+95",
        "regionFlag": "ğŸ‡²ğŸ‡²"
      },
      {
        "regionFlag": "ğŸ‡²ğŸ‡½",
        "regionCode": "MX",
        "regionName": "MÃ©xico",
        "callingCode": "+52"
      },
      {
        "regionFlag": "ğŸ‡²ğŸ‡¨",
        "callingCode": "+377",
        "regionName": "MÃ³naco",
        "regionCode": "MC"
      }
    ]
  },
  {
    "index": "N",
    "items": [
      {
        "regionFlag": "ğŸ‡³ğŸ‡¦",
        "regionName": "Namibia",
        "callingCode": "+264",
        "regionCode": "NA"
      },
      {
        "regionFlag": "ğŸ‡³ğŸ‡·",
        "regionCode": "NR",
        "regionName": "Nauru",
        "callingCode": "+674"
      },
      {
        "regionFlag": "ğŸ‡³ğŸ‡µ",
        "regionName": "Nepal",
        "callingCode": "+977",
        "regionCode": "NP"
      },
      {
        "regionName": "Nicaragua",
        "callingCode": "+505",
        "regionCode": "NI",
        "regionFlag": "ğŸ‡³ğŸ‡®"
      },
      {
        "regionFlag": "ğŸ‡³ğŸ‡¬",
        "regionName": "Nigeria",
        "regionCode": "NG",
        "callingCode": "+234"
      },
      {
        "regionCode": "NU",
        "regionName": "Niue",
        "regionFlag": "ğŸ‡³ğŸ‡º",
        "callingCode": "+683"
      },
      {
        "callingCode": "+47",
        "regionCode": "NO",
        "regionFlag": "ğŸ‡³ğŸ‡´",
        "regionName": "Noruega"
      },
      {
        "regionName": "Nueva Caledonia",
        "regionCode": "NC",
        "callingCode": "+687",
        "regionFlag": "ğŸ‡³ğŸ‡¨"
      },
      {
        "regionCode": "NZ",
        "regionFlag": "ğŸ‡³ğŸ‡¿",
        "regionName": "Nueva Zelanda",
        "callingCode": "+64"
      },
      {
        "callingCode": "+227",
        "regionName": "NÃ­ger",
        "regionFlag": "ğŸ‡³ğŸ‡ª",
        "regionCode": "NE"
      }
    ]
  },
  {
    "index": "O",
    "items": [
      {
        "callingCode": "+968",
        "regionFlag": "ğŸ‡´ğŸ‡²",
        "regionName": "OmÃ¡n",
        "regionCode": "OM"
      }
    ]
  },
  {
    "index": "P",
    "items": [
      {
        "callingCode": "+92",
        "regionCode": "PK",
        "regionFlag": "ğŸ‡µğŸ‡°",
        "regionName": "PakistÃ¡n"
      },
      {
        "regionName": "Palaos",
        "callingCode": "+680",
        "regionFlag": "ğŸ‡µğŸ‡¼",
        "regionCode": "PW"
      },
      {
        "callingCode": "+507",
        "regionName": "PanamÃ¡",
        "regionFlag": "ğŸ‡µğŸ‡¦",
        "regionCode": "PA"
      },
      {
        "regionCode": "PG",
        "regionFlag": "ğŸ‡µğŸ‡¬",
        "regionName": "PapÃºa Nueva Guinea",
        "callingCode": "+675"
      },
      {
        "regionName": "Paraguay",
        "regionFlag": "ğŸ‡µğŸ‡¾",
        "callingCode": "+595",
        "regionCode": "PY"
      },
      {
        "regionFlag": "ğŸ‡³ğŸ‡±",
        "regionCode": "NL",
        "regionName": "PaÃ­ses Bajos",
        "callingCode": "+31"
      },
      {
        "regionCode": "PE",
        "regionName": "PerÃº",
        "callingCode": "+51",
        "regionFlag": "ğŸ‡µğŸ‡ª"
      },
      {
        "callingCode": "+689",
        "regionFlag": "ğŸ‡µğŸ‡«",
        "regionName": "Polinesia Francesa",
        "regionCode": "PF"
      },
      {
        "regionCode": "PL",
        "regionFlag": "ğŸ‡µğŸ‡±",
        "callingCode": "+48",
        "regionName": "Polonia"
      },
      {
        "regionCode": "PT",
        "regionFlag": "ğŸ‡µğŸ‡¹",
        "callingCode": "+351",
        "regionName": "Portugal"
      },
      {
        "regionName": "Puerto Rico",
        "regionCode": "PR",
        "regionFlag": "ğŸ‡µğŸ‡·",
        "callingCode": "+1-939"
      }
    ]
  },
  {
    "index": "R",
    "items": [
      {
        "regionCode": "HK",
        "regionName": "RAE de Hong Kong (China)",
        "regionFlag": "ğŸ‡­ğŸ‡°",
        "callingCode": "+852"
      },
      {
        "regionFlag": "ğŸ‡²ğŸ‡´",
        "regionCode": "MO",
        "callingCode": "+853",
        "regionName": "RAE de Macao (China)"
      },
      {
        "callingCode": "+44",
        "regionFlag": "ğŸ‡¬ğŸ‡§",
        "regionCode": "GB",
        "regionName": "Reino Unido"
      },
      {
        "callingCode": "+236",
        "regionCode": "CF",
        "regionFlag": "ğŸ‡¨ğŸ‡«",
        "regionName": "RepÃºblica Centroafricana"
      },
      {
        "callingCode": "+243",
        "regionCode": "CD",
        "regionFlag": "ğŸ‡¨ğŸ‡©",
        "regionName": "RepÃºblica DemocrÃ¡tica del Congo"
      },
      {
        "regionFlag": "ğŸ‡©ğŸ‡´",
        "regionCode": "DO",
        "regionName": "RepÃºblica Dominicana",
        "callingCode": "+1-849"
      },
      {
        "regionFlag": "ğŸ‡·ğŸ‡ª",
        "regionName": "ReuniÃ³n",
        "regionCode": "RE",
        "callingCode": "+262"
      },
      {
        "regionFlag": "ğŸ‡·ğŸ‡¼",
        "regionName": "Ruanda",
        "callingCode": "+250",
        "regionCode": "RW"
      },
      {
        "callingCode": "+40",
        "regionFlag": "ğŸ‡·ğŸ‡´",
        "regionName": "RumanÃ­a",
        "regionCode": "RO"
      },
      {
        "regionFlag": "ğŸ‡·ğŸ‡º",
        "regionName": "Rusia",
        "callingCode": "+7",
        "regionCode": "RU"
      }
    ]
  },
  {
    "index": "S",
    "items": [
      {
        "regionCode": "WS",
        "regionName": "Samoa",
        "regionFlag": "ğŸ‡¼ğŸ‡¸",
        "callingCode": "+685"
      },
      {
        "callingCode": "+1-684",
        "regionName": "Samoa Americana",
        "regionFlag": "ğŸ‡¦ğŸ‡¸",
        "regionCode": "AS"
      },
      {
        "callingCode": "+590",
        "regionName": "San BartolomÃ©",
        "regionCode": "BL",
        "regionFlag": "ğŸ‡§ğŸ‡±"
      },
      {
        "regionFlag": "ğŸ‡°ğŸ‡³",
        "callingCode": "+1-869",
        "regionCode": "KN",
        "regionName": "San CristÃ³bal y Nieves"
      },
      {
        "regionCode": "SM",
        "regionFlag": "ğŸ‡¸ğŸ‡²",
        "callingCode": "+378",
        "regionName": "San Marino"
      },
      {
        "regionCode": "MF",
        "regionFlag": "ğŸ‡²ğŸ‡«",
        "regionName": "San MartÃ­n",
        "callingCode": "+590"
      },
      {
        "regionName": "San Pedro y MiquelÃ³n",
        "regionFlag": "ğŸ‡µğŸ‡²",
        "regionCode": "PM",
        "callingCode": "+508"
      },
      {
        "regionCode": "VC",
        "regionName": "San Vicente y las Granadinas",
        "callingCode": "+1-784",
        "regionFlag": "ğŸ‡»ğŸ‡¨"
      },
      {
        "regionFlag": "ğŸ‡¸ğŸ‡­",
        "callingCode": "+290",
        "regionCode": "SH",
        "regionName": "Santa Elena"
      },
      {
        "regionFlag": "ğŸ‡±ğŸ‡¨",
        "regionName": "Santa LucÃ­a",
        "callingCode": "+1-758",
        "regionCode": "LC"
      },
      {
        "regionName": "Santo TomÃ© y PrÃ­ncipe",
        "callingCode": "+239",
        "regionCode": "ST",
        "regionFlag": "ğŸ‡¸ğŸ‡¹"
      },
      {
        "callingCode": "+221",
        "regionCode": "SN",
        "regionName": "Senegal",
        "regionFlag": "ğŸ‡¸ğŸ‡³"
      },
      {
        "regionName": "Serbia",
        "regionCode": "RS",
        "regionFlag": "ğŸ‡·ğŸ‡¸",
        "callingCode": "+381"
      },
      {
        "regionCode": "SC",
        "regionFlag": "ğŸ‡¸ğŸ‡¨",
        "callingCode": "+248",
        "regionName": "Seychelles"
      },
      {
        "callingCode": "+232",
        "regionFlag": "ğŸ‡¸ğŸ‡±",
        "regionCode": "SL",
        "regionName": "Sierra Leona"
      },
      {
        "callingCode": "+65",
        "regionFlag": "ğŸ‡¸ğŸ‡¬",
        "regionName": "Singapur",
        "regionCode": "SG"
      },
      {
        "regionFlag": "ğŸ‡¸ğŸ‡½",
        "regionName": "Sint Maarten",
        "callingCode": "+1-721",
        "regionCode": "SX"
      },
      {
        "regionCode": "SY",
        "regionFlag": "ğŸ‡¸ğŸ‡¾",
        "regionName": "Siria",
        "callingCode": "+963"
      },
      {
        "regionCode": "SO",
        "regionName": "Somalia",
        "regionFlag": "ğŸ‡¸ğŸ‡´",
        "callingCode": "+252"
      },
      {
        "regionFlag": "ğŸ‡±ğŸ‡°",
        "callingCode": "+94",
        "regionCode": "LK",
        "regionName": "Sri Lanka"
      },
      {
        "regionCode": "ZA",
        "regionFlag": "ğŸ‡¿ğŸ‡¦",
        "regionName": "SudÃ¡frica",
        "callingCode": "+27"
      },
      {
        "regionCode": "SD",
        "regionName": "SudÃ¡n",
        "regionFlag": "ğŸ‡¸ğŸ‡©",
        "callingCode": "+249"
      },
      {
        "regionFlag": "ğŸ‡¸ğŸ‡¸",
        "callingCode": "+211",
        "regionCode": "SS",
        "regionName": "SudÃ¡n del Sur"
      },
      {
        "regionName": "Suecia",
        "regionFlag": "ğŸ‡¸ğŸ‡ª",
        "callingCode": "+46",
        "regionCode": "SE"
      },
      {
        "callingCode": "+41",
        "regionName": "Suiza",
        "regionFlag": "ğŸ‡¨ğŸ‡­",
        "regionCode": "CH"
      },
      {
        "regionFlag": "ğŸ‡¸ğŸ‡·",
        "regionName": "Surinam",
        "callingCode": "+597",
        "regionCode": "SR"
      },
      {
        "callingCode": "+47",
        "regionName": "Svalbard y Jan Mayen",
        "regionCode": "SJ",
        "regionFlag": "ğŸ‡¸ğŸ‡¯"
      },
      {
        "regionName": "SÃ¡hara Occidental",
        "regionFlag": "ğŸ‡ªğŸ‡­",
        "regionCode": "EH",
        "callingCode": "+212"
      }
    ]
  },
  {
    "index": "T",
    "items": [
      {
        "callingCode": "+66",
        "regionCode": "TH",
        "regionFlag": "ğŸ‡¹ğŸ‡­",
        "regionName": "Tailandia"
      },
      {
        "regionCode": "TW",
        "regionName": "TaiwÃ¡n",
        "regionFlag": "ğŸ‡¨ğŸ‡³",
        "callingCode": "+886"
      },
      {
        "regionName": "Tanzania",
        "callingCode": "+255",
        "regionCode": "TZ",
        "regionFlag": "ğŸ‡¹ğŸ‡¿"
      },
      {
        "regionName": "TayikistÃ¡n",
        "regionCode": "TJ",
        "callingCode": "+992",
        "regionFlag": "ğŸ‡¹ğŸ‡¯"
      },
      {
        "regionFlag": "ğŸ‡®ğŸ‡´",
        "regionCode": "IO",
        "callingCode": "+246",
        "regionName": "Territorio BritÃ¡nico del OcÃ©ano Ãndico"
      },
      {
        "callingCode": "+970",
        "regionCode": "PS",
        "regionFlag": "ğŸ‡µğŸ‡¸",
        "regionName": "Territorios Palestinos"
      },
      {
        "regionCode": "TL",
        "regionName": "Timor-Leste",
        "callingCode": "+670",
        "regionFlag": "ğŸ‡¹ğŸ‡±"
      },
      {
        "regionCode": "TG",
        "regionFlag": "ğŸ‡¹ğŸ‡¬",
        "callingCode": "+228",
        "regionName": "Togo"
      },
      {
        "regionFlag": "ğŸ‡¹ğŸ‡°",
        "regionName": "Tokelau",
        "regionCode": "TK",
        "callingCode": "+690"
      },
      {
        "callingCode": "+676",
        "regionFlag": "ğŸ‡¹ğŸ‡´",
        "regionCode": "TO",
        "regionName": "Tonga"
      },
      {
        "callingCode": "+1-868",
        "regionCode": "TT",
        "regionName": "Trinidad y Tobago",
        "regionFlag": "ğŸ‡¹ğŸ‡¹"
      },
      {
        "regionFlag": "ğŸ‡¹ğŸ‡¦",
        "regionName": "Tristan da Cunha",
        "regionCode": "TA",
        "callingCode": "+290"
      },
      {
        "regionFlag": "ğŸ‡¹ğŸ‡²",
        "regionName": "TurkmenistÃ¡n",
        "callingCode": "+993",
        "regionCode": "TM"
      },
      {
        "regionName": "TurquÃ­a",
        "regionCode": "TR",
        "regionFlag": "ğŸ‡¹ğŸ‡·",
        "callingCode": "+90"
      },
      {
        "regionName": "Tuvalu",
        "regionCode": "TV",
        "callingCode": "+688",
        "regionFlag": "ğŸ‡¹ğŸ‡»"
      },
      {
        "regionFlag": "ğŸ‡¹ğŸ‡³",
        "callingCode": "+216",
        "regionCode": "TN",
        "regionName": "TÃºnez"
      }
    ]
  },
  {
    "index": "U",
    "items": [
      {
        "regionName": "Ucrania",
        "callingCode": "+380",
        "regionCode": "UA",
        "regionFlag": "ğŸ‡ºğŸ‡¦"
      },
      {
        "regionFlag": "ğŸ‡ºğŸ‡¬",
        "regionCode": "UG",
        "callingCode": "+256",
        "regionName": "Uganda"
      },
      {
        "regionFlag": "ğŸ‡ºğŸ‡¾",
        "regionCode": "UY",
        "regionName": "Uruguay",
        "callingCode": "+598"
      },
      {
        "regionName": "UzbekistÃ¡n",
        "callingCode": "+998",
        "regionFlag": "ğŸ‡ºğŸ‡¿",
        "regionCode": "UZ"
      }
    ]
  },
  {
    "index": "V",
    "items": [
      {
        "callingCode": "+678",
        "regionName": "Vanuatu",
        "regionFlag": "ğŸ‡»ğŸ‡º",
        "regionCode": "VU"
      },
      {
        "regionFlag": "ğŸ‡»ğŸ‡ª",
        "regionCode": "VE",
        "regionName": "Venezuela",
        "callingCode": "+58"
      },
      {
        "callingCode": "+84",
        "regionName": "Vietnam",
        "regionCode": "VN",
        "regionFlag": "ğŸ‡»ğŸ‡³"
      }
    ]
  },
  {
    "index": "W",
    "items": [
      {
        "callingCode": "+681",
        "regionFlag": "ğŸ‡¼ğŸ‡«",
        "regionCode": "WF",
        "regionName": "Wallis y Futuna"
      }
    ]
  },
  {
    "index": "Y",
    "items": [
      {
        "regionName": "Yemen",
        "regionCode": "YE",
        "callingCode": "+967",
        "regionFlag": "ğŸ‡¾ğŸ‡ª"
      },
      {
        "regionCode": "DJ",
        "callingCode": "+253",
        "regionName": "Yibuti",
        "regionFlag": "ğŸ‡©ğŸ‡¯"
      }
    ]
  },
  {
    "index": "Z",
    "items": [
      {
        "callingCode": "+260",
        "regionFlag": "ğŸ‡¿ğŸ‡²",
        "regionCode": "ZM",
        "regionName": "Zambia"
      },
      {
        "regionName": "Zimbabue",
        "regionCode": "ZW",
        "regionFlag": "ğŸ‡¿ğŸ‡¼",
        "callingCode": "+263"
      }
    ]
  }
]