[
  {
    "index": "A",
    "items": [
      {
        "regionFlag": "ğŸ‡¦ğŸ‡«",
        "regionCode": "AF",
        "callingCode": "+93",
        "regionName": "AfeganistÃ£o"
      },
      {
        "regionName": "AlbÃ¢nia",
        "regionCode": "AL",
        "callingCode": "+355",
        "regionFlag": "ğŸ‡¦ğŸ‡±"
      },
      {
        "regionName": "Alemanha",
        "regionFlag": "ğŸ‡©ğŸ‡ª",
        "regionCode": "DE",
        "callingCode": "+49"
      },
      {
        "regionCode": "AD",
        "regionFlag": "ğŸ‡¦ğŸ‡©",
        "regionName": "Andorra",
        "callingCode": "+376"
      },
      {
        "regionName": "Angola",
        "regionCode": "AO",
        "callingCode": "+244",
        "regionFlag": "ğŸ‡¦ğŸ‡´"
      },
      {
        "callingCode": "+1-264",
        "regionCode": "AI",
        "regionFlag": "ğŸ‡¦ğŸ‡®",
        "regionName": "Anguila"
      },
      {
        "regionFlag": "ğŸ‡¦ğŸ‡¶",
        "regionName": "AntÃ¡rtida",
        "callingCode": "+672",
        "regionCode": "AQ"
      },
      {
        "regionCode": "AG",
        "regionName": "AntÃ­gua e Barbuda",
        "callingCode": "+1-268",
        "regionFlag": "ğŸ‡¦ğŸ‡¬"
      },
      {
        "regionCode": "AR",
        "regionName": "Argentina",
        "regionFlag": "ğŸ‡¦ğŸ‡·",
        "callingCode": "+54"
      },
      {
        "regionCode": "DZ",
        "regionFlag": "ğŸ‡©ğŸ‡¿",
        "callingCode": "+213",
        "regionName": "ArgÃ©lia"
      },
      {
        "regionCode": "AM",
        "regionFlag": "ğŸ‡¦ğŸ‡²",
        "regionName": "ArmÃªnia",
        "callingCode": "+374"
      },
      {
        "callingCode": "+297",
        "regionName": "Aruba",
        "regionCode": "AW",
        "regionFlag": "ğŸ‡¦ğŸ‡¼"
      },
      {
        "regionName": "ArÃ¡bia Saudita",
        "regionCode": "SA",
        "regionFlag": "ğŸ‡¸ğŸ‡¦",
        "callingCode": "+966"
      },
      {
        "regionName": "Ascension Island",
        "callingCode": "+247",
        "regionCode": "AC",
        "regionFlag": "ğŸ‡¦ğŸ‡¨"
      },
      {
        "regionCode": "AU",
        "regionName": "AustrÃ¡lia",
        "callingCode": "+61",
        "regionFlag": "ğŸ‡¦ğŸ‡º"
      },
      {
        "callingCode": "+994",
        "regionFlag": "ğŸ‡¦ğŸ‡¿",
        "regionName": "AzerbaijÃ£o",
        "regionCode": "AZ"
      }
    ]
  },
  {
    "index": "B",
    "items": [
      {
        "regionFlag": "ğŸ‡§ğŸ‡¸",
        "regionCode": "BS",
        "regionName": "Bahamas",
        "callingCode": "+1-242"
      },
      {
        "regionName": "Bahrein",
        "regionFlag": "ğŸ‡§ğŸ‡­",
        "callingCode": "+973",
        "regionCode": "BH"
      },
      {
        "callingCode": "+880",
        "regionCode": "BD",
        "regionFlag": "ğŸ‡§ğŸ‡©",
        "regionName": "Bangladesh"
      },
      {
        "regionCode": "BB",
        "regionFlag": "ğŸ‡§ğŸ‡§",
        "regionName": "Barbados",
        "callingCode": "+1-246"
      },
      {
        "regionCode": "BZ",
        "regionFlag": "ğŸ‡§ğŸ‡¿",
        "callingCode": "+501",
        "regionName": "Belize"
      },
      {
        "regionName": "Benin",
        "regionFlag": "ğŸ‡§ğŸ‡¯",
        "regionCode": "BJ",
        "callingCode": "+229"
      },
      {
        "regionName": "Bermudas",
        "callingCode": "+1-441",
        "regionCode": "BM",
        "regionFlag": "ğŸ‡§ğŸ‡²"
      },
      {
        "regionCode": "BY",
        "regionFlag": "ğŸ‡§ğŸ‡¾",
        "regionName": "BielorrÃºssia",
        "callingCode": "+375"
      },
      {
        "regionName": "BolÃ­via",
        "callingCode": "+591",
        "regionCode": "BO",
        "regionFlag": "ğŸ‡§ğŸ‡´"
      },
      {
        "regionFlag": "ğŸ‡§ğŸ‡¼",
        "regionName": "Botsuana",
        "regionCode": "BW",
        "callingCode": "+267"
      },
      {
        "regionName": "Brasil",
        "regionCode": "BR",
        "callingCode": "+55",
        "regionFlag": "ğŸ‡§ğŸ‡·"
      },
      {
        "regionName": "Brunei",
        "regionCode": "BN",
        "regionFlag": "ğŸ‡§ğŸ‡³",
        "callingCode": "+673"
      },
      {
        "regionName": "BulgÃ¡ria",
        "callingCode": "+359",
        "regionCode": "BG",
        "regionFlag": "ğŸ‡§ğŸ‡¬"
      },
      {
        "callingCode": "+226",
        "regionFlag": "ğŸ‡§ğŸ‡«",
        "regionName": "Burquina Faso",
        "regionCode": "BF"
      },
      {
        "regionFlag": "ğŸ‡§ğŸ‡®",
        "regionName": "Burundi",
        "regionCode": "BI",
        "callingCode": "+257"
      },
      {
        "regionCode": "BT",
        "regionName": "ButÃ£o",
        "callingCode": "+975",
        "regionFlag": "ğŸ‡§ğŸ‡¹"
      },
      {
        "callingCode": "+32",
        "regionCode": "BE",
        "regionName": "BÃ©lgica",
        "regionFlag": "ğŸ‡§ğŸ‡ª"
      },
      {
        "regionCode": "BA",
        "callingCode": "+387",
        "regionFlag": "ğŸ‡§ğŸ‡¦",
        "regionName": "BÃ³snia e Herzegovina"
      }
    ]
  },
  {
    "index": "C",
    "items": [
      {
        "regionFlag": "ğŸ‡¨ğŸ‡»",
        "regionName": "Cabo Verde",
        "callingCode": "+238",
        "regionCode": "CV"
      },
      {
        "callingCode": "+237",
        "regionFlag": "ğŸ‡¨ğŸ‡²",
        "regionCode": "CM",
        "regionName": "CamarÃµes"
      },
      {
        "regionFlag": "ğŸ‡°ğŸ‡­",
        "regionCode": "KH",
        "callingCode": "+855",
        "regionName": "Camboja"
      },
      {
        "callingCode": "+1",
        "regionCode": "CA",
        "regionName": "CanadÃ¡",
        "regionFlag": "ğŸ‡¨ğŸ‡¦"
      },
      {
        "regionCode": "QA",
        "regionName": "Catar",
        "regionFlag": "ğŸ‡¶ğŸ‡¦",
        "callingCode": "+974"
      },
      {
        "regionFlag": "ğŸ‡°ğŸ‡¿",
        "callingCode": "+7",
        "regionName": "CazaquistÃ£o",
        "regionCode": "KZ"
      },
      {
        "regionName": "Chade",
        "regionFlag": "ğŸ‡¹ğŸ‡©",
        "callingCode": "+235",
        "regionCode": "TD"
      },
      {
        "regionName": "Chile",
        "regionCode": "CL",
        "callingCode": "+56",
        "regionFlag": "ğŸ‡¨ğŸ‡±"
      },
      {
        "regionFlag": "ğŸ‡¨ğŸ‡³",
        "callingCode": "+86",
        "regionName": "China",
        "regionCode": "CN"
      },
      {
        "regionName": "Chipre",
        "regionCode": "CY",
        "callingCode": "+357",
        "regionFlag": "ğŸ‡¨ğŸ‡¾"
      },
      {
        "regionFlag": "ğŸ‡»ğŸ‡¦",
        "regionName": "Cidade do Vaticano",
        "callingCode": "+379",
        "regionCode": "VA"
      },
      {
        "regionName": "ColÃ´mbia",
        "regionFlag": "ğŸ‡¨ğŸ‡´",
        "regionCode": "CO",
        "callingCode": "+57"
      },
      {
        "regionName": "Comores",
        "callingCode": "+269",
        "regionFlag": "ğŸ‡°ğŸ‡²",
        "regionCode": "KM"
      },
      {
        "callingCode": "+243",
        "regionCode": "CD",
        "regionFlag": "ğŸ‡¨ğŸ‡©",
        "regionName": "Congo - Kinshasa"
      },
      {
        "regionCode": "KP",
        "regionFlag": "ğŸ‡°ğŸ‡µ",
        "callingCode": "+850",
        "regionName": "Coreia do Norte"
      },
      {
        "regionFlag": "ğŸ‡°ğŸ‡·",
        "callingCode": "+82",
        "regionName": "Coreia do Sul",
        "regionCode": "KR"
      },
      {
        "regionFlag": "ğŸ‡¨ğŸ‡·",
        "callingCode": "+506",
        "regionName": "Costa Rica",
        "regionCode": "CR"
      },
      {
        "callingCode": "+225",
        "regionFlag": "ğŸ‡¨ğŸ‡®",
        "regionCode": "CI",
        "regionName": "Costa do Marfim"
      },
      {
        "regionCode": "HR",
        "regionFlag": "ğŸ‡­ğŸ‡·",
        "regionName": "CroÃ¡cia",
        "callingCode": "+385"
      },
      {
        "regionName": "Cuba",
        "regionFlag": "ğŸ‡¨ğŸ‡º",
        "regionCode": "CU",
        "callingCode": "+53"
      },
      {
        "regionFlag": "ğŸ‡¨ğŸ‡¼",
        "regionCode": "CW",
        "regionName": "CuraÃ§ao",
        "callingCode": "+599 9"
      }
    ]
  },
  {
    "index": "D",
    "items": [
      {
        "regionFlag": "ğŸ‡©ğŸ‡°",
        "regionCode": "DK",
        "regionName": "Dinamarca",
        "callingCode": "+45"
      },
      {
        "regionCode": "DJ",
        "callingCode": "+253",
        "regionName": "Djibuti",
        "regionFlag": "ğŸ‡©ğŸ‡¯"
      },
      {
        "callingCode": "+1-767",
        "regionFlag": "ğŸ‡©ğŸ‡²",
        "regionName": "Dominica",
        "regionCode": "DM"
      }
    ]
  },
  {
    "index": "E",
    "items": [
      {
        "regionFlag": "ğŸ‡ªğŸ‡¬",
        "regionCode": "EG",
        "regionName": "Egito",
        "callingCode": "+20"
      },
      {
        "callingCode": "+503",
        "regionFlag": "ğŸ‡¸ğŸ‡»",
        "regionCode": "SV",
        "regionName": "El Salvador"
      },
      {
        "regionCode": "AE",
        "callingCode": "+971",
        "regionFlag": "ğŸ‡¦ğŸ‡ª",
        "regionName": "Emirados Ãrabes Unidos"
      },
      {
        "regionCode": "EC",
        "regionName": "Equador",
        "callingCode": "+593",
        "regionFlag": "ğŸ‡ªğŸ‡¨"
      },
      {
        "regionCode": "ER",
        "regionFlag": "ğŸ‡ªğŸ‡·",
        "callingCode": "+291",
        "regionName": "Eritreia"
      },
      {
        "regionCode": "SK",
        "regionName": "EslovÃ¡quia",
        "callingCode": "+421",
        "regionFlag": "ğŸ‡¸ğŸ‡°"
      },
      {
        "regionName": "EslovÃªnia",
        "regionFlag": "ğŸ‡¸ğŸ‡®",
        "regionCode": "SI",
        "callingCode": "+386"
      },
      {
        "regionFlag": "ğŸ‡ªğŸ‡¸",
        "callingCode": "+34",
        "regionCode": "ES",
        "regionName": "Espanha"
      },
      {
        "regionCode": "SZ",
        "regionName": "EssuatÃ­ni",
        "regionFlag": "ğŸ‡¸ğŸ‡¿",
        "callingCode": "+268"
      },
      {
        "callingCode": "+1",
        "regionName": "Estados Unidos",
        "regionFlag": "ğŸ‡ºğŸ‡¸",
        "regionCode": "US"
      },
      {
        "callingCode": "+372",
        "regionName": "EstÃ´nia",
        "regionCode": "EE",
        "regionFlag": "ğŸ‡ªğŸ‡ª"
      },
      {
        "callingCode": "+251",
        "regionFlag": "ğŸ‡ªğŸ‡¹",
        "regionCode": "ET",
        "regionName": "EtiÃ³pia"
      }
    ]
  },
  {
    "index": "F",
    "items": [
      {
        "regionCode": "FJ",
        "regionFlag": "ğŸ‡«ğŸ‡¯",
        "regionName": "Fiji",
        "callingCode": "+679"
      },
      {
        "regionName": "Filipinas",
        "regionFlag": "ğŸ‡µğŸ‡­",
        "callingCode": "+63",
        "regionCode": "PH"
      },
      {
        "regionFlag": "ğŸ‡«ğŸ‡®",
        "regionCode": "FI",
        "callingCode": "+358",
        "regionName": "FinlÃ¢ndia"
      },
      {
        "regionCode": "FR",
        "regionFlag": "ğŸ‡«ğŸ‡·",
        "regionName": "FranÃ§a",
        "callingCode": "+33"
      }
    ]
  },
  {
    "index": "G",
    "items": [
      {
        "regionFlag": "ğŸ‡¬ğŸ‡¦",
        "callingCode": "+241",
        "regionName": "GabÃ£o",
        "regionCode": "GA"
      },
      {
        "callingCode": "+233",
        "regionFlag": "ğŸ‡¬ğŸ‡­",
        "regionCode": "GH",
        "regionName": "Gana"
      },
      {
        "regionCode": "GE",
        "regionFlag": "ğŸ‡¬ğŸ‡ª",
        "callingCode": "+995",
        "regionName": "GeÃ³rgia"
      },
      {
        "regionName": "Gibraltar",
        "regionCode": "GI",
        "regionFlag": "ğŸ‡¬ğŸ‡®",
        "callingCode": "+350"
      },
      {
        "regionCode": "GD",
        "regionName": "Granada",
        "callingCode": "+1-473",
        "regionFlag": "ğŸ‡¬ğŸ‡©"
      },
      {
        "regionFlag": "ğŸ‡¬ğŸ‡±",
        "regionCode": "GL",
        "regionName": "GroenlÃ¢ndia",
        "callingCode": "+299"
      },
      {
        "callingCode": "+30",
        "regionCode": "GR",
        "regionFlag": "ğŸ‡¬ğŸ‡·",
        "regionName": "GrÃ©cia"
      },
      {
        "callingCode": "+590",
        "regionCode": "GP",
        "regionFlag": "ğŸ‡¬ğŸ‡µ",
        "regionName": "Guadalupe"
      },
      {
        "regionCode": "GU",
        "callingCode": "+1-671",
        "regionName": "Guam",
        "regionFlag": "ğŸ‡¬ğŸ‡º"
      },
      {
        "regionCode": "GT",
        "regionFlag": "ğŸ‡¬ğŸ‡¹",
        "callingCode": "+502",
        "regionName": "Guatemala"
      },
      {
        "callingCode": "+44",
        "regionName": "Guernsey",
        "regionCode": "GG",
        "regionFlag": "ğŸ‡¬ğŸ‡¬"
      },
      {
        "callingCode": "+595",
        "regionName": "Guiana",
        "regionCode": "GY",
        "regionFlag": "ğŸ‡¬ğŸ‡¾"
      },
      {
        "regionName": "Guiana Francesa",
        "regionFlag": "ğŸ‡¬ğŸ‡«",
        "callingCode": "+594",
        "regionCode": "GF"
      },
      {
        "regionName": "GuinÃ©",
        "regionFlag": "ğŸ‡¬ğŸ‡³",
        "regionCode": "GN",
        "callingCode": "+224"
      },
      {
        "regionCode": "GQ",
        "regionFlag": "ğŸ‡¬ğŸ‡¶",
        "callingCode": "+240",
        "regionName": "GuinÃ© Equatorial"
      },
      {
        "regionCode": "GW",
        "regionName": "GuinÃ©-Bissau",
        "callingCode": "+245",
        "regionFlag": "ğŸ‡¬ğŸ‡¼"
      },
      {
        "regionCode": "GM",
        "callingCode": "+220",
        "regionFlag": "ğŸ‡¬ğŸ‡²",
        "regionName": "GÃ¢mbia"
      }
    ]
  },
  {
    "index": "H",
    "items": [
      {
        "regionFlag": "ğŸ‡­ğŸ‡¹",
        "regionCode": "HT",
        "regionName": "Haiti",
        "callingCode": "+509"
      },
      {
        "regionCode": "HN",
        "callingCode": "+504",
        "regionName": "Honduras",
        "regionFlag": "ğŸ‡­ğŸ‡³"
      },
      {
        "regionCode": "HK",
        "regionName": "Hong Kong, RAE da China",
        "regionFlag": "ğŸ‡­ğŸ‡°",
        "callingCode": "+852"
      },
      {
        "regionCode": "HU",
        "regionName": "Hungria",
        "regionFlag": "ğŸ‡­ğŸ‡º",
        "callingCode": "+36"
      }
    ]
  },
  {
    "index": "I",
    "items": [
      {
        "regionCode": "CX",
        "regionName": "Ilha Christmas",
        "callingCode": "+61",
        "regionFlag": "ğŸ‡¨ğŸ‡½"
      },
      {
        "regionFlag": "ğŸ‡³ğŸ‡«",
        "regionName": "Ilha Norfolk",
        "callingCode": "+672",
        "regionCode": "NF"
      },
      {
        "regionCode": "IM",
        "callingCode": "+44",
        "regionFlag": "ğŸ‡®ğŸ‡²",
        "regionName": "Ilha de Man"
      },
      {
        "regionName": "Ilhas Aland",
        "regionFlag": "ğŸ‡¦ğŸ‡½",
        "regionCode": "AX",
        "callingCode": "+358"
      },
      {
        "callingCode": "+345",
        "regionFlag": "ğŸ‡°ğŸ‡¾",
        "regionCode": "KY",
        "regionName": "Ilhas Cayman"
      },
      {
        "regionCode": "CC",
        "regionFlag": "ğŸ‡¨ğŸ‡¨",
        "regionName": "Ilhas Cocos (Keeling)",
        "callingCode": "+61"
      },
      {
        "regionFlag": "ğŸ‡¨ğŸ‡°",
        "regionCode": "CK",
        "regionName": "Ilhas Cook",
        "callingCode": "+682"
      },
      {
        "regionCode": "FO",
        "regionName": "Ilhas Faroe",
        "regionFlag": "ğŸ‡«ğŸ‡´",
        "callingCode": "+298"
      },
      {
        "regionFlag": "ğŸ‡¬ğŸ‡¸",
        "regionName": "Ilhas GeÃ³rgia do Sul e Sandwich do Sul",
        "regionCode": "GS",
        "callingCode": "+500"
      },
      {
        "callingCode": "+672",
        "regionFlag": "ğŸ‡­ğŸ‡²",
        "regionName": "Ilhas Heard e McDonald",
        "regionCode": "HM"
      },
      {
        "regionName": "Ilhas Malvinas",
        "regionCode": "FK",
        "regionFlag": "ğŸ‡«ğŸ‡°",
        "callingCode": "+500"
      },
      {
        "regionName": "Ilhas Marianas do Norte",
        "regionCode": "MP",
        "regionFlag": "ğŸ‡²ğŸ‡µ",
        "callingCode": "+1-670"
      },
      {
        "regionName": "Ilhas Marshall",
        "regionCode": "MH",
        "regionFlag": "ğŸ‡²ğŸ‡­",
        "callingCode": "+692"
      },
      {
        "callingCode": "+1",
        "regionFlag": "ğŸ‡ºğŸ‡¸",
        "regionCode": "UM",
        "regionName": "Ilhas Menores Distantes dos EUA"
      },
      {
        "regionName": "Ilhas Pitcairn",
        "callingCode": "+872",
        "regionCode": "PN",
        "regionFlag": "ğŸ‡µğŸ‡³"
      },
      {
        "regionCode": "SB",
        "regionName": "Ilhas SalomÃ£o",
        "callingCode": "+677",
        "regionFlag": "ğŸ‡¸ğŸ‡§"
      },
      {
        "callingCode": "+1-649",
        "regionFlag": "ğŸ‡¹ğŸ‡¨",
        "regionCode": "TC",
        "regionName": "Ilhas Turcas e Caicos"
      },
      {
        "regionCode": "VI",
        "regionFlag": "ğŸ‡»ğŸ‡®",
        "regionName": "Ilhas Virgens Americanas",
        "callingCode": "+1-340"
      },
      {
        "callingCode": "+1-284",
        "regionName": "Ilhas Virgens BritÃ¢nicas",
        "regionCode": "VG",
        "regionFlag": "ğŸ‡»ğŸ‡¬"
      },
      {
        "regionCode": "ID",
        "regionFlag": "ğŸ‡®ğŸ‡©",
        "callingCode": "+62",
        "regionName": "IndonÃ©sia"
      },
      {
        "callingCode": "+964",
        "regionCode": "IQ",
        "regionFlag": "ğŸ‡®ğŸ‡¶",
        "regionName": "Iraque"
      },
      {
        "callingCode": "+353",
        "regionName": "Irlanda",
        "regionCode": "IE",
        "regionFlag": "ğŸ‡®ğŸ‡ª"
      },
      {
        "regionFlag": "ğŸ‡®ğŸ‡·",
        "callingCode": "+98",
        "regionCode": "IR",
        "regionName": "IrÃ£"
      },
      {
        "regionCode": "IS",
        "regionFlag": "ğŸ‡®ğŸ‡¸",
        "regionName": "IslÃ¢ndia",
        "callingCode": "+354"
      },
      {
        "regionName": "Israel",
        "regionFlag": "ğŸ‡®ğŸ‡±",
        "callingCode": "+972",
        "regionCode": "IL"
      },
      {
        "regionName": "ItÃ¡lia",
        "callingCode": "+39",
        "regionCode": "IT",
        "regionFlag": "ğŸ‡®ğŸ‡¹"
      },
      {
        "regionName": "IÃªmen",
        "regionCode": "YE",
        "callingCode": "+967",
        "regionFlag": "ğŸ‡¾ğŸ‡ª"
      }
    ]
  },
  {
    "index": "J",
    "items": [
      {
        "callingCode": "+1-876",
        "regionFlag": "ğŸ‡¯ğŸ‡²",
        "regionCode": "JM",
        "regionName": "Jamaica"
      },
      {
        "regionCode": "JP",
        "callingCode": "+81",
        "regionFlag": "ğŸ‡¯ğŸ‡µ",
        "regionName": "JapÃ£o"
      },
      {
        "regionName": "Jersey",
        "regionCode": "JE",
        "regionFlag": "ğŸ‡¯ğŸ‡ª",
        "callingCode": "+44"
      },
      {
        "regionName": "JordÃ¢nia",
        "regionFlag": "ğŸ‡¯ğŸ‡´",
        "regionCode": "JO",
        "callingCode": "+962"
      }
    ]
  },
  {
    "index": "K",
    "items": [
      {
        "regionFlag": "ğŸ‡½ğŸ‡°",
        "regionCode": "XK",
        "regionName": "Kosovo",
        "callingCode": "+383"
      },
      {
        "callingCode": "+965",
        "regionCode": "KW",
        "regionFlag": "ğŸ‡°ğŸ‡¼",
        "regionName": "Kuwait"
      }
    ]
  },
  {
    "index": "L",
    "items": [
      {
        "regionName": "Laos",
        "callingCode": "+856",
        "regionCode": "LA",
        "regionFlag": "ğŸ‡±ğŸ‡¦"
      },
      {
        "regionName": "Lesoto",
        "regionFlag": "ğŸ‡±ğŸ‡¸",
        "callingCode": "+266",
        "regionCode": "LS"
      },
      {
        "regionName": "LetÃ´nia",
        "regionFlag": "ğŸ‡±ğŸ‡»",
        "callingCode": "+371",
        "regionCode": "LV"
      },
      {
        "regionName": "LibÃ©ria",
        "regionCode": "LR",
        "regionFlag": "ğŸ‡±ğŸ‡·",
        "callingCode": "+231"
      },
      {
        "regionFlag": "ğŸ‡±ğŸ‡®",
        "regionName": "Liechtenstein",
        "regionCode": "LI",
        "callingCode": "+423"
      },
      {
        "regionName": "LituÃ¢nia",
        "regionCode": "LT",
        "callingCode": "+370",
        "regionFlag": "ğŸ‡±ğŸ‡¹"
      },
      {
        "callingCode": "+352",
        "regionFlag": "ğŸ‡±ğŸ‡º",
        "regionName": "Luxemburgo",
        "regionCode": "LU"
      },
      {
        "regionName": "LÃ­bano",
        "callingCode": "+961",
        "regionFlag": "ğŸ‡±ğŸ‡§",
        "regionCode": "LB"
      },
      {
        "callingCode": "+218",
        "regionFlag": "ğŸ‡±ğŸ‡¾",
        "regionCode": "LY",
        "regionName": "LÃ­bia"
      }
    ]
  },
  {
    "index": "M",
    "items": [
      {
        "regionFlag": "ğŸ‡²ğŸ‡´",
        "regionCode": "MO",
        "callingCode": "+853",
        "regionName": "Macau, RAE da China"
      },
      {
        "regionCode": "MK",
        "callingCode": "+389",
        "regionName": "MacedÃ´nia do Norte",
        "regionFlag": "ğŸ‡²ğŸ‡°"
      },
      {
        "regionName": "Madagascar",
        "regionFlag": "ğŸ‡²ğŸ‡¬",
        "regionCode": "MG",
        "callingCode": "+261"
      },
      {
        "callingCode": "+265",
        "regionFlag": "ğŸ‡²ğŸ‡¼",
        "regionCode": "MW",
        "regionName": "Malaui"
      },
      {
        "regionName": "Maldivas",
        "callingCode": "+960",
        "regionCode": "MV",
        "regionFlag": "ğŸ‡²ğŸ‡»"
      },
      {
        "callingCode": "+223",
        "regionCode": "ML",
        "regionFlag": "ğŸ‡²ğŸ‡±",
        "regionName": "Mali"
      },
      {
        "regionFlag": "ğŸ‡²ğŸ‡¹",
        "regionName": "Malta",
        "regionCode": "MT",
        "callingCode": "+356"
      },
      {
        "regionName": "MalÃ¡sia",
        "callingCode": "+60",
        "regionCode": "MY",
        "regionFlag": "ğŸ‡²ğŸ‡¾"
      },
      {
        "regionCode": "MA",
        "regionName": "Marrocos",
        "regionFlag": "ğŸ‡²ğŸ‡¦",
        "callingCode": "+212"
      },
      {
        "regionFlag": "ğŸ‡²ğŸ‡¶",
        "regionName": "Martinica",
        "callingCode": "+596",
        "regionCode": "MQ"
      },
      {
        "regionFlag": "ğŸ‡²ğŸ‡·",
        "callingCode": "+222",
        "regionCode": "MR",
        "regionName": "MauritÃ¢nia"
      },
      {
        "regionName": "MaurÃ­cio",
        "regionFlag": "ğŸ‡²ğŸ‡º",
        "callingCode": "+230",
        "regionCode": "MU"
      },
      {
        "callingCode": "+262",
        "regionName": "Mayotte",
        "regionCode": "YT",
        "regionFlag": "ğŸ‡¾ğŸ‡¹"
      },
      {
        "regionCode": "MM",
        "regionName": "Mianmar (BirmÃ¢nia)",
        "callingCode": "+95",
        "regionFlag": "ğŸ‡²ğŸ‡²"
      },
      {
        "regionFlag": "ğŸ‡«ğŸ‡²",
        "regionName": "MicronÃ©sia",
        "callingCode": "+691",
        "regionCode": "FM"
      },
      {
        "regionFlag": "ğŸ‡²ğŸ‡©",
        "regionCode": "MD",
        "regionName": "Moldova",
        "callingCode": "+373"
      },
      {
        "regionFlag": "ğŸ‡²ğŸ‡³",
        "callingCode": "+976",
        "regionName": "MongÃ³lia",
        "regionCode": "MN"
      },
      {
        "regionCode": "ME",
        "regionName": "Montenegro",
        "regionFlag": "ğŸ‡²ğŸ‡ª",
        "callingCode": "+382"
      },
      {
        "regionName": "Montserrat",
        "regionCode": "MS",
        "regionFlag": "ğŸ‡²ğŸ‡¸",
        "callingCode": "+1-664"
      },
      {
        "regionCode": "MZ",
        "regionFlag": "ğŸ‡²ğŸ‡¿",
        "callingCode": "+258",
        "regionName": "MoÃ§ambique"
      },
      {
        "regionFlag": "ğŸ‡²ğŸ‡½",
        "regionCode": "MX",
        "regionName": "MÃ©xico",
        "callingCode": "+52"
      },
      {
        "regionFlag": "ğŸ‡²ğŸ‡¨",
        "callingCode": "+377",
        "regionName": "MÃ´naco",
        "regionCode": "MC"
      }
    ]
  },
  {
    "index": "N",
    "items": [
      {
        "regionFlag": "ğŸ‡³ğŸ‡¦",
        "regionName": "NamÃ­bia",
        "callingCode": "+264",
        "regionCode": "NA"
      },
      {
        "regionFlag": "ğŸ‡³ğŸ‡·",
        "regionCode": "NR",
        "regionName": "Nauru",
        "callingCode": "+674"
      },
      {
        "regionFlag": "ğŸ‡³ğŸ‡µ",
        "regionName": "Nepal",
        "callingCode": "+977",
        "regionCode": "NP"
      },
      {
        "regionName": "NicarÃ¡gua",
        "callingCode": "+505",
        "regionCode": "NI",
        "regionFlag": "ğŸ‡³ğŸ‡®"
      },
      {
        "regionFlag": "ğŸ‡³ğŸ‡¬",
        "regionName": "NigÃ©ria",
        "regionCode": "NG",
        "callingCode": "+234"
      },
      {
        "regionCode": "NU",
        "regionName": "Niue",
        "regionFlag": "ğŸ‡³ğŸ‡º",
        "callingCode": "+683"
      },
      {
        "callingCode": "+47",
        "regionCode": "NO",
        "regionFlag": "ğŸ‡³ğŸ‡´",
        "regionName": "Noruega"
      },
      {
        "regionName": "Nova CaledÃ´nia",
        "regionCode": "NC",
        "callingCode": "+687",
        "regionFlag": "ğŸ‡³ğŸ‡¨"
      },
      {
        "regionCode": "NZ",
        "regionFlag": "ğŸ‡³ğŸ‡¿",
        "regionName": "Nova ZelÃ¢ndia",
        "callingCode": "+64"
      },
      {
        "callingCode": "+227",
        "regionName": "NÃ­ger",
        "regionFlag": "ğŸ‡³ğŸ‡ª",
        "regionCode": "NE"
      }
    ]
  },
  {
    "index": "O",
    "items": [
      {
        "callingCode": "+968",
        "regionFlag": "ğŸ‡´ğŸ‡²",
        "regionName": "OmÃ£",
        "regionCode": "OM"
      }
    ]
  },
  {
    "index": "P",
    "items": [
      {
        "regionName": "Palau",
        "callingCode": "+680",
        "regionFlag": "ğŸ‡µğŸ‡¼",
        "regionCode": "PW"
      },
      {
        "callingCode": "+507",
        "regionName": "PanamÃ¡",
        "regionFlag": "ğŸ‡µğŸ‡¦",
        "regionCode": "PA"
      },
      {
        "regionCode": "PG",
        "regionFlag": "ğŸ‡µğŸ‡¬",
        "regionName": "Papua-Nova GuinÃ©",
        "callingCode": "+675"
      },
      {
        "callingCode": "+92",
        "regionCode": "PK",
        "regionFlag": "ğŸ‡µğŸ‡°",
        "regionName": "PaquistÃ£o"
      },
      {
        "regionName": "Paraguai",
        "regionFlag": "ğŸ‡µğŸ‡¾",
        "callingCode": "+595",
        "regionCode": "PY"
      },
      {
        "regionFlag": "ğŸ‡³ğŸ‡±",
        "regionCode": "NL",
        "regionName": "PaÃ­ses Baixos",
        "callingCode": "+31"
      },
      {
        "regionName": "PaÃ­ses Baixos Caribenhos",
        "callingCode": "+599",
        "regionFlag": "ğŸ‡§ğŸ‡¶",
        "regionCode": "BQ"
      },
      {
        "regionCode": "PE",
        "regionName": "Peru",
        "callingCode": "+51",
        "regionFlag": "ğŸ‡µğŸ‡ª"
      },
      {
        "callingCode": "+689",
        "regionFlag": "ğŸ‡µğŸ‡«",
        "regionName": "PolinÃ©sia Francesa",
        "regionCode": "PF"
      },
      {
        "regionCode": "PL",
        "regionFlag": "ğŸ‡µğŸ‡±",
        "callingCode": "+48",
        "regionName": "PolÃ´nia"
      },
      {
        "regionName": "Porto Rico",
        "regionCode": "PR",
        "regionFlag": "ğŸ‡µğŸ‡·",
        "callingCode": "+1-939"
      },
      {
        "regionCode": "PT",
        "regionFlag": "ğŸ‡µğŸ‡¹",
        "callingCode": "+351",
        "regionName": "Portugal"
      }
    ]
  },
  {
    "index": "Q",
    "items": [
      {
        "callingCode": "+996",
        "regionFlag": "ğŸ‡°ğŸ‡¬",
        "regionName": "QuirguistÃ£o",
        "regionCode": "KG"
      },
      {
        "regionCode": "KI",
        "regionName": "Quiribati",
        "callingCode": "+686",
        "regionFlag": "ğŸ‡°ğŸ‡®"
      },
      {
        "callingCode": "+254",
        "regionFlag": "ğŸ‡°ğŸ‡ª",
        "regionName": "QuÃªnia",
        "regionCode": "KE"
      }
    ]
  },
  {
    "index": "R",
    "items": [
      {
        "callingCode": "+44",
        "regionFlag": "ğŸ‡¬ğŸ‡§",
        "regionCode": "GB",
        "regionName": "Reino Unido"
      },
      {
        "callingCode": "+236",
        "regionCode": "CF",
        "regionFlag": "ğŸ‡¨ğŸ‡«",
        "regionName": "RepÃºblica Centro-Africana"
      },
      {
        "regionFlag": "ğŸ‡©ğŸ‡´",
        "regionCode": "DO",
        "regionName": "RepÃºblica Dominicana",
        "callingCode": "+1-849"
      },
      {
        "callingCode": "+242",
        "regionName": "RepÃºblica do Congo",
        "regionCode": "CG",
        "regionFlag": "ğŸ‡¨ğŸ‡¬"
      },
      {
        "regionFlag": "ğŸ‡·ğŸ‡ª",
        "regionName": "ReuniÃ£o",
        "regionCode": "RE",
        "callingCode": "+262"
      },
      {
        "callingCode": "+40",
        "regionFlag": "ğŸ‡·ğŸ‡´",
        "regionName": "RomÃªnia",
        "regionCode": "RO"
      },
      {
        "regionFlag": "ğŸ‡·ğŸ‡¼",
        "regionName": "Ruanda",
        "callingCode": "+250",
        "regionCode": "RW"
      },
      {
        "regionFlag": "ğŸ‡·ğŸ‡º",
        "regionName": "RÃºssia",
        "callingCode": "+7",
        "regionCode": "RU"
      }
    ]
  },
  {
    "index": "S",
    "items": [
      {
        "regionName": "Saara Ocidental",
        "regionFlag": "ğŸ‡ªğŸ‡­",
        "regionCode": "EH",
        "callingCode": "+212"
      },
      {
        "regionCode": "WS",
        "regionName": "Samoa",
        "regionFlag": "ğŸ‡¼ğŸ‡¸",
        "callingCode": "+685"
      },
      {
        "callingCode": "+1-684",
        "regionName": "Samoa Americana",
        "regionFlag": "ğŸ‡¦ğŸ‡¸",
        "regionCode": "AS"
      },
      {
        "regionCode": "SM",
        "regionFlag": "ğŸ‡¸ğŸ‡²",
        "callingCode": "+378",
        "regionName": "San Marino"
      },
      {
        "regionFlag": "ğŸ‡¸ğŸ‡­",
        "callingCode": "+290",
        "regionCode": "SH",
        "regionName": "Santa Helena"
      },
      {
        "regionFlag": "ğŸ‡±ğŸ‡¨",
        "regionName": "Santa LÃºcia",
        "callingCode": "+1-758",
        "regionCode": "LC"
      },
      {
        "regionCode": "SC",
        "regionFlag": "ğŸ‡¸ğŸ‡¨",
        "callingCode": "+248",
        "regionName": "Seicheles"
      },
      {
        "callingCode": "+221",
        "regionCode": "SN",
        "regionName": "Senegal",
        "regionFlag": "ğŸ‡¸ğŸ‡³"
      },
      {
        "callingCode": "+232",
        "regionFlag": "ğŸ‡¸ğŸ‡±",
        "regionCode": "SL",
        "regionName": "Serra Leoa"
      },
      {
        "callingCode": "+65",
        "regionFlag": "ğŸ‡¸ğŸ‡¬",
        "regionName": "Singapura",
        "regionCode": "SG"
      },
      {
        "regionFlag": "ğŸ‡¸ğŸ‡½",
        "regionName": "Sint Maarten",
        "callingCode": "+1-721",
        "regionCode": "SX"
      },
      {
        "regionCode": "SO",
        "regionName": "SomÃ¡lia",
        "regionFlag": "ğŸ‡¸ğŸ‡´",
        "callingCode": "+252"
      },
      {
        "regionFlag": "ğŸ‡±ğŸ‡°",
        "callingCode": "+94",
        "regionCode": "LK",
        "regionName": "Sri Lanka"
      },
      {
        "regionCode": "SD",
        "regionName": "SudÃ£o",
        "regionFlag": "ğŸ‡¸ğŸ‡©",
        "callingCode": "+249"
      },
      {
        "regionFlag": "ğŸ‡¸ğŸ‡¸",
        "callingCode": "+211",
        "regionCode": "SS",
        "regionName": "SudÃ£o do Sul"
      },
      {
        "regionFlag": "ğŸ‡¸ğŸ‡·",
        "regionName": "Suriname",
        "callingCode": "+597",
        "regionCode": "SR"
      },
      {
        "regionName": "SuÃ©cia",
        "regionFlag": "ğŸ‡¸ğŸ‡ª",
        "callingCode": "+46",
        "regionCode": "SE"
      },
      {
        "callingCode": "+41",
        "regionName": "SuÃ­Ã§a",
        "regionFlag": "ğŸ‡¨ğŸ‡­",
        "regionCode": "CH"
      },
      {
        "callingCode": "+47",
        "regionName": "Svalbard e Jan Mayen",
        "regionCode": "SJ",
        "regionFlag": "ğŸ‡¸ğŸ‡¯"
      },
      {
        "callingCode": "+590",
        "regionName": "SÃ£o Bartolomeu",
        "regionCode": "BL",
        "regionFlag": "ğŸ‡§ğŸ‡±"
      },
      {
        "regionFlag": "ğŸ‡°ğŸ‡³",
        "callingCode": "+1-869",
        "regionCode": "KN",
        "regionName": "SÃ£o CristÃ³vÃ£o e NÃ©vis"
      },
      {
        "regionCode": "MF",
        "regionFlag": "ğŸ‡²ğŸ‡«",
        "regionName": "SÃ£o Martinho",
        "callingCode": "+590"
      },
      {
        "regionName": "SÃ£o Pedro e MiquelÃ£o",
        "regionFlag": "ğŸ‡µğŸ‡²",
        "regionCode": "PM",
        "callingCode": "+508"
      },
      {
        "regionName": "SÃ£o TomÃ© e PrÃ­ncipe",
        "callingCode": "+239",
        "regionCode": "ST",
        "regionFlag": "ğŸ‡¸ğŸ‡¹"
      },
      {
        "regionCode": "VC",
        "regionName": "SÃ£o Vicente e Granadinas",
        "callingCode": "+1-784",
        "regionFlag": "ğŸ‡»ğŸ‡¨"
      },
      {
        "regionName": "SÃ©rvia",
        "regionCode": "RS",
        "regionFlag": "ğŸ‡·ğŸ‡¸",
        "callingCode": "+381"
      },
      {
        "regionCode": "SY",
        "regionFlag": "ğŸ‡¸ğŸ‡¾",
        "regionName": "SÃ­ria",
        "callingCode": "+963"
      }
    ]
  },
  {
    "index": "T",
    "items": [
      {
        "regionName": "TadjiquistÃ£o",
        "regionCode": "TJ",
        "callingCode": "+992",
        "regionFlag": "ğŸ‡¹ğŸ‡¯"
      },
      {
        "callingCode": "+66",
        "regionCode": "TH",
        "regionFlag": "ğŸ‡¹ğŸ‡­",
        "regionName": "TailÃ¢ndia"
      },
      {
        "regionCode": "TW",
        "regionName": "Taiwan",
        "regionFlag": "ğŸ‡¨ğŸ‡³",
        "callingCode": "+886"
      },
      {
        "regionName": "TanzÃ¢nia",
        "callingCode": "+255",
        "regionCode": "TZ",
        "regionFlag": "ğŸ‡¹ğŸ‡¿"
      },
      {
        "callingCode": "+420",
        "regionFlag": "ğŸ‡¨ğŸ‡¿",
        "regionCode": "CZ",
        "regionName": "TchÃ©quia"
      },
      {
        "regionFlag": "ğŸ‡®ğŸ‡´",
        "regionCode": "IO",
        "callingCode": "+246",
        "regionName": "TerritÃ³rio BritÃ¢nico do Oceano Ãndico"
      },
      {
        "callingCode": "+970",
        "regionCode": "PS",
        "regionFlag": "ğŸ‡µğŸ‡¸",
        "regionName": "TerritÃ³rios palestinos"
      },
      {
        "regionCode": "TL",
        "regionName": "Timor-Leste",
        "callingCode": "+670",
        "regionFlag": "ğŸ‡¹ğŸ‡±"
      },
      {
        "regionCode": "TG",
        "regionFlag": "ğŸ‡¹ğŸ‡¬",
        "callingCode": "+228",
        "regionName": "Togo"
      },
      {
        "regionFlag": "ğŸ‡¹ğŸ‡°",
        "regionName": "Tokelau",
        "regionCode": "TK",
        "callingCode": "+690"
      },
      {
        "callingCode": "+676",
        "regionFlag": "ğŸ‡¹ğŸ‡´",
        "regionCode": "TO",
        "regionName": "Tonga"
      },
      {
        "callingCode": "+1-868",
        "regionCode": "TT",
        "regionName": "Trinidad e Tobago",
        "regionFlag": "ğŸ‡¹ğŸ‡¹"
      },
      {
        "regionFlag": "ğŸ‡¹ğŸ‡¦",
        "regionName": "Tristan da Cunha",
        "regionCode": "TA",
        "callingCode": "+290"
      },
      {
        "regionFlag": "ğŸ‡¹ğŸ‡³",
        "callingCode": "+216",
        "regionCode": "TN",
        "regionName": "TunÃ­sia"
      },
      {
        "regionFlag": "ğŸ‡¹ğŸ‡²",
        "regionName": "TurcomenistÃ£o",
        "callingCode": "+993",
        "regionCode": "TM"
      },
      {
        "regionName": "Turquia",
        "regionCode": "TR",
        "regionFlag": "ğŸ‡¹ğŸ‡·",
        "callingCode": "+90"
      },
      {
        "regionName": "Tuvalu",
        "regionCode": "TV",
        "callingCode": "+688",
        "regionFlag": "ğŸ‡¹ğŸ‡»"
      }
    ]
  },
  {
    "index": "U",
    "items": [
      {
        "regionName": "UcrÃ¢nia",
        "callingCode": "+380",
        "regionCode": "UA",
        "regionFlag": "ğŸ‡ºğŸ‡¦"
      },
      {
        "regionFlag": "ğŸ‡ºğŸ‡¬",
        "regionCode": "UG",
        "callingCode": "+256",
        "regionName": "Uganda"
      },
      {
        "regionFlag": "ğŸ‡ºğŸ‡¾",
        "regionCode": "UY",
        "regionName": "Uruguai",
        "callingCode": "+598"
      },
      {
        "regionName": "UzbequistÃ£o",
        "callingCode": "+998",
        "regionFlag": "ğŸ‡ºğŸ‡¿",
        "regionCode": "UZ"
      }
    ]
  },
  {
    "index": "V",
    "items": [
      {
        "callingCode": "+678",
        "regionName": "Vanuatu",
        "regionFlag": "ğŸ‡»ğŸ‡º",
        "regionCode": "VU"
      },
      {
        "regionFlag": "ğŸ‡»ğŸ‡ª",
        "regionCode": "VE",
        "regionName": "Venezuela",
        "callingCode": "+58"
      },
      {
        "callingCode": "+84",
        "regionName": "VietnÃ£",
        "regionCode": "VN",
        "regionFlag": "ğŸ‡»ğŸ‡³"
      }
    ]
  },
  {
    "index": "W",
    "items": [
      {
        "callingCode": "+681",
        "regionFlag": "ğŸ‡¼ğŸ‡«",
        "regionCode": "WF",
        "regionName": "Wallis e Futuna"
      }
    ]
  },
  {
    "index": "Z",
    "items": [
      {
        "regionName": "ZimbÃ¡bue",
        "regionCode": "ZW",
        "regionFlag": "ğŸ‡¿ğŸ‡¼",
        "callingCode": "+263"
      },
      {
        "callingCode": "+260",
        "regionFlag": "ğŸ‡¿ğŸ‡²",
        "regionCode": "ZM",
        "regionName": "ZÃ¢mbia"
      }
    ]
  },
  {
    "index": "Ã",
    "items": [
      {
        "regionCode": "ZA",
        "regionFlag": "ğŸ‡¿ğŸ‡¦",
        "regionName": "Ãfrica do Sul",
        "callingCode": "+27"
      },
      {
        "regionCode": "AT",
        "regionFlag": "ğŸ‡¦ğŸ‡¹",
        "callingCode": "+43",
        "regionName": "Ãustria"
      }
    ]
  },
  {
    "index": "Ã",
    "items": [
      {
        "regionCode": "IN",
        "regionFlag": "ğŸ‡®ğŸ‡³",
        "regionName": "Ãndia",
        "callingCode": "+91"
      }
    ]
  }
]